<?xml version="1.0" encoding="UTF-8"?>
<kml xmlns="http://www.opengis.net/kml/2.2">
  <Document>
    <name>KMR - 2026</name>
    <description/>
    <Style id="icon-1899-0288D1-nodesc-normal">
      <IconStyle>
        <color>ffd18802</color>
        <scale>1</scale>
        <Icon>
          <href>https://www.gstatic.com/mapspro/images/stock/503-wht-blank_maps.png</href>
        </Icon>
        <hotSpot x="32" xunits="pixels" y="64" yunits="insetPixels"/>
      </IconStyle>
      <LabelStyle>
        <scale>0</scale>
      </LabelStyle>
      <BalloonStyle>
        <text><![CDATA[<h3>$[name]</h3>]]></text>
      </BalloonStyle>
    </Style>
    <Style id="icon-1899-0288D1-nodesc-highlight">
      <IconStyle>
        <color>ffd18802</color>
        <scale>1</scale>
        <Icon>
          <href>https://www.gstatic.com/mapspro/images/stock/503-wht-blank_maps.png</href>
        </Icon>
        <hotSpot x="32" xunits="pixels" y="64" yunits="insetPixels"/>
      </IconStyle>
      <LabelStyle>
        <scale>1</scale>
      </LabelStyle>
      <BalloonStyle>
        <text><![CDATA[<h3>$[name]</h3>]]></text>
      </BalloonStyle>
    </Style>
    <StyleMap id="icon-1899-0288D1-nodesc">
      <Pair>
        <key>normal</key>
        <styleUrl>#icon-1899-0288D1-nodesc-normal</styleUrl>
      </Pair>
      <Pair>
        <key>highlight</key>
        <styleUrl>#icon-1899-0288D1-nodesc-highlight</styleUrl>
      </Pair>
    </StyleMap>
    <Style id="icon-1899-DB4436-nodesc-normal">
      <IconStyle>
        <color>ff3644db</color>
        <scale>1</scale>
        <Icon>
          <href>https://www.gstatic.com/mapspro/images/stock/503-wht-blank_maps.png</href>
        </Icon>
        <hotSpot x="32" xunits="pixels" y="64" yunits="insetPixels"/>
      </IconStyle>
      <LabelStyle>
        <scale>0</scale>
      </LabelStyle>
      <BalloonStyle>
        <text><![CDATA[<h3>$[name]</h3>]]></text>
      </BalloonStyle>
    </Style>
    <Style id="icon-1899-DB4436-nodesc-highlight">
      <IconStyle>
        <color>ff3644db</color>
        <scale>1</scale>
        <Icon>
          <href>https://www.gstatic.com/mapspro/images/stock/503-wht-blank_maps.png</href>
        </Icon>
        <hotSpot x="32" xunits="pixels" y="64" yunits="insetPixels"/>
      </IconStyle>
      <LabelStyle>
        <scale>1</scale>
      </LabelStyle>
      <BalloonStyle>
        <text><![CDATA[<h3>$[name]</h3>]]></text>
      </BalloonStyle>
    </Style>
    <StyleMap id="icon-1899-DB4436-nodesc">
      <Pair>
        <key>normal</key>
        <styleUrl>#icon-1899-DB4436-nodesc-normal</styleUrl>
      </Pair>
      <Pair>
        <key>highlight</key>
        <styleUrl>#icon-1899-DB4436-nodesc-highlight</styleUrl>
      </Pair>
    </StyleMap>
    <Style id="line-000000-1200-nodesc-normal">
      <LineStyle>
        <color>ff000000</color>
        <width>1.2</width>
      </LineStyle>
      <BalloonStyle>
        <text><![CDATA[<h3>$[name]</h3>]]></text>
      </BalloonStyle>
    </Style>
    <Style id="line-000000-1200-nodesc-highlight">
      <LineStyle>
        <color>ff000000</color>
        <width>1.8</width>
      </LineStyle>
      <BalloonStyle>
        <text><![CDATA[<h3>$[name]</h3>]]></text>
      </BalloonStyle>
    </Style>
    <StyleMap id="line-000000-1200-nodesc">
      <Pair>
        <key>normal</key>
        <styleUrl>#line-000000-1200-nodesc-normal</styleUrl>
      </Pair>
      <Pair>
        <key>highlight</key>
        <styleUrl>#line-000000-1200-nodesc-highlight</styleUrl>
      </Pair>
    </StyleMap>
    <Style id="line-1267FF-5000-nodesc-normal">
      <LineStyle>
        <color>ffff6712</color>
        <width>5</width>
      </LineStyle>
      <BalloonStyle>
        <text><![CDATA[<h3>$[name]</h3>]]></text>
      </BalloonStyle>
    </Style>
    <Style id="line-1267FF-5000-nodesc-highlight">
      <LineStyle>
        <color>ffff6712</color>
        <width>7.5</width>
      </LineStyle>
      <BalloonStyle>
        <text><![CDATA[<h3>$[name]</h3>]]></text>
      </BalloonStyle>
    </Style>
    <StyleMap id="line-1267FF-5000-nodesc">
      <Pair>
        <key>normal</key>
        <styleUrl>#line-1267FF-5000-nodesc-normal</styleUrl>
      </Pair>
      <Pair>
        <key>highlight</key>
        <styleUrl>#line-1267FF-5000-nodesc-highlight</styleUrl>
      </Pair>
    </StyleMap>
    <Folder>
      <name>Day 1</name>
      <Placemark>
        <name>The Arcata Plaza</name>
        <styleUrl>#icon-1899-0288D1-nodesc</styleUrl>
        <Point>
          <coordinates>
            -124.0860344,40.8680158,0
          </coordinates>
        </Point>
      </Placemark>
      <Placemark>
        <name>Arcata Plaza</name>
        <styleUrl>#icon-1899-0288D1-nodesc</styleUrl>
        <Point>
          <coordinates>
            -124.0857988,40.8687948,0
          </coordinates>
        </Point>
      </Placemark>
      <Placemark>
        <name>Point 3</name>
        <styleUrl>#icon-1899-0288D1-nodesc</styleUrl>
        <Point>
          <coordinates>
            -124.0867854,40.8690207,0
          </coordinates>
        </Point>
      </Placemark>
      <Placemark>
        <name>Point 4</name>
        <styleUrl>#icon-1899-0288D1-nodesc</styleUrl>
        <Point>
          <coordinates>
            -124.087059,40.8682702,0
          </coordinates>
        </Point>
      </Placemark>
      <Placemark>
        <name>Point 5</name>
        <styleUrl>#icon-1899-0288D1-nodesc</styleUrl>
        <Point>
          <coordinates>
            -124.0874051,40.8674428,0
          </coordinates>
        </Point>
      </Placemark>
      <Placemark>
        <name>Point 6</name>
        <styleUrl>#icon-1899-0288D1-nodesc</styleUrl>
        <Point>
          <coordinates>
            -124.0915465,40.8683596,0
          </coordinates>
        </Point>
      </Placemark>
      <Placemark>
        <name>Point 7</name>
        <styleUrl>#icon-1899-0288D1-nodesc</styleUrl>
        <Point>
          <coordinates>
            -124.0904092,40.8715156,0
          </coordinates>
        </Point>
      </Placemark>
      <Placemark>
        <name>Point 8</name>
        <styleUrl>#icon-1899-0288D1-nodesc</styleUrl>
        <Point>
          <coordinates>
            -124.101132,40.8738516,0
          </coordinates>
        </Point>
      </Placemark>
      <Placemark>
        <name>Point 9</name>
        <styleUrl>#icon-1899-0288D1-nodesc</styleUrl>
        <Point>
          <coordinates>
            -124.1005487,40.8810936,0
          </coordinates>
        </Point>
      </Placemark>
      <Placemark>
        <name>Point 10</name>
        <styleUrl>#icon-1899-0288D1-nodesc</styleUrl>
        <Point>
          <coordinates>
            -124.1299405,40.883188,0
          </coordinates>
        </Point>
      </Placemark>
      <Placemark>
        <name>Point 11</name>
        <styleUrl>#icon-1899-0288D1-nodesc</styleUrl>
        <Point>
          <coordinates>
            -124.1349801,40.8683204,0
          </coordinates>
        </Point>
      </Placemark>
      <Placemark>
        <name>Point 12</name>
        <styleUrl>#icon-1899-0288D1-nodesc</styleUrl>
        <Point>
          <coordinates>
            -124.1570716,40.8621296,0
          </coordinates>
        </Point>
      </Placemark>
      <Placemark>
        <name>Point 13</name>
        <styleUrl>#icon-1899-0288D1-nodesc</styleUrl>
        <Point>
          <coordinates>
            -124.166005,40.8478486,0
          </coordinates>
        </Point>
      </Placemark>
      <Placemark>
        <name>Point 14</name>
        <styleUrl>#icon-1899-0288D1-nodesc</styleUrl>
        <Point>
          <coordinates>
            -124.1667882,40.8479639,0
          </coordinates>
        </Point>
      </Placemark>
      <Placemark>
        <name>Point 15</name>
        <styleUrl>#icon-1899-0288D1-nodesc</styleUrl>
        <Point>
          <coordinates>
            -124.1684673,40.8450502,0
          </coordinates>
        </Point>
      </Placemark>
      <Placemark>
        <name>Community Center</name>
        <styleUrl>#icon-1899-0288D1-nodesc</styleUrl>
        <Point>
          <coordinates>
            -124.1686706,40.8451305,0
          </coordinates>
        </Point>
      </Placemark>
      <Placemark>
        <name>Point 17</name>
        <styleUrl>#line-000000-1200-nodesc</styleUrl>
        <LineString>
          <tessellate>1</tessellate>
          <coordinates>
            -124.168629,40.8453343,0
            -124.1691708,40.8453181,0
          </coordinates>
        </LineString>
      </Placemark>
      <Placemark>
        <name>Point 18</name>
        <styleUrl>#line-000000-1200-nodesc</styleUrl>
        <LineString>
          <tessellate>1</tessellate>
          <coordinates>
            -124.1691682,40.84531,0
            -124.1696587,40.8455204,0
          </coordinates>
        </LineString>
      </Placemark>
      <Placemark>
        <name>Point 19</name>
        <styleUrl>#icon-1899-0288D1-nodesc</styleUrl>
        <Point>
          <coordinates>
            -124.1696443,40.8455058,0
          </coordinates>
        </Point>
      </Placemark>
      <Placemark>
        <name>Point 20</name>
        <styleUrl>#icon-1899-0288D1-nodesc</styleUrl>
        <Point>
          <coordinates>
            -124.1700214,40.8460258,0
          </coordinates>
        </Point>
      </Placemark>
      <Placemark>
        <name>Point 21</name>
        <styleUrl>#icon-1899-0288D1-nodesc</styleUrl>
        <Point>
          <coordinates>
            -124.1707992,40.8461061,0
          </coordinates>
        </Point>
      </Placemark>
      <Placemark>
        <name>Point 22</name>
        <styleUrl>#icon-1899-0288D1-nodesc</styleUrl>
        <Point>
          <coordinates>
            -124.1715395,40.8465179,0
          </coordinates>
        </Point>
      </Placemark>
      <Placemark>
        <name>Point 23</name>
        <styleUrl>#icon-1899-0288D1-nodesc</styleUrl>
        <Point>
          <coordinates>
            -124.1744905,40.8476843,0
          </coordinates>
        </Point>
      </Placemark>
      <Placemark>
        <name>Samoa Beach</name>
        <styleUrl>#icon-1899-0288D1-nodesc</styleUrl>
        <Point>
          <coordinates>
            -124.1903607,40.8218842,0
          </coordinates>
        </Point>
      </Placemark>
      <Placemark>
        <name>Point 25</name>
        <styleUrl>#icon-1899-0288D1-nodesc</styleUrl>
        <Point>
          <coordinates>
            -124.1896169,40.8215926,0
          </coordinates>
        </Point>
      </Placemark>
      <Placemark>
        <name>Point 26</name>
        <styleUrl>#icon-1899-0288D1-nodesc</styleUrl>
        <Point>
          <coordinates>
            -124.1893581,40.8216058,0
          </coordinates>
        </Point>
      </Placemark>
      <Placemark>
        <name>Point 27</name>
        <styleUrl>#icon-1899-0288D1-nodesc</styleUrl>
        <Point>
          <coordinates>
            -124.1894806,40.821153,0
          </coordinates>
        </Point>
      </Placemark>
      <Placemark>
        <name>Point 28 - Begin OSRM</name>
        <styleUrl>#icon-1899-0288D1-nodesc</styleUrl>
        <Point>
          <coordinates>
            -124.1895624,40.8207726,0
          </coordinates>
        </Point>
      </Placemark>
      <Placemark>
        <name>Point 29</name>
        <styleUrl>#icon-1899-0288D1-nodesc</styleUrl>
        <Point>
          <coordinates>
            -124.1765402,40.8259196,0
          </coordinates>
        </Point>
      </Placemark>
      <Placemark>
        <name>Eureka</name>
        <styleUrl>#icon-1899-0288D1-nodesc</styleUrl>
        <Point>
          <coordinates>
            -124.1582292,40.8124654,0
          </coordinates>
        </Point>
      </Placemark>
      <Placemark>
        <name>Point 31</name>
        <styleUrl>#icon-1899-0288D1-nodesc</styleUrl>
        <Point>
          <coordinates>
            -124.1536646,40.8051425,0
          </coordinates>
        </Point>
      </Placemark>
      <Placemark>
        <name>Point 32</name>
        <styleUrl>#icon-1899-0288D1-nodesc</styleUrl>
        <Point>
          <coordinates>
            -124.156925,40.8051574,0
          </coordinates>
        </Point>
      </Placemark>
      <Placemark>
        <name>Point 33</name>
        <styleUrl>#icon-1899-0288D1-nodesc</styleUrl>
        <Point>
          <coordinates>
            -124.1587577,40.8046692,0
          </coordinates>
        </Point>
      </Placemark>
      <Placemark>
        <name>Point 34</name>
        <styleUrl>#icon-1899-0288D1-nodesc</styleUrl>
        <Point>
          <coordinates>
            -124.1590053,40.8054894,0
          </coordinates>
        </Point>
      </Placemark>
      <Placemark>
        <name>Point 35</name>
        <styleUrl>#icon-1899-0288D1-nodesc</styleUrl>
        <Point>
          <coordinates>
            -124.1600085,40.8053351,0
          </coordinates>
        </Point>
      </Placemark>
      <Placemark>
        <name>Point 36</name>
        <styleUrl>#icon-1899-0288D1-nodesc</styleUrl>
        <Point>
          <coordinates>
            -124.1601265,40.8058508,0
          </coordinates>
        </Point>
      </Placemark>
      <Placemark>
        <name>Point 37</name>
        <styleUrl>#icon-1899-0288D1-nodesc</styleUrl>
        <Point>
          <coordinates>
            -124.1555092,40.8067744,0
          </coordinates>
        </Point>
      </Placemark>
      <Placemark>
        <name>Day 1 END</name>
        <styleUrl>#icon-1899-0288D1-nodesc</styleUrl>
        <Point>
          <coordinates>
            -124.1557935,40.8074404,0
          </coordinates>
        </Point>
      </Placemark>
      <Placemark>
        <name>Day 2 - Start - Water IN*</name>
        <styleUrl>#icon-1899-0288D1-nodesc</styleUrl>
        <Point>
          <coordinates>
            -124.1542707,40.8081277,0
          </coordinates>
        </Point>
      </Placemark>
      <Placemark>
        <name>Day 2 - Water*</name>
        <styleUrl>#icon-1899-0288D1-nodesc</styleUrl>
        <Point>
          <coordinates>
            -124.15478,40.8085152,0
          </coordinates>
        </Point>
      </Placemark>
      <Placemark>
        <name>Point 40*

</name>
        <styleUrl>#icon-1899-0288D1-nodesc</styleUrl>
        <Point>
          <coordinates>
            -124.156406,40.8079412,0
          </coordinates>
        </Point>
      </Placemark>
      <Placemark>
        <name>Point 41*</name>
        <styleUrl>#icon-1899-0288D1-nodesc</styleUrl>
        <Point>
          <coordinates>
            -124.1593672,40.8070073,0
          </coordinates>
        </Point>
      </Placemark>
      <Placemark>
        <name>Point 42*</name>
        <styleUrl>#icon-1899-0288D1-nodesc</styleUrl>
        <Point>
          <coordinates>
            -124.1621013,40.8065523,0
          </coordinates>
        </Point>
      </Placemark>
      <Placemark>
        <name>Point 43*</name>
        <styleUrl>#icon-1899-0288D1-nodesc</styleUrl>
        <Point>
          <coordinates>
            -124.1652556,40.8064792,0
          </coordinates>
        </Point>
      </Placemark>
      <Placemark>
        <name>Point 44*</name>
        <styleUrl>#icon-1899-0288D1-nodesc</styleUrl>
        <Point>
          <coordinates>
            -124.168206,40.8063087,0
          </coordinates>
        </Point>
      </Placemark>
      <Placemark>
        <name>Point 45*</name>
        <styleUrl>#icon-1899-0288D1-nodesc</styleUrl>
        <Point>
          <coordinates>
            -124.1718456,40.805655,0
          </coordinates>
        </Point>
      </Placemark>
      <Placemark>
        <name>Point 46*</name>
        <styleUrl>#icon-1899-0288D1-nodesc</styleUrl>
        <Point>
          <coordinates>
            -124.1751179,40.8048916,0
          </coordinates>
        </Point>
      </Placemark>
      <Placemark>
        <name>Point 47*</name>
        <styleUrl>#icon-1899-0288D1-nodesc</styleUrl>
        <Point>
          <coordinates>
            -124.1760611,40.8044253,0
          </coordinates>
        </Point>
      </Placemark>
      <Placemark>
        <name>Day 2 - Water OUT*</name>
        <styleUrl>#icon-1899-0288D1-nodesc</styleUrl>
        <Point>
          <coordinates>
            -124.1763669,40.8037046,0
          </coordinates>
        </Point>
      </Placemark>
      <Placemark>
        <name>Point 49*</name>
        <styleUrl>#icon-1899-0288D1-nodesc</styleUrl>
        <Point>
          <coordinates>
            -124.1765239,40.803264,0
          </coordinates>
        </Point>
      </Placemark>
      <Placemark>
        <name>Point 50</name>
        <styleUrl>#icon-1899-0288D1-nodesc</styleUrl>
        <Point>
          <coordinates>
            -124.1809442,40.799451,0
          </coordinates>
        </Point>
      </Placemark>
      <Placemark>
        <name>Point 65</name>
        <styleUrl>#icon-1899-0288D1-nodesc</styleUrl>
        <Point>
          <coordinates>
            -124.1837812,40.794198,0
          </coordinates>
        </Point>
      </Placemark>
      <Placemark>
        <name>Point 61</name>
        <styleUrl>#icon-1899-0288D1-nodesc</styleUrl>
        <Point>
          <coordinates>
            -124.1790978,40.794135,0
          </coordinates>
        </Point>
      </Placemark>
      <Placemark>
        <name>Point 62</name>
        <styleUrl>#icon-1899-0288D1-nodesc</styleUrl>
        <Point>
          <coordinates>
            -124.1790587,40.7929456,0
          </coordinates>
        </Point>
      </Placemark>
      <Placemark>
        <name>Point 63</name>
        <styleUrl>#icon-1899-0288D1-nodesc</styleUrl>
        <Point>
          <coordinates>
            -124.1780287,40.7928969,0
          </coordinates>
        </Point>
      </Placemark>
      <Placemark>
        <name>Eureka Natural Foods</name>
        <styleUrl>#icon-1899-0288D1-nodesc</styleUrl>
        <Point>
          <coordinates>
            -124.1779644,40.7930573,0
          </coordinates>
        </Point>
      </Placemark>
      <Placemark>
        <name>Point 67</name>
        <styleUrl>#icon-1899-0288D1-nodesc</styleUrl>
        <Point>
          <coordinates>
            -124.180592,40.7928893,0
          </coordinates>
        </Point>
      </Placemark>
      <Placemark>
        <name>Point 68</name>
        <styleUrl>#icon-1899-0288D1-nodesc</styleUrl>
        <Point>
          <coordinates>
            -124.1806671,40.7915328,0
          </coordinates>
        </Point>
      </Placemark>
      <Placemark>
        <name>Point 69</name>
        <styleUrl>#icon-1899-0288D1-nodesc</styleUrl>
        <Point>
          <coordinates>
            -124.1847441,40.7915734,0
          </coordinates>
        </Point>
      </Placemark>
      <Placemark>
        <name>Point 70</name>
        <styleUrl>#icon-1899-0288D1-nodesc</styleUrl>
        <Point>
          <coordinates>
            -124.1851294,40.7906423,0
          </coordinates>
        </Point>
      </Placemark>
      <Placemark>
        <name>Point 71*</name>
        <styleUrl>#icon-1899-0288D1-nodesc</styleUrl>
        <Point>
          <coordinates>
            -124.1856389,40.789472,0
          </coordinates>
        </Point>
      </Placemark>
      <Placemark>
        <name>Point 72*</name>
        <styleUrl>#icon-1899-0288D1-nodesc</styleUrl>
        <Point>
          <coordinates>
            -124.1858427,40.7892182,0
          </coordinates>
        </Point>
      </Placemark>
      <Placemark>
        <name>Point 73*</name>
        <styleUrl>#icon-1899-0288D1-nodesc</styleUrl>
        <Point>
          <coordinates>
            -124.1860761,40.7883754,0
          </coordinates>
        </Point>
      </Placemark>
      <Placemark>
        <name>Point 74*</name>
        <styleUrl>#icon-1899-0288D1-nodesc</styleUrl>
        <Point>
          <coordinates>
            -124.1882067,40.7852881,0
          </coordinates>
        </Point>
      </Placemark>
      <Placemark>
        <name>Point 75*</name>
        <styleUrl>#icon-1899-0288D1-nodesc</styleUrl>
        <Point>
          <coordinates>
            -124.1915592,40.7808408,0
          </coordinates>
        </Point>
      </Placemark>
      <Placemark>
        <name>Point 76*</name>
        <styleUrl>#icon-1899-0288D1-nodesc</styleUrl>
        <Point>
          <coordinates>
            -124.1917191,40.7805754,0
          </coordinates>
        </Point>
      </Placemark>
      <Placemark>
        <name>Point 77*</name>
        <styleUrl>#icon-1899-0288D1-nodesc</styleUrl>
        <Point>
          <coordinates>
            -124.192438,40.7805551,0
          </coordinates>
        </Point>
      </Placemark>
      <Placemark>
        <name>Point 78*</name>
        <styleUrl>#icon-1899-0288D1-nodesc</styleUrl>
        <Point>
          <coordinates>
            -124.1931944,40.7792755,0
          </coordinates>
        </Point>
      </Placemark>
      <Placemark>
        <name>Point 79*</name>
        <styleUrl>#icon-1899-0288D1-nodesc</styleUrl>
        <Point>
          <coordinates>
            -124.1932426,40.7790277,0
          </coordinates>
        </Point>
      </Placemark>
      <Placemark>
        <name>Point 80*</name>
        <styleUrl>#icon-1899-0288D1-nodesc</styleUrl>
        <Point>
          <coordinates>
            -124.1933124,40.7787921,0
          </coordinates>
        </Point>
      </Placemark>
      <Placemark>
        <name>Point 81*</name>
        <styleUrl>#icon-1899-0288D1-nodesc</styleUrl>
        <Point>
          <coordinates>
            -124.1931353,40.7787028,0
          </coordinates>
        </Point>
      </Placemark>
      <Placemark>
        <name>Point 82*</name>
        <styleUrl>#icon-1899-0288D1-nodesc</styleUrl>
        <Point>
          <coordinates>
            -124.1926418,40.7786621,0
          </coordinates>
        </Point>
      </Placemark>
      <Placemark>
        <name>Point 83*</name>
        <styleUrl>#icon-1899-0288D1-nodesc</styleUrl>
        <Point>
          <coordinates>
            -124.1925667,40.7785118,0
          </coordinates>
        </Point>
      </Placemark>
      <Placemark>
        <name>Point 84*</name>
        <styleUrl>#icon-1899-0288D1-nodesc</styleUrl>
        <Point>
          <coordinates>
            -124.1930334,40.7772869,0
          </coordinates>
        </Point>
      </Placemark>
      <Placemark>
        <name>Point 85*</name>
        <styleUrl>#icon-1899-0288D1-nodesc</styleUrl>
        <Point>
          <coordinates>
            -124.1930618,40.7771693,0
          </coordinates>
        </Point>
      </Placemark>
      <Placemark>
        <name>Point 86*</name>
        <styleUrl>#icon-1899-0288D1-nodesc</styleUrl>
        <Point>
          <coordinates>
            -124.192976,40.7771206,0
          </coordinates>
        </Point>
      </Placemark>
      <Placemark>
        <name>Point 87*</name>
        <styleUrl>#icon-1899-0288D1-nodesc</styleUrl>
        <Point>
          <coordinates>
            -124.1933495,40.7761166,0
          </coordinates>
        </Point>
      </Placemark>
      <Placemark>
        <name>Point 88*</name>
        <styleUrl>#icon-1899-0288D1-nodesc</styleUrl>
        <Point>
          <coordinates>
            -124.193886,40.776203,0
          </coordinates>
        </Point>
      </Placemark>
      <Placemark>
        <name>Point 89*</name>
        <styleUrl>#icon-1899-0288D1-nodesc</styleUrl>
        <Point>
          <coordinates>
            -124.1941072,40.7760994,0
          </coordinates>
        </Point>
      </Placemark>
      <Placemark>
        <name>Point 90*</name>
        <styleUrl>#icon-1899-0288D1-nodesc</styleUrl>
        <Point>
          <coordinates>
            -124.1941287,40.7759085,0
          </coordinates>
        </Point>
      </Placemark>
      <Placemark>
        <name>Point 91*</name>
        <styleUrl>#icon-1899-0288D1-nodesc</styleUrl>
        <Point>
          <coordinates>
            -124.194063,40.7756667,0
          </coordinates>
        </Point>
      </Placemark>
      <Placemark>
        <name>Point 92*</name>
        <styleUrl>#icon-1899-0288D1-nodesc</styleUrl>
        <Point>
          <coordinates>
            -124.1942494,40.7751,0
          </coordinates>
        </Point>
      </Placemark>
      <Placemark>
        <name>Point 93*</name>
        <styleUrl>#icon-1899-0288D1-nodesc</styleUrl>
        <Point>
          <coordinates>
            -124.1945883,40.77385,0
          </coordinates>
        </Point>
      </Placemark>
      <Placemark>
        <name>Point 94*</name>
        <styleUrl>#icon-1899-0288D1-nodesc</styleUrl>
        <Point>
          <coordinates>
            -124.1949326,40.7736055,0
          </coordinates>
        </Point>
      </Placemark>
      <Placemark>
        <name>Point 95*</name>
        <styleUrl>#icon-1899-0288D1-nodesc</styleUrl>
        <Point>
          <coordinates>
            -124.1952116,40.772789,0
          </coordinates>
        </Point>
      </Placemark>
      <Placemark>
        <name>Point 96*</name>
        <styleUrl>#icon-1899-0288D1-nodesc</styleUrl>
        <Point>
          <coordinates>
            -124.1957536,40.7701331,0
          </coordinates>
        </Point>
      </Placemark>
      <Placemark>
        <name>Point 97*</name>
        <styleUrl>#icon-1899-0288D1-nodesc</styleUrl>
        <Point>
          <coordinates>
            -124.1961291,40.7687356,0
          </coordinates>
        </Point>
      </Placemark>
      <Placemark>
        <name>Point 98*</name>
        <styleUrl>#icon-1899-0288D1-nodesc</styleUrl>
        <Point>
          <coordinates>
            -124.1964429,40.7685609,0
          </coordinates>
        </Point>
      </Placemark>
      <Placemark>
        <name>Point 99*</name>
        <styleUrl>#icon-1899-0288D1-nodesc</styleUrl>
        <Point>
          <coordinates>
            -124.1966011,40.7677077,0
          </coordinates>
        </Point>
      </Placemark>
      <Placemark>
        <name>Point 100*</name>
        <styleUrl>#icon-1899-0288D1-nodesc</styleUrl>
        <Point>
          <coordinates>
            -124.1966745,40.7666368,0
          </coordinates>
        </Point>
      </Placemark>
      <Placemark>
        <name>Point 101*</name>
        <styleUrl>#icon-1899-0288D1-nodesc</styleUrl>
        <Point>
          <coordinates>
            -124.1965672,40.7664824,0
          </coordinates>
        </Point>
      </Placemark>
      <Placemark>
        <name>Point 102*</name>
        <styleUrl>#icon-1899-0288D1-nodesc</styleUrl>
        <Point>
          <coordinates>
            -124.1962561,40.7661736,0
          </coordinates>
        </Point>
      </Placemark>
      <Placemark>
        <name>Point 103*</name>
        <styleUrl>#icon-1899-0288D1-nodesc</styleUrl>
        <Point>
          <coordinates>
            -124.1962883,40.7660517,0
          </coordinates>
        </Point>
      </Placemark>
      <Placemark>
        <name>Point 104*</name>
        <styleUrl>#icon-1899-0288D1-nodesc</styleUrl>
        <Point>
          <coordinates>
            -124.1965672,40.7657836,0
          </coordinates>
        </Point>
      </Placemark>
      <Placemark>
        <name>Point 105*</name>
        <styleUrl>#icon-1899-0288D1-nodesc</styleUrl>
        <Point>
          <coordinates>
            -124.1965351,40.7648166,0
          </coordinates>
        </Point>
      </Placemark>
      <Placemark>
        <name>Point 106*</name>
        <styleUrl>#icon-1899-0288D1-nodesc</styleUrl>
        <Point>
          <coordinates>
            -124.1963343,40.7629581,0
          </coordinates>
        </Point>
      </Placemark>
      <Placemark>
        <name>Point 107*</name>
        <styleUrl>#icon-1899-0288D1-nodesc</styleUrl>
        <Point>
          <coordinates>
            -124.1959695,40.7621454,0
          </coordinates>
        </Point>
      </Placemark>
      <Placemark>
        <name>Point 108*</name>
        <styleUrl>#icon-1899-0288D1-nodesc</styleUrl>
        <Point>
          <coordinates>
            -124.1958622,40.7614628,0
          </coordinates>
        </Point>
      </Placemark>
      <Placemark>
        <name>Point 109*</name>
        <styleUrl>#icon-1899-0288D1-nodesc</styleUrl>
        <Point>
          <coordinates>
            -124.1950683,40.7599838,0
          </coordinates>
        </Point>
      </Placemark>
      <Placemark>
        <name>Point 110*</name>
        <styleUrl>#icon-1899-0288D1-nodesc</styleUrl>
        <Point>
          <coordinates>
            -124.1946391,40.7595125,0
          </coordinates>
        </Point>
      </Placemark>
      <Placemark>
        <name>Point 111*</name>
        <styleUrl>#icon-1899-0288D1-nodesc</styleUrl>
        <Point>
          <coordinates>
            -124.1942958,40.7593012,0
          </coordinates>
        </Point>
      </Placemark>
      <Placemark>
        <name>Point 112*</name>
        <styleUrl>#icon-1899-0288D1-nodesc</styleUrl>
        <Point>
          <coordinates>
            -124.1943816,40.7576758,0
          </coordinates>
        </Point>
      </Placemark>
      <Placemark>
        <name>Point 113*</name>
        <styleUrl>#icon-1899-0288D1-nodesc</styleUrl>
        <Point>
          <coordinates>
            -124.1947679,40.7559204,0
          </coordinates>
        </Point>
      </Placemark>
      <Placemark>
        <name>Point 114*</name>
        <styleUrl>#icon-1899-0288D1-nodesc</styleUrl>
        <Point>
          <coordinates>
            -124.1959526,40.7539912,0
          </coordinates>
        </Point>
      </Placemark>
      <Placemark>
        <name>Point 115*</name>
        <styleUrl>#icon-1899-0288D1-nodesc</styleUrl>
        <Point>
          <coordinates>
            -124.1986348,40.750789,0
          </coordinates>
        </Point>
      </Placemark>
      <Placemark>
        <name>Point 116*</name>
        <styleUrl>#icon-1899-0288D1-nodesc</styleUrl>
        <Point>
          <coordinates>
            -124.200018,40.7489365,0
          </coordinates>
        </Point>
      </Placemark>
      <Placemark>
        <name>Point 117*</name>
        <styleUrl>#icon-1899-0288D1-nodesc</styleUrl>
        <Point>
          <coordinates>
            -124.202901,40.7458429,0
          </coordinates>
        </Point>
      </Placemark>
      <Placemark>
        <name>Point 118*</name>
        <styleUrl>#icon-1899-0288D1-nodesc</styleUrl>
        <Point>
          <coordinates>
            -124.2012626,40.7444816,0
          </coordinates>
        </Point>
      </Placemark>
      <Placemark>
        <name>Point 119</name>
        <styleUrl>#icon-1899-0288D1-nodesc</styleUrl>
        <Point>
          <coordinates>
            -124.200533,40.7450831,0
          </coordinates>
        </Point>
      </Placemark>
      <Placemark>
        <name>Point 120</name>
        <styleUrl>#icon-1899-0288D1-nodesc</styleUrl>
        <Point>
          <coordinates>
            -124.1989881,40.7476922,0
          </coordinates>
        </Point>
      </Placemark>
      <Placemark>
        <name>Point 121</name>
        <styleUrl>#icon-1899-0288D1-nodesc</styleUrl>
        <Point>
          <coordinates>
            -124.1987306,40.7473671,0
          </coordinates>
        </Point>
      </Placemark>
      <Placemark>
        <name>Point 122</name>
        <styleUrl>#icon-1899-0288D1-nodesc</styleUrl>
        <Point>
          <coordinates>
            -124.1997606,40.7451237,0
          </coordinates>
        </Point>
      </Placemark>
      <Placemark>
        <name>Point 123</name>
        <styleUrl>#icon-1899-0288D1-nodesc</styleUrl>
        <Point>
          <coordinates>
            -124.199027,40.7434097,0
          </coordinates>
        </Point>
      </Placemark>
      <Placemark>
        <name>Point 124</name>
        <styleUrl>#icon-1899-0288D1-nodesc</styleUrl>
        <Point>
          <coordinates>
            -124.2013694,40.7406188,0
          </coordinates>
        </Point>
      </Placemark>
      <Placemark>
        <name>Point 127</name>
        <styleUrl>#icon-1899-0288D1-nodesc</styleUrl>
        <Point>
          <coordinates>
            -124.2106578,40.7363282,0
          </coordinates>
        </Point>
      </Placemark>
      <Placemark>
        <name>Point 130</name>
        <styleUrl>#icon-1899-0288D1-nodesc</styleUrl>
        <Point>
          <coordinates>
            -124.2152745,40.7265699,0
          </coordinates>
        </Point>
      </Placemark>
      <Placemark>
        <name>Point 136</name>
        <styleUrl>#icon-1899-0288D1-nodesc</styleUrl>
        <Point>
          <coordinates>
            -124.2079214,40.7050302,0
          </coordinates>
        </Point>
      </Placemark>
      <Placemark>
        <name>Point 141</name>
        <styleUrl>#icon-1899-0288D1-nodesc</styleUrl>
        <Point>
          <coordinates>
            -124.2027004,40.6702426,0
          </coordinates>
        </Point>
      </Placemark>
      <Placemark>
        <name>Day 2 - END</name>
        <styleUrl>#icon-1899-0288D1-nodesc</styleUrl>
        <Point>
          <coordinates>
            -124.3037015,40.643211,0
          </coordinates>
        </Point>
      </Placemark>
      <Placemark>
        <name>Point 147</name>
        <styleUrl>#icon-1899-0288D1-nodesc</styleUrl>
        <Point>
          <coordinates>
            -124.215502,40.6551115,0
          </coordinates>
        </Point>
      </Placemark>
    </Folder>
    <Folder>
      <name>Day 1 - Part 1</name>
      <Placemark>
        <name>Day 1 - Part 1</name>
        <styleUrl>#line-1267FF-5000-nodesc</styleUrl>
        <LineString>
          <tessellate>1</tessellate>
          <coordinates>
            -124.08605,40.86802,0
            -124.08577,40.8688,0
            -124.08679,40.86903,0
            -124.08688,40.86878,0
            -124.08707,40.86826,0
            -124.08719,40.86798,0
            -124.08719,40.86796,0
            -124.08733,40.86764,0
            -124.08741,40.86745,0
            -124.08784,40.86754,0
            -124.08847,40.86769,0
            -124.08949,40.8679,0
            -124.09054,40.86813,0
            -124.09148,40.86833,0
            -124.09152,40.86836,0
            -124.09152,40.86841,0
            -124.09136,40.86883,0
            -124.09124,40.86915,0
            -124.09106,40.86962,0
            -124.09095,40.86993,0
            -124.09066,40.87074,0
            -124.09052,40.87114,0
            -124.09046,40.8713,0
            -124.09038,40.87151,0
            -124.09037,40.87152,0
            -124.0904,40.87153,0
            -124.09046,40.87155,0
            -124.09075,40.87161,0
            -124.09094,40.87166,0
            -124.09142,40.87176,0
            -124.09243,40.87197,0
            -124.09256,40.872,0
            -124.09263,40.87202,0
            -124.09351,40.87221,0
            -124.09456,40.87243,0
            -124.09538,40.87261,0
            -124.09563,40.87267,0
            -124.09595,40.87273,0
            -124.09629,40.87281,0
            -124.09683,40.87293,0
            -124.09695,40.87295,0
            -124.09701,40.87297,0
            -124.09718,40.873,0
            -124.09764,40.8731,0
            -124.09806,40.87319,0
            -124.09853,40.87329,0
            -124.09855,40.8733,0
            -124.09896,40.87339,0
            -124.0994,40.87348,0
            -124.10018,40.87365,0
            -124.10079,40.87378,0
            -124.1011,40.87385,0
            -124.10113,40.87385,0
            -124.10116,40.87386,0
            -124.10112,40.8748,0
            -124.10114,40.87549,0
            -124.10113,40.87589,0
            -124.10113,40.87599,0
            -124.10113,40.87619,0
            -124.10113,40.87673,0
            -124.10113,40.87686,0
            -124.10112,40.87727,0
            -124.10112,40.87731,0
            -124.10112,40.87745,0
            -124.10109,40.87817,0
            -124.10109,40.87825,0
            -124.10107,40.87894,0
            -124.10105,40.87941,0
            -124.10105,40.87972,0
            -124.10103,40.87985,0
            -124.10089,40.88026,0
            -124.10076,40.88064,0
            -124.10071,40.88076,0
            -124.10057,40.88111,0
            -124.10075,40.88115,0
            -124.10324,40.88182,0
            -124.10449,40.88217,0
            -124.10528,40.88238,0
            -124.10551,40.88243,0
            -124.10585,40.88252,0
            -124.10632,40.88264,0
            -124.10664,40.88272,0
            -124.10728,40.8829,0
            -124.10744,40.88294,0
            -124.10753,40.88296,0
            -124.10773,40.88302,0
            -124.10779,40.88304,0
            -124.10794,40.88306,0
            -124.10813,40.88307,0
            -124.10823,40.88307,0
            -124.10826,40.88307,0
            -124.10846,40.88307,0
            -124.10922,40.88307,0
            -124.1097,40.88307,0
            -124.11208,40.88309,0
            -124.11231,40.88309,0
            -124.11564,40.88311,0
            -124.1185,40.88313,0
            -124.12043,40.88315,0
            -124.12118,40.88315,0
            -124.12169,40.88314,0
            -124.12294,40.88316,0
            -124.12304,40.88316,0
            -124.12382,40.88317,0
            -124.12467,40.88318,0
            -124.12533,40.88318,0
            -124.12618,40.88319,0
            -124.1283,40.88321,0
            -124.12937,40.88321,0
            -124.12948,40.8832,0
            -124.12971,40.8832,0
            -124.12991,40.88317,0
            -124.12996,40.88317,0
            -124.13012,40.88312,0
            -124.13027,40.88307,0
            -124.13034,40.88303,0
            -124.13041,40.88296,0
            -124.13044,40.88287,0
            -124.13044,40.88265,0
            -124.13046,40.8815,0
            -124.13046,40.88126,0
            -124.13047,40.8809,0
            -124.13047,40.88072,0
            -124.13047,40.88053,0
            -124.13048,40.88028,0
            -124.13048,40.88018,0
            -124.13048,40.87991,0
            -124.13048,40.87982,0
            -124.13048,40.87974,0
            -124.13049,40.87964,0
            -124.1305,40.87962,0
            -124.13054,40.8795,0
            -124.13057,40.87947,0
            -124.13069,40.87932,0
            -124.13073,40.87927,0
            -124.1308,40.87916,0
            -124.13085,40.87909,0
            -124.1309,40.87898,0
            -124.13093,40.87886,0
            -124.13093,40.87864,0
            -124.13092,40.87846,0
            -124.13092,40.87844,0
            -124.13093,40.87798,0
            -124.13099,40.8772,0
            -124.131,40.87717,0
            -124.13102,40.87707,0
            -124.13105,40.87703,0
            -124.13108,40.87696,0
            -124.13117,40.87684,0
            -124.13123,40.87679,0
            -124.13131,40.87673,0
            -124.13158,40.87655,0
            -124.13167,40.8765,0
            -124.1318,40.87644,0
            -124.13188,40.87642,0
            -124.13195,40.8764,0
            -124.13212,40.87638,0
            -124.13224,40.87639,0
            -124.13239,40.87642,0
            -124.13253,40.87646,0
            -124.13265,40.87652,0
            -124.13281,40.87658,0
            -124.133,40.87663,0
            -124.13321,40.87669,0
            -124.13322,40.87669,0
            -124.1333,40.8767,0
            -124.13352,40.8767,0
            -124.13416,40.8766,0
            -124.13424,40.87658,0
            -124.13437,40.87657,0
            -124.1344,40.87657,0
            -124.13459,40.87653,0
            -124.13471,40.87647,0
            -124.13477,40.87643,0
            -124.13488,40.87633,0
            -124.13492,40.87627,0
            -124.13495,40.87617,0
            -124.13495,40.87499,0
            -124.13495,40.87488,0
            -124.13497,40.87373,0
            -124.13496,40.87321,0
            -124.13497,40.87266,0
            -124.13498,40.87234,0
            -124.13498,40.87212,0
            -124.13498,40.87167,0
            -124.13498,40.87122,0
            -124.13497,40.8705,0
            -124.13497,40.86998,0
            -124.13497,40.86924,0
            -124.13497,40.86888,0
            -124.13498,40.86874,0
            -124.13498,40.8687,0
            -124.13498,40.86849,0
            -124.13499,40.86833,0
            -124.13537,40.86833,0
            -124.13582,40.86832,0
            -124.13625,40.8683,0
            -124.13656,40.86828,0
            -124.13657,40.86828,0
            -124.13697,40.86824,0
            -124.1373,40.8682,0
            -124.13742,40.86819,0
            -124.13797,40.86811,0
            -124.13828,40.86806,0
            -124.1383,40.86805,0
            -124.13864,40.86799,0
            -124.13907,40.86789,0
            -124.13976,40.86774,0
            -124.14124,40.86737,0
            -124.14262,40.86704,0
            -124.14305,40.86694,0
            -124.14307,40.86693,0
            -124.144,40.8667,0
            -124.14462,40.86655,0
            -124.14592,40.86623,0
            -124.14638,40.86612,0
            -124.14678,40.86602,0
            -124.14705,40.86593,0
            -124.14758,40.86578,0
            -124.14774,40.86574,0
            -124.14786,40.8657,0
            -124.14797,40.86567,0
            -124.14854,40.86553,0
            -124.14893,40.86542,0
            -124.14899,40.86541,0
            -124.14909,40.86538,0
            -124.14956,40.86526,0
            -124.14966,40.86524,0
            -124.14976,40.86521,0
            -124.14999,40.86515,0
            -124.15004,40.86514,0
            -124.15034,40.86506,0
            -124.15094,40.86491,0
            -124.1513,40.86482,0
            -124.15134,40.86481,0
            -124.15147,40.86478,0
            -124.15157,40.86476,0
            -124.15201,40.86465,0
            -124.15219,40.8646,0
            -124.15242,40.86453,0
            -124.15258,40.86448,0
            -124.1528,40.8644,0
            -124.15299,40.86433,0
            -124.15328,40.86419,0
            -124.15345,40.8641,0
            -124.15349,40.86407,0
            -124.15372,40.86394,0
            -124.15412,40.86364,0
            -124.15432,40.8635,0
            -124.15454,40.86335,0
            -124.15499,40.86306,0
            -124.15511,40.86299,0
            -124.15541,40.86284,0
            -124.15563,40.86275,0
            -124.15579,40.86268,0
            -124.15595,40.86262,0
            -124.15651,40.86239,0
            -124.15676,40.86229,0
            -124.15707,40.86214,0
            -124.15725,40.86206,0
            -124.15739,40.86199,0
            -124.15755,40.86189,0
            -124.15778,40.86175,0
            -124.15794,40.86164,0
            -124.15809,40.86152,0
            -124.15822,40.86142,0
            -124.15839,40.86128,0
            -124.15869,40.86099,0
            -124.15879,40.86089,0
            -124.15891,40.86075,0
            -124.15911,40.8605,0
            -124.15928,40.86027,0
            -124.15942,40.86004,0
            -124.15955,40.85981,0
            -124.15999,40.85898,0
            -124.1613,40.85657,0
            -124.16139,40.8564,0
            -124.1622,40.85491,0
            -124.1626,40.85416,0
            -124.16299,40.85345,0
            -124.16326,40.85294,0
            -124.16352,40.85248,0
            -124.16386,40.85186,0
            -124.16398,40.85165,0
            -124.16408,40.85148,0
            -124.16434,40.85096,0
            -124.16474,40.85022,0
            -124.16533,40.84913,0
            -124.16535,40.84908,0
            -124.16553,40.84875,0
            -124.16599,40.84792,0
            -124.16603,40.84784,0
            -124.16628,40.84789,0
            -124.1663,40.8479,0
            -124.16635,40.84791,0
            -124.1664,40.84791,0
            -124.16652,40.84793,0
            -124.1666,40.84794,0
            -124.16677,40.84796,0
            -124.16677,40.84783,0
            -124.16681,40.84772,0
            -124.16685,40.84766,0
            -124.16709,40.84735,0
            -124.16711,40.84732,0
            -124.16712,40.84731,0
            -124.16722,40.84716,0
            -124.16728,40.84703,0
            -124.16733,40.84658,0
            -124.16737,40.84644,0
            -124.16745,40.84636,0
            -124.16761,40.84627,0
            -124.16781,40.84614,0
            -124.16793,40.84601,0
            -124.16802,40.84589,0
            -124.16805,40.84583,0
            -124.16814,40.84567,0
            -124.16815,40.84566,0
            -124.16843,40.84513,0
            -124.16847,40.84506,0
          </coordinates>
        </LineString>
      </Placemark>
      <Placemark>
        <name>The Arcata Plaza</name>
        <styleUrl>#icon-1899-DB4436-nodesc</styleUrl>
        <Point>
          <coordinates>
            -124.0860549,40.8680243,0
          </coordinates>
        </Point>
      </Placemark>
      <Placemark>
        <name>Arcata Plaza</name>
        <styleUrl>#icon-1899-DB4436-nodesc</styleUrl>
        <Point>
          <coordinates>
            -124.0857741,40.868799,0
          </coordinates>
        </Point>
      </Placemark>
      <Placemark>
        <name>Point 3</name>
        <styleUrl>#icon-1899-DB4436-nodesc</styleUrl>
        <Point>
          <coordinates>
            -124.0867907,40.869029,0
          </coordinates>
        </Point>
      </Placemark>
      <Placemark>
        <name>Point 4</name>
        <styleUrl>#icon-1899-DB4436-nodesc</styleUrl>
        <Point>
          <coordinates>
            -124.0870663,40.8682565,0
          </coordinates>
        </Point>
      </Placemark>
      <Placemark>
        <name>Point 5</name>
        <styleUrl>#icon-1899-DB4436-nodesc</styleUrl>
        <Point>
          <coordinates>
            -124.0874133,40.867451,0
          </coordinates>
        </Point>
      </Placemark>
      <Placemark>
        <name>Point 7</name>
        <styleUrl>#icon-1899-DB4436-nodesc</styleUrl>
        <Point>
          <coordinates>
            -124.0903758,40.8715074,0
          </coordinates>
        </Point>
      </Placemark>
      <Placemark>
        <name>Point 8</name>
        <styleUrl>#icon-1899-DB4436-nodesc</styleUrl>
        <Point>
          <coordinates>
            -124.101132,40.8738515,0
          </coordinates>
        </Point>
      </Placemark>
      <Placemark>
        <name>Point 10</name>
        <styleUrl>#icon-1899-DB4436-nodesc</styleUrl>
        <Point>
          <coordinates>
            -124.1299076,40.8831739,0
          </coordinates>
        </Point>
      </Placemark>
      <Placemark>
        <name>Point 11</name>
        <styleUrl>#icon-1899-DB4436-nodesc</styleUrl>
        <Point>
          <coordinates>
            -124.1349898,40.8683309,0
          </coordinates>
        </Point>
      </Placemark>
      <Placemark>
        <name>Point 15</name>
        <styleUrl>#icon-1899-DB4436-nodesc</styleUrl>
        <Point>
          <coordinates>
            -124.1684722,40.8450577,0
          </coordinates>
        </Point>
      </Placemark>
    </Folder>
    <Folder>
      <name>Day 1 - Part 3</name>
      <Placemark>
        <name>Day 1 - Part 3</name>
        <styleUrl>#line-1267FF-5000-nodesc</styleUrl>
        <LineString>
          <tessellate>1</tessellate>
          <coordinates>
            -124.18955,40.82076,0
            -124.1895,40.8208,0
            -124.18949,40.82081,0
            -124.18929,40.82095,0
            -124.18909,40.82108,0
            -124.18889,40.82121,0
            -124.18868,40.82133,0
            -124.1885,40.82143,0
            -124.18846,40.82145,0
            -124.18825,40.82157,0
            -124.1882,40.82159,0
            -124.18803,40.82167,0
            -124.1879,40.82173,0
            -124.18787,40.82174,0
            -124.18764,40.82185,0
            -124.18749,40.82191,0
            -124.18725,40.82202,0
            -124.18705,40.8221,0
            -124.18678,40.8222,0
            -124.18656,40.82228,0
            -124.18637,40.82234,0
            -124.18617,40.8224,0
            -124.18597,40.82246,0
            -124.18577,40.82251,0
            -124.18557,40.82256,0
            -124.18534,40.82261,0
            -124.1851,40.82266,0
            -124.18485,40.82272,0
            -124.18451,40.82279,0
            -124.18434,40.8228,0
            -124.18414,40.82282,0
            -124.184,40.82283,0
            -124.1838,40.82285,0
            -124.18357,40.82287,0
            -124.18274,40.82294,0
            -124.18223,40.82298,0
            -124.18212,40.82299,0
            -124.18174,40.82302,0
            -124.18162,40.82303,0
            -124.18134,40.82306,0
            -124.18112,40.82309,0
            -124.18093,40.82312,0
            -124.18074,40.82315,0
            -124.18048,40.8232,0
            -124.18026,40.82325,0
            -124.18009,40.82329,0
            -124.17984,40.82336,0
            -124.17972,40.8234,0
            -124.17967,40.82342,0
            -124.17952,40.82347,0
            -124.17931,40.82355,0
            -124.17914,40.82362,0
            -124.17895,40.82371,0
            -124.17881,40.82378,0
            -124.17872,40.82383,0
            -124.1785,40.82395,0
            -124.17837,40.82403,0
            -124.17825,40.82411,0
            -124.17808,40.82423,0
            -124.17797,40.82431,0
            -124.17791,40.82436,0
            -124.1778,40.82445,0
            -124.17764,40.82459,0
            -124.17748,40.82475,0
            -124.17725,40.825,0
            -124.17703,40.82526,0
            -124.17687,40.82545,0
            -124.17687,40.82553,0
            -124.17654,40.82592,0
            -124.17612,40.82564,0
            -124.17576,40.82541,0
            -124.17527,40.82509,0
            -124.17489,40.82484,0
            -124.17445,40.82456,0
            -124.17423,40.82442,0
            -124.17394,40.82423,0
            -124.17388,40.82419,0
            -124.17387,40.82418,0
            -124.17367,40.82405,0
            -124.17342,40.82388,0
            -124.17308,40.82366,0
            -124.17232,40.82315,0
            -124.17229,40.82313,0
            -124.17211,40.82302,0
            -124.17167,40.82272,0
            -124.17139,40.82255,0
            -124.17121,40.82243,0
            -124.1712,40.82243,0
            -124.17115,40.8224,0
            -124.17102,40.82232,0
            -124.17084,40.8222,0
            -124.17061,40.82204,0
            -124.17049,40.82196,0
            -124.17031,40.82184,0
            -124.17013,40.82172,0
            -124.16995,40.82161,0
            -124.16992,40.82159,0
            -124.16977,40.82149,0
            -124.16959,40.82137,0
            -124.16941,40.82125,0
            -124.16937,40.82123,0
            -124.16923,40.82114,0
            -124.16905,40.82102,0
            -124.16887,40.8209,0
            -124.16869,40.82078,0
            -124.16848,40.82064,0
            -124.16833,40.82055,0
            -124.16815,40.82043,0
            -124.16775,40.82017,0
            -124.16727,40.81985,0
            -124.16726,40.81984,0
            -124.16725,40.81984,0
            -124.16707,40.81972,0
            -124.16689,40.81961,0
            -124.16671,40.81949,0
            -124.16653,40.81937,0
            -124.16644,40.81931,0
            -124.16638,40.81927,0
            -124.16635,40.81925,0
            -124.16618,40.81913,0
            -124.166,40.81902,0
            -124.16566,40.81879,0
            -124.16564,40.81878,0
            -124.16554,40.81872,0
            -124.16546,40.81866,0
            -124.16528,40.81854,0
            -124.16487,40.81827,0
            -124.16476,40.81821,0
            -124.16474,40.81819,0
            -124.16438,40.81795,0
            -124.1642,40.81784,0
            -124.16402,40.81772,0
            -124.16396,40.81767,0
            -124.16385,40.8176,0
            -124.16367,40.81748,0
            -124.16357,40.81741,0
            -124.1635,40.81735,0
            -124.16334,40.81725,0
            -124.16332,40.81723,0
            -124.16299,40.81698,0
            -124.16297,40.81696,0
            -124.16283,40.81684,0
            -124.16272,40.81676,0
            -124.16268,40.81673,0
            -124.16266,40.81671,0
            -124.16251,40.81658,0
            -124.16249,40.81656,0
            -124.16238,40.81648,0
            -124.16235,40.81645,0
            -124.16227,40.81638,0
            -124.16219,40.81631,0
            -124.16205,40.81619,0
            -124.16204,40.81617,0
            -124.16189,40.81603,0
            -124.16172,40.81587,0
            -124.16159,40.81575,0
            -124.16147,40.81563,0
            -124.16145,40.81561,0
            -124.1613,40.81547,0
            -124.16119,40.81536,0
            -124.16075,40.81491,0
            -124.1602,40.81439,0
            -124.1601,40.81429,0
            -124.16005,40.81424,0
            -124.15998,40.81417,0
            -124.15959,40.81379,0
            -124.15952,40.81372,0
            -124.15897,40.81318,0
            -124.15894,40.81315,0
            -124.15835,40.81258,0
            -124.1583,40.81254,0
            -124.15824,40.81249,0
            -124.15824,40.81248,0
            -124.15822,40.81247,0
            -124.15816,40.81241,0
            -124.15804,40.8123,0
            -124.15772,40.81198,0
            -124.15723,40.81151,0
            -124.15717,40.81145,0
            -124.15707,40.81136,0
            -124.15686,40.81115,0
            -124.15685,40.81114,0
            -124.15683,40.81112,0
            -124.15674,40.81103,0
            -124.15659,40.81089,0
            -124.15654,40.81084,0
            -124.15641,40.81072,0
            -124.15629,40.8106,0
            -124.15626,40.81058,0
            -124.15615,40.81046,0
            -124.1561,40.81041,0
            -124.15579,40.81012,0
            -124.15566,40.80999,0
            -124.15546,40.8098,0
            -124.15536,40.80971,0
            -124.15531,40.80965,0
            -124.15527,40.80962,0
            -124.15515,40.8095,0
            -124.15512,40.80947,0
            -124.15509,40.80945,0
            -124.15507,40.80942,0
            -124.15493,40.80928,0
            -124.15483,40.80919,0
            -124.15483,40.80918,0
            -124.15471,40.80906,0
            -124.15454,40.80885,0
            -124.15453,40.80884,0
            -124.15452,40.80883,0
            -124.15441,40.80868,0
            -124.1544,40.80866,0
            -124.15431,40.80852,0
            -124.15415,40.80828,0
            -124.15411,40.80819,0
            -124.15406,40.80811,0
            -124.15402,40.80804,0
            -124.15397,40.80794,0
            -124.15396,40.8079,0
            -124.15389,40.80773,0
            -124.15385,40.80761,0
            -124.15382,40.80752,0
            -124.15377,40.80737,0
            -124.15375,40.80728,0
            -124.15373,40.80721,0
            -124.15373,40.8072,0
            -124.15372,40.80716,0
            -124.1537,40.80707,0
            -124.1537,40.80706,0
            -124.15369,40.80703,0
            -124.15368,40.80694,0
            -124.15368,40.80693,0
            -124.15368,40.8069,0
            -124.15367,40.80685,0
            -124.15364,40.80655,0
            -124.15364,40.8064,0
            -124.15366,40.80626,0
            -124.15369,40.80595,0
            -124.15369,40.80554,0
            -124.15369,40.80513,0
            -124.1544,40.80514,0
            -124.15472,40.80515,0
            -124.15543,40.80516,0
            -124.15551,40.80516,0
            -124.1558,40.80516,0
            -124.15691,40.80517,0
            -124.15692,40.80491,0
            -124.15747,40.80486,0
            -124.15766,40.80484,0
            -124.15836,40.80472,0
            -124.15876,40.80466,0
            -124.15886,40.80508,0
            -124.15889,40.80522,0
            -124.15892,40.80531,0
            -124.15897,40.80548,0
            -124.1592,40.80545,0
            -124.15967,40.80538,0
            -124.15999,40.80533,0
            -124.16003,40.80552,0
            -124.16008,40.80573,0
            -124.1601,40.80585,0
            -124.15971,40.80589,0
            -124.15959,40.80588,0
            -124.15946,40.80588,0
            -124.15903,40.80594,0
            -124.15824,40.80611,0
            -124.15776,40.80622,0
            -124.15768,40.80624,0
            -124.15753,40.80627,0
            -124.15651,40.80651,0
            -124.15617,40.80659,0
            -124.15585,40.80665,0
            -124.15584,40.80666,0
            -124.15548,40.80672,0
            -124.1555,40.80678,0
          </coordinates>
        </LineString>
      </Placemark>
      <Placemark>
        <name>Point 28 - Begin OSRM</name>
        <styleUrl>#icon-1899-DB4436-nodesc</styleUrl>
        <Point>
          <coordinates>
            -124.1895505,40.8207634,0
          </coordinates>
        </Point>
      </Placemark>
      <Placemark>
        <name>Point 29</name>
        <styleUrl>#icon-1899-DB4436-nodesc</styleUrl>
        <Point>
          <coordinates>
            -124.1765374,40.8259203,0
          </coordinates>
        </Point>
      </Placemark>
      <Placemark>
        <name>Eureka</name>
        <styleUrl>#icon-1899-DB4436-nodesc</styleUrl>
        <Point>
          <coordinates>
            -124.1582234,40.8124693,0
          </coordinates>
        </Point>
      </Placemark>
      <Placemark>
        <name>Point 31</name>
        <styleUrl>#icon-1899-DB4436-nodesc</styleUrl>
        <Point>
          <coordinates>
            -124.1536916,40.8051271,0
          </coordinates>
        </Point>
      </Placemark>
      <Placemark>
        <name>Point 33</name>
        <styleUrl>#icon-1899-DB4436-nodesc</styleUrl>
        <Point>
          <coordinates>
            -124.1587569,40.804664,0
          </coordinates>
        </Point>
      </Placemark>
      <Placemark>
        <name>Point 34</name>
        <styleUrl>#icon-1899-DB4436-nodesc</styleUrl>
        <Point>
          <coordinates>
            -124.1589678,40.805483,0
          </coordinates>
        </Point>
      </Placemark>
      <Placemark>
        <name>Point 35</name>
        <styleUrl>#icon-1899-DB4436-nodesc</styleUrl>
        <Point>
          <coordinates>
            -124.1599884,40.8053337,0
          </coordinates>
        </Point>
      </Placemark>
      <Placemark>
        <name>Point 36</name>
        <styleUrl>#icon-1899-DB4436-nodesc</styleUrl>
        <Point>
          <coordinates>
            -124.1601049,40.8058496,0
          </coordinates>
        </Point>
      </Placemark>
      <Placemark>
        <name>Point 37</name>
        <styleUrl>#icon-1899-DB4436-nodesc</styleUrl>
        <Point>
          <coordinates>
            -124.1555033,40.8067761,0
          </coordinates>
        </Point>
      </Placemark>
    </Folder>
    <Folder>
      <name>Directions from Point 49 to Eureka Natural Foods</name>
      <Placemark>
        <name>Directions from Point 49 to Eureka Natural Foods</name>
        <styleUrl>#line-1267FF-5000-nodesc</styleUrl>
        <LineString>
          <tessellate>1</tessellate>
          <coordinates>
            -124.17655,40.80329,0
            -124.17657,40.80328,0
            -124.17713,40.80287,0
            -124.17768,40.8024,0
            -124.17806,40.80212,0
            -124.17814,40.80207,0
            -124.17864,40.80167,0
            -124.17886,40.80148,0
            -124.17888,40.80147,0
            -124.17913,40.80123,0
            -124.17959,40.80078,0
            -124.17971,40.80066,0
            -124.18064,40.79974,0
            -124.18144,40.79891,0
            -124.18171,40.79859,0
            -124.18174,40.79846,0
            -124.18197,40.79828,0
            -124.18223,40.79792,0
            -124.1825,40.79756,0
            -124.18284,40.7971,0
            -124.18292,40.79697,0
            -124.18299,40.79682,0
            -124.18303,40.79669,0
            -124.18305,40.79668,0
            -124.1831,40.79667,0
            -124.18312,40.79666,0
            -124.18314,40.79663,0
            -124.18316,40.79659,0
            -124.18318,40.79652,0
            -124.1832,40.79646,0
            -124.18322,40.79637,0
            -124.18321,40.7962,0
            -124.18323,40.79613,0
            -124.18325,40.79606,0
            -124.18336,40.79588,0
            -124.18347,40.79562,0
            -124.18342,40.79558,0
            -124.18337,40.79549,0
            -124.18324,40.79548,0
            -124.18353,40.79485,0
            -124.18378,40.79417,0
            -124.183,40.79417,0
            -124.18205,40.79416,0
            -124.1814,40.79416,0
            -124.1806,40.79415,0
            -124.17903,40.79415,0
            -124.17904,40.79324,0
            -124.17904,40.79316,0
            -124.17904,40.79295,0
            -124.17905,40.79291,0
            -124.17855,40.79289,0
            -124.17827,40.79288,0
            -124.17817,40.79288,0
            -124.17798,40.79287,0
            -124.17797,40.79306,0
            -124.17795,40.79337,0
          </coordinates>
        </LineString>
      </Placemark>
      <Placemark>
        <name>Point 49</name>
        <styleUrl>#icon-1899-DB4436-nodesc</styleUrl>
        <Point>
          <coordinates>
            -124.1765459,40.8032865,0
          </coordinates>
        </Point>
      </Placemark>
      <Placemark>
        <name>Point 51</name>
        <styleUrl>#icon-1899-DB4436-nodesc</styleUrl>
        <Point>
          <coordinates>
            -124.1834679,40.7956225,0
          </coordinates>
        </Point>
      </Placemark>
      <Placemark>
        <name>Point 62</name>
        <styleUrl>#icon-1899-DB4436-nodesc</styleUrl>
        <Point>
          <coordinates>
            -124.1790442,40.7929454,0
          </coordinates>
        </Point>
      </Placemark>
      <Placemark>
        <name>Eureka Natural Foods</name>
        <styleUrl>#icon-1899-DB4436-nodesc</styleUrl>
        <Point>
          <coordinates>
            -124.1779456,40.7933674,0
          </coordinates>
        </Point>
      </Placemark>
    </Folder>
    <Folder>
      <name>Day 2 - Water to Eureka Natural Foods</name>
      <Placemark>
        <name>Day 2 - Water to Eureka Natural Foods</name>
        <styleUrl>#line-1267FF-5000-nodesc</styleUrl>
        <LineString>
          <tessellate>1</tessellate>
          <coordinates>
            -124.18093,40.79944,0
            -124.18144,40.79891,0
            -124.18171,40.79859,0
            -124.18174,40.79846,0
            -124.18197,40.79828,0
            -124.18223,40.79792,0
            -124.1825,40.79756,0
            -124.18284,40.7971,0
            -124.18292,40.79697,0
            -124.18299,40.79682,0
            -124.18303,40.79669,0
            -124.18305,40.79662,0
            -124.18308,40.79629,0
            -124.18309,40.7962,0
            -124.1831,40.79605,0
            -124.18311,40.79602,0
            -124.18312,40.79587,0
            -124.18315,40.79571,0
            -124.18324,40.79548,0
            -124.18353,40.79485,0
            -124.18378,40.7942,0
            -124.18378,40.79417,0
            -124.183,40.79417,0
            -124.18205,40.79416,0
            -124.1814,40.79416,0
            -124.1806,40.79415,0
            -124.1791,40.79415,0
            -124.17903,40.79415,0
            -124.17904,40.79324,0
            -124.17904,40.79316,0
            -124.17904,40.79295,0
            -124.17905,40.79291,0
            -124.17855,40.79289,0
            -124.17827,40.79288,0
            -124.17817,40.79288,0
            -124.17803,40.79287,0
            -124.17798,40.79287,0
            -124.17797,40.79306,0
          </coordinates>
        </LineString>
      </Placemark>
      <Placemark>
        <name>Point 50</name>
        <styleUrl>#icon-1899-DB4436-nodesc</styleUrl>
        <Point>
          <coordinates>
            -124.1809291,40.7994427,0
          </coordinates>
        </Point>
      </Placemark>
      <Placemark>
        <name>Point 65</name>
        <styleUrl>#icon-1899-DB4436-nodesc</styleUrl>
        <Point>
          <coordinates>
            -124.1837754,40.7941967,0
          </coordinates>
        </Point>
      </Placemark>
      <Placemark>
        <name>Point 61</name>
        <styleUrl>#icon-1899-DB4436-nodesc</styleUrl>
        <Point>
          <coordinates>
            -124.1790978,40.7941463,0
          </coordinates>
        </Point>
      </Placemark>
      <Placemark>
        <name>Point 62</name>
        <styleUrl>#icon-1899-DB4436-nodesc</styleUrl>
        <Point>
          <coordinates>
            -124.1790442,40.7929454,0
          </coordinates>
        </Point>
      </Placemark>
      <Placemark>
        <name>Point 63</name>
        <styleUrl>#icon-1899-DB4436-nodesc</styleUrl>
        <Point>
          <coordinates>
            -124.1780293,40.7928744,0
          </coordinates>
        </Point>
      </Placemark>
      <Placemark>
        <name>Eureka Natural Foods</name>
        <styleUrl>#icon-1899-DB4436-nodesc</styleUrl>
        <Point>
          <coordinates>
            -124.1779693,40.793059,0
          </coordinates>
        </Point>
      </Placemark>
    </Folder>
    <Folder>
      <name>ENF to 70</name>
      <Placemark>
        <name>ENF to 70</name>
        <styleUrl>#line-1267FF-5000-nodesc</styleUrl>
        <LineString>
          <tessellate>1</tessellate>
          <coordinates>
            -124.17797,40.79306,0
            -124.17798,40.79287,0
            -124.17817,40.79288,0
            -124.17827,40.79288,0
            -124.17855,40.79289,0
            -124.17905,40.79291,0
            -124.17969,40.7929,0
            -124.18,40.7929,0
            -124.1804,40.7929,0
            -124.18061,40.7929,0
            -124.18061,40.79282,0
            -124.18062,40.79277,0
            -124.18062,40.79237,0
            -124.18062,40.79224,0
            -124.18062,40.79201,0
            -124.18062,40.79185,0
            -124.18062,40.79153,0
            -124.18067,40.79153,0
            -124.18085,40.79153,0
            -124.18109,40.79154,0
            -124.18154,40.79154,0
            -124.18217,40.79154,0
            -124.18249,40.79155,0
            -124.18313,40.79155,0
            -124.18337,40.79155,0
            -124.18338,40.79155,0
            -124.18386,40.79155,0
            -124.18425,40.79155,0
            -124.18438,40.79155,0
            -124.18474,40.79156,0
            -124.18508,40.7907,0
          </coordinates>
        </LineString>
      </Placemark>
      <Placemark>
        <name>Eureka Natural Foods</name>
        <styleUrl>#icon-1899-DB4436-nodesc</styleUrl>
        <Point>
          <coordinates>
            -124.1779693,40.793059,0
          </coordinates>
        </Point>
      </Placemark>
      <Placemark>
        <name>Point 67</name>
        <styleUrl>#icon-1899-DB4436-nodesc</styleUrl>
        <Point>
          <coordinates>
            -124.1806072,40.792896,0
          </coordinates>
        </Point>
      </Placemark>
      <Placemark>
        <name>Point 68</name>
        <styleUrl>#icon-1899-DB4436-nodesc</styleUrl>
        <Point>
          <coordinates>
            -124.1806671,40.7915309,0
          </coordinates>
        </Point>
      </Placemark>
      <Placemark>
        <name>Point 69</name>
        <styleUrl>#icon-1899-DB4436-nodesc</styleUrl>
        <Point>
          <coordinates>
            -124.1847445,40.7915567,0
          </coordinates>
        </Point>
      </Placemark>
      <Placemark>
        <name>Point 70</name>
        <styleUrl>#icon-1899-DB4436-nodesc</styleUrl>
        <Point>
          <coordinates>
            -124.1850825,40.7907017,0
          </coordinates>
        </Point>
      </Placemark>
    </Folder>
    <Folder>
      <name>Directions from Point 119 to Day 2 - END</name>
      <Placemark>
        <name>Directions from Point 119 to Day 2 - END</name>
        <styleUrl>#line-1267FF-5000-nodesc</styleUrl>
        <LineString>
          <tessellate>1</tessellate>
          <coordinates>
            -124.20054,40.74509,0
            -124.20047,40.74516,0
            -124.20041,40.74527,0
            -124.20037,40.74542,0
            -124.20035,40.74564,0
            -124.20035,40.7459,0
            -124.20034,40.74606,0
            -124.20032,40.74618,0
            -124.20028,40.74635,0
            -124.2002,40.74656,0
            -124.20008,40.74675,0
            -124.20003,40.74682,0
            -124.2,40.74684,0
            -124.19996,40.7469,0
            -124.1996,40.7473,0
            -124.19923,40.74768,0
            -124.19917,40.74771,0
            -124.19916,40.74771,0
            -124.19906,40.74773,0
            -124.19901,40.74771,0
            -124.199,40.74771,0
            -124.19895,40.74768,0
            -124.1989,40.74763,0
            -124.19875,40.74736,0
            -124.19903,40.74721,0
            -124.19908,40.74719,0
            -124.19914,40.74716,0
            -124.19916,40.74714,0
            -124.19929,40.74707,0
            -124.19937,40.74702,0
            -124.19946,40.74695,0
            -124.19961,40.74682,0
            -124.19977,40.74664,0
            -124.19988,40.74646,0
            -124.19994,40.74633,0
            -124.19999,40.74617,0
            -124.19999,40.74614,0
            -124.20001,40.74604,0
            -124.20001,40.74578,0
            -124.19998,40.7456,0
            -124.19995,40.74552,0
            -124.19992,40.74542,0
            -124.1998,40.7452,0
            -124.19978,40.74517,0
            -124.19976,40.74512,0
            -124.19975,40.74511,0
            -124.19969,40.74499,0
            -124.19966,40.74494,0
            -124.19927,40.74411,0
            -124.19925,40.74408,0
            -124.19908,40.7437,0
            -124.19903,40.74357,0
            -124.19902,40.74352,0
            -124.199,40.74349,0
            -124.19899,40.74342,0
            -124.19896,40.7433,0
            -124.19905,40.74308,0
            -124.19912,40.74296,0
            -124.19923,40.74273,0
            -124.19956,40.74227,0
            -124.19978,40.74193,0
            -124.20004,40.74162,0
            -124.20033,40.74136,0
            -124.20048,40.74121,0
            -124.2007,40.74104,0
            -124.20106,40.74079,0
            -124.20154,40.7405,0
            -124.20347,40.73947,0
            -124.20348,40.73946,0
            -124.20903,40.7365,0
            -124.20906,40.73648,0
            -124.20907,40.73648,0
            -124.20919,40.73644,0
            -124.20952,40.7364,0
            -124.20961,40.73629,0
            -124.20965,40.73626,0
            -124.20969,40.73621,0
            -124.20983,40.73606,0
            -124.21004,40.73586,0
            -124.21016,40.73598,0
            -124.21018,40.73601,0
            -124.2103,40.73611,0
            -124.21037,40.73618,0
            -124.21041,40.73621,0
            -124.21048,40.73628,0
            -124.21049,40.73628,0
            -124.21058,40.73637,0
            -124.21062,40.7364,0
            -124.21079,40.73632,0
            -124.21265,40.73419,0
            -124.21262,40.73411,0
            -124.21285,40.73389,0
            -124.21327,40.73345,0
            -124.21329,40.73342,0
            -124.21334,40.73337,0
            -124.21353,40.73313,0
            -124.2136,40.73303,0
            -124.21368,40.7329,0
            -124.21378,40.73276,0
            -124.21384,40.73266,0
            -124.21386,40.73261,0
            -124.21396,40.73243,0
            -124.21409,40.73217,0
            -124.21426,40.73172,0
            -124.21433,40.7315,0
            -124.21442,40.73111,0
            -124.21445,40.73088,0
            -124.21446,40.73074,0
            -124.2145,40.73046,0
            -124.21457,40.72978,0
            -124.21465,40.72969,0
            -124.21479,40.72907,0
            -124.21481,40.72895,0
            -124.2149,40.72854,0
            -124.21491,40.72851,0
            -124.21502,40.72804,0
            -124.21509,40.72766,0
            -124.21509,40.72763,0
            -124.21524,40.7266,0
            -124.21525,40.72657,0
            -124.21568,40.72332,0
            -124.21568,40.72317,0
            -124.21567,40.72312,0
            -124.21566,40.72263,0
            -124.21565,40.72254,0
            -124.21564,40.72111,0
            -124.21565,40.7209,0
            -124.21557,40.72081,0
            -124.21567,40.71986,0
            -124.21568,40.71958,0
            -124.2157,40.71932,0
            -124.2157,40.71915,0
            -124.21571,40.71904,0
            -124.21571,40.71872,0
            -124.21572,40.71853,0
            -124.21572,40.71826,0
            -124.21573,40.71813,0
            -124.21573,40.71779,0
            -124.21574,40.71761,0
            -124.21574,40.71707,0
            -124.21575,40.71695,0
            -124.21575,40.71668,0
            -124.21571,40.71616,0
            -124.21563,40.71578,0
            -124.21562,40.71577,0
            -124.21555,40.71552,0
            -124.21533,40.71498,0
            -124.21519,40.71472,0
            -124.21506,40.7145,0
            -124.21492,40.7143,0
            -124.21362,40.71258,0
            -124.21351,40.71242,0
            -124.21336,40.71224,0
            -124.213,40.71176,0
            -124.21285,40.71158,0
            -124.21267,40.71133,0
            -124.21189,40.71032,0
            -124.2119,40.71021,0
            -124.21189,40.7102,0
            -124.2114,40.70939,0
            -124.21132,40.70918,0
            -124.21131,40.7091,0
            -124.21129,40.70901,0
            -124.21129,40.70854,0
            -124.2113,40.70844,0
            -124.2113,40.70834,0
            -124.21124,40.70828,0
            -124.21119,40.70794,0
            -124.21111,40.70773,0
            -124.21101,40.70755,0
            -124.21095,40.70747,0
            -124.21094,40.70744,0
            -124.21092,40.70742,0
            -124.21031,40.70656,0
            -124.21001,40.70617,0
            -124.21,40.70617,0
            -124.20991,40.70606,0
            -124.20938,40.70554,0
            -124.20927,40.70545,0
            -124.20923,40.70541,0
            -124.20917,40.70537,0
            -124.20909,40.7053,0
            -124.20899,40.70524,0
            -124.20889,40.70519,0
            -124.20868,40.70511,0
            -124.20856,40.70508,0
            -124.2085,40.70506,0
            -124.20839,40.70504,0
            -124.20834,40.70504,0
            -124.20828,40.70503,0
            -124.20811,40.70503,0
            -124.20794,40.70499,0
            -124.20792,40.70498,0
            -124.20785,40.70496,0
            -124.20778,40.70493,0
            -124.20773,40.7049,0
            -124.20698,40.70394,0
            -124.20647,40.70335,0
            -124.20538,40.70222,0
            -124.20481,40.7016,0
            -124.20464,40.7014,0
            -124.20445,40.70113,0
            -124.20399,40.70038,0
            -124.20383,40.70015,0
            -124.20364,40.69991,0
            -124.20347,40.69972,0
            -124.20294,40.69923,0
            -124.20083,40.6975,0
            -124.20082,40.6975,0
            -124.20012,40.69691,0
            -124.19949,40.69632,0
            -124.19879,40.69563,0
            -124.1982,40.69498,0
            -124.19818,40.69497,0
            -124.1978,40.69457,0
            -124.19745,40.69418,0
            -124.19671,40.6933,0
            -124.19657,40.69311,0
            -124.19653,40.69307,0
            -124.19641,40.69292,0
            -124.19638,40.69287,0
            -124.19635,40.69283,0
            -124.19632,40.69277,0
            -124.19625,40.69258,0
            -124.19621,40.69228,0
            -124.19621,40.69217,0
            -124.19622,40.69214,0
            -124.19624,40.69201,0
            -124.19627,40.69194,0
            -124.19628,40.6919,0
            -124.19631,40.69182,0
            -124.19719,40.6901,0
            -124.19721,40.69004,0
            -124.19724,40.68998,0
            -124.19728,40.68984,0
            -124.19731,40.68969,0
            -124.19733,40.68946,0
            -124.19733,40.68931,0
            -124.19731,40.68919,0
            -124.19731,40.68915,0
            -124.1973,40.68913,0
            -124.19729,40.68906,0
            -124.19726,40.68893,0
            -124.19713,40.68855,0
            -124.19709,40.68845,0
            -124.197,40.68818,0
            -124.19692,40.68799,0
            -124.19688,40.68782,0
            -124.19688,40.68766,0
            -124.19689,40.6876,0
            -124.19693,40.68747,0
            -124.19699,40.68734,0
            -124.1978,40.68587,0
            -124.19781,40.68584,0
            -124.19876,40.68414,0
            -124.19898,40.68371,0
            -124.19901,40.68362,0
            -124.19905,40.68353,0
            -124.19905,40.68352,0
            -124.19907,40.68348,0
            -124.19918,40.68315,0
            -124.19932,40.68268,0
            -124.19967,40.68118,0
            -124.19968,40.68106,0
            -124.19968,40.68086,0
            -124.19967,40.6808,0
            -124.19965,40.68073,0
            -124.19964,40.68067,0
            -124.19962,40.6806,0
            -124.19952,40.6804,0
            -124.19947,40.68032,0
            -124.19939,40.68021,0
            -124.19936,40.68018,0
            -124.19932,40.68012,0
            -124.19927,40.68007,0
            -124.19921,40.68002,0
            -124.19913,40.67994,0
            -124.19884,40.6797,0
            -124.1988,40.67965,0
            -124.19877,40.67963,0
            -124.19861,40.67947,0
            -124.19849,40.67929,0
            -124.19836,40.67902,0
            -124.19835,40.67898,0
            -124.19766,40.67749,0
            -124.19751,40.67719,0
            -124.19738,40.67687,0
            -124.19735,40.67674,0
            -124.19733,40.67668,0
            -124.1973,40.67651,0
            -124.19729,40.67635,0
            -124.19727,40.67622,0
            -124.19725,40.67592,0
            -124.19725,40.67557,0
            -124.19727,40.67537,0
            -124.19727,40.67526,0
            -124.19744,40.67393,0
            -124.19746,40.67384,0
            -124.19746,40.67383,0
            -124.19752,40.67359,0
            -124.19756,40.67348,0
            -124.19757,40.67344,0
            -124.19773,40.67305,0
            -124.19782,40.67286,0
            -124.19806,40.6723,0
            -124.19811,40.67216,0
            -124.19813,40.67204,0
            -124.19813,40.67189,0
            -124.19812,40.67186,0
            -124.19812,40.67183,0
            -124.19811,40.67177,0
            -124.19809,40.6717,0
            -124.19807,40.67158,0
            -124.19797,40.67122,0
            -124.19865,40.67105,0
            -124.19871,40.67103,0
            -124.19906,40.67094,0
            -124.20016,40.67069,0
            -124.20041,40.67066,0
            -124.20057,40.67104,0
            -124.20064,40.67126,0
            -124.20066,40.67134,0
            -124.20067,40.67135,0
            -124.20067,40.67137,0
            -124.20071,40.67147,0
            -124.20073,40.67151,0
            -124.20074,40.67155,0
            -124.20077,40.6716,0
            -124.20081,40.67165,0
            -124.20093,40.67177,0
            -124.20099,40.67182,0
            -124.20112,40.6719,0
            -124.20117,40.67192,0
            -124.20118,40.67193,0
            -124.20125,40.67196,0
            -124.20133,40.67198,0
            -124.20138,40.672,0
            -124.20139,40.672,0
            -124.20144,40.67202,0
            -124.20161,40.67204,0
            -124.20168,40.67203,0
            -124.20187,40.67203,0
            -124.20208,40.672,0
            -124.20226,40.67194,0
            -124.20229,40.67192,0
            -124.20239,40.67187,0
            -124.20251,40.67178,0
            -124.20261,40.67168,0
            -124.20262,40.67166,0
            -124.20268,40.67159,0
            -124.20275,40.67147,0
            -124.20277,40.67141,0
            -124.20279,40.67137,0
            -124.20279,40.67133,0
            -124.2028,40.67129,0
            -124.2028,40.6711,0
            -124.20271,40.67045,0
            -124.20268,40.67014,0
            -124.20271,40.66997,0
            -124.20274,40.66987,0
            -124.20278,40.66969,0
            -124.2028,40.66963,0
            -124.20282,40.66955,0
            -124.20286,40.66943,0
            -124.20286,40.66942,0
            -124.20291,40.66925,0
            -124.20292,40.66924,0
            -124.20297,40.66904,0
            -124.20303,40.66884,0
            -124.20308,40.66864,0
            -124.20408,40.66516,0
            -124.20408,40.66515,0
            -124.20425,40.66451,0
            -124.20452,40.6636,0
            -124.20456,40.66349,0
            -124.20458,40.6634,0
            -124.20459,40.66339,0
            -124.20463,40.66328,0
            -124.20469,40.66316,0
            -124.20474,40.66308,0
            -124.20476,40.66306,0
            -124.20479,40.66301,0
            -124.20485,40.66293,0
            -124.20488,40.6629,0
            -124.20492,40.66285,0
            -124.205,40.66277,0
            -124.20502,40.66276,0
            -124.20511,40.66268,0
            -124.20536,40.66252,0
            -124.20572,40.66232,0
            -124.20575,40.6623,0
            -124.20594,40.6622,0
            -124.20631,40.66197,0
            -124.20634,40.66194,0
            -124.20648,40.66184,0
            -124.20664,40.6617,0
            -124.20691,40.66142,0
            -124.20772,40.66043,0
            -124.20805,40.66005,0
            -124.20847,40.65954,0
            -124.20856,40.65944,0
            -124.21018,40.65749,0
            -124.21021,40.65746,0
            -124.21034,40.6573,0
            -124.21045,40.65719,0
            -124.21047,40.65716,0
            -124.21066,40.65698,0
            -124.21078,40.65689,0
            -124.21078,40.65688,0
            -124.21097,40.65675,0
            -124.21123,40.6566,0
            -124.21124,40.65659,0
            -124.21144,40.65649,0
            -124.21144,40.65648,0
            -124.21158,40.65641,0
            -124.21163,40.65638,0
            -124.21203,40.65618,0
            -124.21261,40.65592,0
            -124.21263,40.6559,0
            -124.21326,40.65564,0
            -124.21327,40.65564,0
            -124.21368,40.65549,0
            -124.21435,40.65529,0
            -124.21503,40.65515,0
            -124.21547,40.65509,0
            -124.2155,40.65509,0
            -124.21597,40.65503,0
            -124.2162,40.65499,0
            -124.21623,40.65499,0
            -124.21713,40.65486,0
            -124.21717,40.65485,0
            -124.21729,40.65484,0
            -124.2177,40.65478,0
            -124.21783,40.65475,0
            -124.21793,40.65474,0
            -124.21798,40.65472,0
            -124.21807,40.65471,0
            -124.21818,40.65467,0
            -124.21821,40.65467,0
            -124.21828,40.65465,0
            -124.21829,40.65465,0
            -124.21842,40.6546,0
            -124.21843,40.6546,0
            -124.21874,40.65448,0
            -124.21882,40.65444,0
            -124.21885,40.65443,0
            -124.21891,40.6544,0
            -124.21903,40.65435,0
            -124.21925,40.65424,0
            -124.21964,40.65399,0
            -124.21975,40.65391,0
            -124.22,40.65371,0
            -124.22033,40.65338,0
            -124.22036,40.65334,0
            -124.22038,40.65333,0
            -124.22056,40.65311,0
            -124.22081,40.6527,0
            -124.22088,40.65257,0
            -124.22103,40.65237,0
            -124.22104,40.65235,0
            -124.22121,40.65217,0
            -124.22125,40.65214,0
            -124.22136,40.65203,0
            -124.22139,40.65201,0
            -124.22147,40.65194,0
            -124.22185,40.65168,0
            -124.22198,40.65161,0
            -124.22199,40.65161,0
            -124.22295,40.6511,0
            -124.22296,40.6511,0
            -124.22315,40.65098,0
            -124.22316,40.65098,0
            -124.22337,40.65084,0
            -124.22369,40.65058,0
            -124.22388,40.6504,0
            -124.22402,40.65025,0
            -124.22403,40.65023,0
            -124.22412,40.65012,0
            -124.22428,40.64989,0
            -124.22514,40.64847,0
            -124.22514,40.64846,0
            -124.22581,40.64735,0
            -124.22604,40.64694,0
            -124.22618,40.64659,0
            -124.2263,40.64617,0
            -124.22632,40.64607,0
            -124.22636,40.6457,0
            -124.22636,40.6455,0
            -124.22637,40.64534,0
            -124.22637,40.64291,0
            -124.23597,40.64308,0
            -124.24502,40.64313,0
            -124.2548,40.64297,0
            -124.27131,40.64298,0
            -124.2714,40.643,0
            -124.27253,40.64303,0
            -124.28722,40.64306,0
            -124.29107,40.64314,0
            -124.29565,40.64317,0
            -124.29589,40.64318,0
            -124.29613,40.64318,0
            -124.29636,40.64319,0
            -124.29655,40.64319,0
            -124.2966,40.6432,0
            -124.30263,40.64324,0
            -124.3037,40.64321,0
          </coordinates>
        </LineString>
      </Placemark>
      <Placemark>
        <name>Point 119</name>
        <styleUrl>#icon-1899-DB4436-nodesc</styleUrl>
        <Point>
          <coordinates>
            -124.2005371,40.7450851,0
          </coordinates>
        </Point>
      </Placemark>
      <Placemark>
        <name>Point 122</name>
        <styleUrl>#icon-1899-DB4436-nodesc</styleUrl>
        <Point>
          <coordinates>
            -124.1997591,40.7451242,0
          </coordinates>
        </Point>
      </Placemark>
      <Placemark>
        <name>Point 123</name>
        <styleUrl>#icon-1899-DB4436-nodesc</styleUrl>
        <Point>
          <coordinates>
            -124.1989856,40.7434152,0
          </coordinates>
        </Point>
      </Placemark>
      <Placemark>
        <name>Point 124</name>
        <styleUrl>#icon-1899-DB4436-nodesc</styleUrl>
        <Point>
          <coordinates>
            -124.2013467,40.7406179,0
          </coordinates>
        </Point>
      </Placemark>
      <Placemark>
        <name>Point 127</name>
        <styleUrl>#icon-1899-DB4436-nodesc</styleUrl>
        <Point>
          <coordinates>
            -124.2106942,40.7363681,0
          </coordinates>
        </Point>
      </Placemark>
      <Placemark>
        <name>Point 130</name>
        <styleUrl>#icon-1899-DB4436-nodesc</styleUrl>
        <Point>
          <coordinates>
            -124.2152483,40.7265673,0
          </coordinates>
        </Point>
      </Placemark>
      <Placemark>
        <name>Point 136</name>
        <styleUrl>#icon-1899-DB4436-nodesc</styleUrl>
        <Point>
          <coordinates>
            -124.2079389,40.7049872,0
          </coordinates>
        </Point>
      </Placemark>
      <Placemark>
        <name>Point 141</name>
        <styleUrl>#icon-1899-DB4436-nodesc</styleUrl>
        <Point>
          <coordinates>
            -124.2026908,40.6702432,0
          </coordinates>
        </Point>
      </Placemark>
      <Placemark>
        <name>Point 147</name>
        <styleUrl>#icon-1899-DB4436-nodesc</styleUrl>
        <Point>
          <coordinates>
            -124.2154973,40.6550912,0
          </coordinates>
        </Point>
      </Placemark>
      <Placemark>
        <name>Day 2 - END</name>
        <styleUrl>#icon-1899-DB4436-nodesc</styleUrl>
        <Point>
          <coordinates>
            -124.3037011,40.643208,0
          </coordinates>
        </Point>
      </Placemark>
    </Folder>
  </Document>
</kml>
