<?xml version="1.0" encoding="UTF-8"?>
<kml xmlns="http://www.opengis.net/kml/2.2">
<Document><name>Day 1 — waypoints + full route</name>
<Style id="line"><LineStyle><color>ff16a34a</color><width>4</width></LineStyle></Style>
<Placemark><name>Arcata Plaza</name><Point><coordinates>-124.0857988,40.8687948,0</coordinates></Point></Placemark>
<Placemark><name>Day 1 - 2</name><description>orig: Point 3</description><Point><coordinates>-124.0867854,40.8690207,0</coordinates></Point></Placemark>
<Placemark><name>Day 1 - 3</name><description>orig: Point 4</description><Point><coordinates>-124.087059,40.8682702,0</coordinates></Point></Placemark>
<Placemark><name>Day 1 - 4</name><description>orig: Point 5</description><Point><coordinates>-124.0874051,40.8674428,0</coordinates></Point></Placemark>
<Placemark><name>Day 1 - 5</name><description>orig: Point 6</description><Point><coordinates>-124.0915465,40.8683596,0</coordinates></Point></Placemark>
<Placemark><name>Day 1 - 6</name><description>orig: Point 7</description><Point><coordinates>-124.0904092,40.8715156,0</coordinates></Point></Placemark>
<Placemark><name>Day 1 - 7</name><description>orig: Point 8</description><Point><coordinates>-124.101132,40.8738516,0</coordinates></Point></Placemark>
<Placemark><name>Day 1 - 8</name><description>orig: Point 9</description><Point><coordinates>-124.1005487,40.8810936,0</coordinates></Point></Placemark>
<Placemark><name>Day 1 - 9</name><description>orig: Point 10</description><Point><coordinates>-124.1299405,40.883188,0</coordinates></Point></Placemark>
<Placemark><name>Day 1 - 10</name><description>orig: Point 11</description><Point><coordinates>-124.1349801,40.8683204,0</coordinates></Point></Placemark>
<Placemark><name>Day 1 - 11</name><description>orig: Point 12</description><Point><coordinates>-124.1570716,40.8621296,0</coordinates></Point></Placemark>
<Placemark><name>Day 1 - 12</name><description>orig: Point 13</description><Point><coordinates>-124.166005,40.8478486,0</coordinates></Point></Placemark>
<Placemark><name>Day 1 - 13</name><description>orig: Point 14</description><Point><coordinates>-124.1667882,40.8479639,0</coordinates></Point></Placemark>
<Placemark><name>Day 1 - 14</name><description>orig: Point 15</description><Point><coordinates>-124.1684673,40.8450502,0</coordinates></Point></Placemark>
<Placemark><name>Community Center</name><Point><coordinates>-124.1686706,40.8451305,0</coordinates></Point></Placemark>
<Placemark><name>Day 1 - 16</name><description>orig: Point 19</description><Point><coordinates>-124.1696443,40.8455058,0</coordinates></Point></Placemark>
<Placemark><name>Day 1 - 17</name><description>orig: Point 20</description><Point><coordinates>-124.1700214,40.8460258,0</coordinates></Point></Placemark>
<Placemark><name>Day 1 - 18</name><description>orig: Point 21</description><Point><coordinates>-124.1707992,40.8461061,0</coordinates></Point></Placemark>
<Placemark><name>Day 1 - 19</name><description>orig: Point 22</description><Point><coordinates>-124.1715395,40.8465179,0</coordinates></Point></Placemark>
<Placemark><name>Day 1 - 20</name><description>orig: Point 23</description><Point><coordinates>-124.1744905,40.8476843,0</coordinates></Point></Placemark>
<Placemark><name>Samoa Beach</name><Point><coordinates>-124.1903607,40.8218842,0</coordinates></Point></Placemark>
<Placemark><name>Day 1 - 22</name><description>orig: Point 25</description><Point><coordinates>-124.1896169,40.8215926,0</coordinates></Point></Placemark>
<Placemark><name>Day 1 - 23</name><description>orig: Point 26</description><Point><coordinates>-124.1893581,40.8216058,0</coordinates></Point></Placemark>
<Placemark><name>Day 1 - 24</name><description>orig: Point 27</description><Point><coordinates>-124.1894806,40.821153,0</coordinates></Point></Placemark>
<Placemark><name>Day 1 - 25</name><description>orig: Point 28 - Begin OSRM</description><Point><coordinates>-124.1895624,40.8207726,0</coordinates></Point></Placemark>
<Placemark><name>Day 1 - 26</name><description>orig: Point 29</description><Point><coordinates>-124.1765402,40.8259196,0</coordinates></Point></Placemark>
<Placemark><name>Eureka</name><Point><coordinates>-124.1582292,40.8124654,0</coordinates></Point></Placemark>
<Placemark><name>Day 1 - 28</name><description>orig: Point 31</description><Point><coordinates>-124.1536646,40.8051425,0</coordinates></Point></Placemark>
<Placemark><name>Day 1 - 29</name><description>orig: Point 32</description><Point><coordinates>-124.156925,40.8051574,0</coordinates></Point></Placemark>
<Placemark><name>Day 1 - 30</name><description>orig: Point 33</description><Point><coordinates>-124.1587577,40.8046692,0</coordinates></Point></Placemark>
<Placemark><name>Day 1 - 31</name><description>orig: Point 34</description><Point><coordinates>-124.1590053,40.8054894,0</coordinates></Point></Placemark>
<Placemark><name>Day 1 - 32</name><description>orig: Point 35</description><Point><coordinates>-124.1600085,40.8053351,0</coordinates></Point></Placemark>
<Placemark><name>Day 1 - 33</name><description>orig: Point 36</description><Point><coordinates>-124.1601265,40.8058508,0</coordinates></Point></Placemark>
<Placemark><name>Day 1 - 34</name><description>orig: Point 37</description><Point><coordinates>-124.1555092,40.8067744,0</coordinates></Point></Placemark>
<Placemark><name>Day 1 END</name><Point><coordinates>-124.1557935,40.8074404,0</coordinates></Point></Placemark>
<Placemark><name>Day 1 route</name><styleUrl>#line</styleUrl><LineString><tessellate>1</tessellate><coordinates>-124.08605,40.86802,0 -124.08577,40.8688,0 -124.08679,40.86903,0 -124.08688,40.86878,0 -124.08707,40.86826,0 -124.08719,40.86798,0 -124.08719,40.86796,0 -124.08733,40.86764,0 -124.08741,40.86745,0 -124.08784,40.86754,0 -124.08847,40.86769,0 -124.08949,40.8679,0 -124.09054,40.86813,0 -124.09148,40.86833,0 -124.09152,40.86836,0 -124.09152,40.86841,0 -124.09136,40.86883,0 -124.09124,40.86915,0 -124.09106,40.86962,0 -124.09095,40.86993,0 -124.09066,40.87074,0 -124.09052,40.87114,0 -124.09046,40.8713,0 -124.09038,40.87151,0 -124.09037,40.87152,0 -124.0904,40.87153,0 -124.09046,40.87155,0 -124.09075,40.87161,0 -124.09094,40.87166,0 -124.09142,40.87176,0 -124.09243,40.87197,0 -124.09256,40.872,0 -124.09263,40.87202,0 -124.09351,40.87221,0 -124.09456,40.87243,0 -124.09538,40.87261,0 -124.09563,40.87267,0 -124.09595,40.87273,0 -124.09629,40.87281,0 -124.09683,40.87293,0 -124.09695,40.87295,0 -124.09701,40.87297,0 -124.09718,40.873,0 -124.09764,40.8731,0 -124.09806,40.87319,0 -124.09853,40.87329,0 -124.09855,40.8733,0 -124.09896,40.87339,0 -124.0994,40.87348,0 -124.10018,40.87365,0 -124.10079,40.87378,0 -124.1011,40.87385,0 -124.10113,40.87385,0 -124.10116,40.87386,0 -124.10112,40.8748,0 -124.10114,40.87549,0 -124.10113,40.87589,0 -124.10113,40.87599,0 -124.10113,40.87619,0 -124.10113,40.87673,0 -124.10113,40.87686,0 -124.10112,40.87727,0 -124.10112,40.87731,0 -124.10112,40.87745,0 -124.10109,40.87817,0 -124.10109,40.87825,0 -124.10107,40.87894,0 -124.10105,40.87941,0 -124.10105,40.87972,0 -124.10103,40.87985,0 -124.10089,40.88026,0 -124.10076,40.88064,0 -124.10071,40.88076,0 -124.10057,40.88111,0 -124.10075,40.88115,0 -124.10324,40.88182,0 -124.10449,40.88217,0 -124.10528,40.88238,0 -124.10551,40.88243,0 -124.10585,40.88252,0 -124.10632,40.88264,0 -124.10664,40.88272,0 -124.10728,40.8829,0 -124.10744,40.88294,0 -124.10753,40.88296,0 -124.10773,40.88302,0 -124.10779,40.88304,0 -124.10794,40.88306,0 -124.10813,40.88307,0 -124.10823,40.88307,0 -124.10826,40.88307,0 -124.10846,40.88307,0 -124.10922,40.88307,0 -124.1097,40.88307,0 -124.11208,40.88309,0 -124.11231,40.88309,0 -124.11564,40.88311,0 -124.1185,40.88313,0 -124.12043,40.88315,0 -124.12118,40.88315,0 -124.12169,40.88314,0 -124.12294,40.88316,0 -124.12304,40.88316,0 -124.12382,40.88317,0 -124.12467,40.88318,0 -124.12533,40.88318,0 -124.12618,40.88319,0 -124.1283,40.88321,0 -124.12937,40.88321,0 -124.12948,40.8832,0 -124.12971,40.8832,0 -124.12991,40.88317,0 -124.12996,40.88317,0 -124.13012,40.88312,0 -124.13027,40.88307,0 -124.13034,40.88303,0 -124.13041,40.88296,0 -124.13044,40.88287,0 -124.13044,40.88265,0 -124.13046,40.8815,0 -124.13046,40.88126,0 -124.13047,40.8809,0 -124.13047,40.88072,0 -124.13047,40.88053,0 -124.13048,40.88028,0 -124.13048,40.88018,0 -124.13048,40.87991,0 -124.13048,40.87982,0 -124.13048,40.87974,0 -124.13049,40.87964,0 -124.1305,40.87962,0 -124.13054,40.8795,0 -124.13057,40.87947,0 -124.13069,40.87932,0 -124.13073,40.87927,0 -124.1308,40.87916,0 -124.13085,40.87909,0 -124.1309,40.87898,0 -124.13093,40.87886,0 -124.13093,40.87864,0 -124.13092,40.87846,0 -124.13092,40.87844,0 -124.13093,40.87798,0 -124.13099,40.8772,0 -124.131,40.87717,0 -124.13102,40.87707,0 -124.13105,40.87703,0 -124.13108,40.87696,0 -124.13117,40.87684,0 -124.13123,40.87679,0 -124.13131,40.87673,0 -124.13158,40.87655,0 -124.13167,40.8765,0 -124.1318,40.87644,0 -124.13188,40.87642,0 -124.13195,40.8764,0 -124.13212,40.87638,0 -124.13224,40.87639,0 -124.13239,40.87642,0 -124.13253,40.87646,0 -124.13265,40.87652,0 -124.13281,40.87658,0 -124.133,40.87663,0 -124.13321,40.87669,0 -124.13322,40.87669,0 -124.1333,40.8767,0 -124.13352,40.8767,0 -124.13416,40.8766,0 -124.13424,40.87658,0 -124.13437,40.87657,0 -124.1344,40.87657,0 -124.13459,40.87653,0 -124.13471,40.87647,0 -124.13477,40.87643,0 -124.13488,40.87633,0 -124.13492,40.87627,0 -124.13495,40.87617,0 -124.13495,40.87499,0 -124.13495,40.87488,0 -124.13497,40.87373,0 -124.13496,40.87321,0 -124.13497,40.87266,0 -124.13498,40.87234,0 -124.13498,40.87212,0 -124.13498,40.87167,0 -124.13498,40.87122,0 -124.13497,40.8705,0 -124.13497,40.86998,0 -124.13497,40.86924,0 -124.13497,40.86888,0 -124.13498,40.86874,0 -124.13498,40.8687,0 -124.13498,40.86849,0 -124.13499,40.86833,0 -124.13537,40.86833,0 -124.13582,40.86832,0 -124.13625,40.8683,0 -124.13656,40.86828,0 -124.13657,40.86828,0 -124.13697,40.86824,0 -124.1373,40.8682,0 -124.13742,40.86819,0 -124.13797,40.86811,0 -124.13828,40.86806,0 -124.1383,40.86805,0 -124.13864,40.86799,0 -124.13907,40.86789,0 -124.13976,40.86774,0 -124.14124,40.86737,0 -124.14262,40.86704,0 -124.14305,40.86694,0 -124.14307,40.86693,0 -124.144,40.8667,0 -124.14462,40.86655,0 -124.14592,40.86623,0 -124.14638,40.86612,0 -124.14678,40.86602,0 -124.14705,40.86593,0 -124.14758,40.86578,0 -124.14774,40.86574,0 -124.14786,40.8657,0 -124.14797,40.86567,0 -124.14854,40.86553,0 -124.14893,40.86542,0 -124.14899,40.86541,0 -124.14909,40.86538,0 -124.14956,40.86526,0 -124.14966,40.86524,0 -124.14976,40.86521,0 -124.14999,40.86515,0 -124.15004,40.86514,0 -124.15034,40.86506,0 -124.15094,40.86491,0 -124.1513,40.86482,0 -124.15134,40.86481,0 -124.15147,40.86478,0 -124.15157,40.86476,0 -124.15201,40.86465,0 -124.15219,40.8646,0 -124.15242,40.86453,0 -124.15258,40.86448,0 -124.1528,40.8644,0 -124.15299,40.86433,0 -124.15328,40.86419,0 -124.15345,40.8641,0 -124.15349,40.86407,0 -124.15372,40.86394,0 -124.15412,40.86364,0 -124.15432,40.8635,0 -124.15454,40.86335,0 -124.15499,40.86306,0 -124.15511,40.86299,0 -124.15541,40.86284,0 -124.15563,40.86275,0 -124.15579,40.86268,0 -124.15595,40.86262,0 -124.15651,40.86239,0 -124.15676,40.86229,0 -124.15707,40.86214,0 -124.15725,40.86206,0 -124.15739,40.86199,0 -124.15755,40.86189,0 -124.15778,40.86175,0 -124.15794,40.86164,0 -124.15809,40.86152,0 -124.15822,40.86142,0 -124.15839,40.86128,0 -124.15869,40.86099,0 -124.15879,40.86089,0 -124.15891,40.86075,0 -124.15911,40.8605,0 -124.15928,40.86027,0 -124.15942,40.86004,0 -124.15955,40.85981,0 -124.15999,40.85898,0 -124.1613,40.85657,0 -124.16139,40.8564,0 -124.1622,40.85491,0 -124.1626,40.85416,0 -124.16299,40.85345,0 -124.16326,40.85294,0 -124.16352,40.85248,0 -124.16386,40.85186,0 -124.16398,40.85165,0 -124.16408,40.85148,0 -124.16434,40.85096,0 -124.16474,40.85022,0 -124.16533,40.84913,0 -124.16535,40.84908,0 -124.16553,40.84875,0 -124.16599,40.84792,0 -124.16603,40.84784,0 -124.16628,40.84789,0 -124.1663,40.8479,0 -124.16635,40.84791,0 -124.1664,40.84791,0 -124.16652,40.84793,0 -124.1666,40.84794,0 -124.16677,40.84796,0 -124.16677,40.84783,0 -124.16681,40.84772,0 -124.16685,40.84766,0 -124.16709,40.84735,0 -124.16711,40.84732,0 -124.16712,40.84731,0 -124.16722,40.84716,0 -124.16728,40.84703,0 -124.16733,40.84658,0 -124.16737,40.84644,0 -124.16745,40.84636,0 -124.16761,40.84627,0 -124.16781,40.84614,0 -124.16793,40.84601,0 -124.16802,40.84589,0 -124.16805,40.84583,0 -124.16814,40.84567,0 -124.16815,40.84566,0 -124.16843,40.84513,0 -124.16847,40.84506,0 -124.1686706,40.8451305,0 -124.168629,40.8453343,0 -124.1691708,40.8453181,0 -124.1691682,40.84531,0 -124.1696587,40.8455204,0 -124.1696443,40.8455058,0 -124.1700214,40.8460258,0 -124.1707992,40.8461061,0 -124.1715395,40.8465179,0 -124.1744905,40.8476843,0 -124.1903607,40.8218842,0 -124.1896169,40.8215926,0 -124.1893581,40.8216058,0 -124.1894806,40.821153,0 -124.1895624,40.8207726,0 -124.18955,40.82076,0 -124.1895,40.8208,0 -124.18949,40.82081,0 -124.18929,40.82095,0 -124.18909,40.82108,0 -124.18889,40.82121,0 -124.18868,40.82133,0 -124.1885,40.82143,0 -124.18846,40.82145,0 -124.18825,40.82157,0 -124.1882,40.82159,0 -124.18803,40.82167,0 -124.1879,40.82173,0 -124.18787,40.82174,0 -124.18764,40.82185,0 -124.18749,40.82191,0 -124.18725,40.82202,0 -124.18705,40.8221,0 -124.18678,40.8222,0 -124.18656,40.82228,0 -124.18637,40.82234,0 -124.18617,40.8224,0 -124.18597,40.82246,0 -124.18577,40.82251,0 -124.18557,40.82256,0 -124.18534,40.82261,0 -124.1851,40.82266,0 -124.18485,40.82272,0 -124.18451,40.82279,0 -124.18434,40.8228,0 -124.18414,40.82282,0 -124.184,40.82283,0 -124.1838,40.82285,0 -124.18357,40.82287,0 -124.18274,40.82294,0 -124.18223,40.82298,0 -124.18212,40.82299,0 -124.18174,40.82302,0 -124.18162,40.82303,0 -124.18134,40.82306,0 -124.18112,40.82309,0 -124.18093,40.82312,0 -124.18074,40.82315,0 -124.18048,40.8232,0 -124.18026,40.82325,0 -124.18009,40.82329,0 -124.17984,40.82336,0 -124.17972,40.8234,0 -124.17967,40.82342,0 -124.17952,40.82347,0 -124.17931,40.82355,0 -124.17914,40.82362,0 -124.17895,40.82371,0 -124.17881,40.82378,0 -124.17872,40.82383,0 -124.1785,40.82395,0 -124.17837,40.82403,0 -124.17825,40.82411,0 -124.17808,40.82423,0 -124.17797,40.82431,0 -124.17791,40.82436,0 -124.1778,40.82445,0 -124.17764,40.82459,0 -124.17748,40.82475,0 -124.17725,40.825,0 -124.17703,40.82526,0 -124.17687,40.82545,0 -124.17687,40.82553,0 -124.17654,40.82592,0 -124.17612,40.82564,0 -124.17576,40.82541,0 -124.17527,40.82509,0 -124.17489,40.82484,0 -124.17445,40.82456,0 -124.17423,40.82442,0 -124.17394,40.82423,0 -124.17388,40.82419,0 -124.17387,40.82418,0 -124.17367,40.82405,0 -124.17342,40.82388,0 -124.17308,40.82366,0 -124.17232,40.82315,0 -124.17229,40.82313,0 -124.17211,40.82302,0 -124.17167,40.82272,0 -124.17139,40.82255,0 -124.17121,40.82243,0 -124.1712,40.82243,0 -124.17115,40.8224,0 -124.17102,40.82232,0 -124.17084,40.8222,0 -124.17061,40.82204,0 -124.17049,40.82196,0 -124.17031,40.82184,0 -124.17013,40.82172,0 -124.16995,40.82161,0 -124.16992,40.82159,0 -124.16977,40.82149,0 -124.16959,40.82137,0 -124.16941,40.82125,0 -124.16937,40.82123,0 -124.16923,40.82114,0 -124.16905,40.82102,0 -124.16887,40.8209,0 -124.16869,40.82078,0 -124.16848,40.82064,0 -124.16833,40.82055,0 -124.16815,40.82043,0 -124.16775,40.82017,0 -124.16727,40.81985,0 -124.16726,40.81984,0 -124.16725,40.81984,0 -124.16707,40.81972,0 -124.16689,40.81961,0 -124.16671,40.81949,0 -124.16653,40.81937,0 -124.16644,40.81931,0 -124.16638,40.81927,0 -124.16635,40.81925,0 -124.16618,40.81913,0 -124.166,40.81902,0 -124.16566,40.81879,0 -124.16564,40.81878,0 -124.16554,40.81872,0 -124.16546,40.81866,0 -124.16528,40.81854,0 -124.16487,40.81827,0 -124.16476,40.81821,0 -124.16474,40.81819,0 -124.16438,40.81795,0 -124.1642,40.81784,0 -124.16402,40.81772,0 -124.16396,40.81767,0 -124.16385,40.8176,0 -124.16367,40.81748,0 -124.16357,40.81741,0 -124.1635,40.81735,0 -124.16334,40.81725,0 -124.16332,40.81723,0 -124.16299,40.81698,0 -124.16297,40.81696,0 -124.16283,40.81684,0 -124.16272,40.81676,0 -124.16268,40.81673,0 -124.16266,40.81671,0 -124.16251,40.81658,0 -124.16249,40.81656,0 -124.16238,40.81648,0 -124.16235,40.81645,0 -124.16227,40.81638,0 -124.16219,40.81631,0 -124.16205,40.81619,0 -124.16204,40.81617,0 -124.16189,40.81603,0 -124.16172,40.81587,0 -124.16159,40.81575,0 -124.16147,40.81563,0 -124.16145,40.81561,0 -124.1613,40.81547,0 -124.16119,40.81536,0 -124.16075,40.81491,0 -124.1602,40.81439,0 -124.1601,40.81429,0 -124.16005,40.81424,0 -124.15998,40.81417,0 -124.15959,40.81379,0 -124.15952,40.81372,0 -124.15897,40.81318,0 -124.15894,40.81315,0 -124.15835,40.81258,0 -124.1583,40.81254,0 -124.15824,40.81249,0 -124.15824,40.81248,0 -124.15822,40.81247,0 -124.15816,40.81241,0 -124.15804,40.8123,0 -124.15772,40.81198,0 -124.15723,40.81151,0 -124.15717,40.81145,0 -124.15707,40.81136,0 -124.15686,40.81115,0 -124.15685,40.81114,0 -124.15683,40.81112,0 -124.15674,40.81103,0 -124.15659,40.81089,0 -124.15654,40.81084,0 -124.15641,40.81072,0 -124.15629,40.8106,0 -124.15626,40.81058,0 -124.15615,40.81046,0 -124.1561,40.81041,0 -124.15579,40.81012,0 -124.15566,40.80999,0 -124.15546,40.8098,0 -124.15536,40.80971,0 -124.15531,40.80965,0 -124.15527,40.80962,0 -124.15515,40.8095,0 -124.15512,40.80947,0 -124.15509,40.80945,0 -124.15507,40.80942,0 -124.15493,40.80928,0 -124.15483,40.80919,0 -124.15483,40.80918,0 -124.15471,40.80906,0 -124.15454,40.80885,0 -124.15453,40.80884,0 -124.15452,40.80883,0 -124.15441,40.80868,0 -124.1544,40.80866,0 -124.15431,40.80852,0 -124.15415,40.80828,0 -124.15411,40.80819,0 -124.15406,40.80811,0 -124.15402,40.80804,0 -124.15397,40.80794,0 -124.15396,40.8079,0 -124.15389,40.80773,0 -124.15385,40.80761,0 -124.15382,40.80752,0 -124.15377,40.80737,0 -124.15375,40.80728,0 -124.15373,40.80721,0 -124.15373,40.8072,0 -124.15372,40.80716,0 -124.1537,40.80707,0 -124.1537,40.80706,0 -124.15369,40.80703,0 -124.15368,40.80694,0 -124.15368,40.80693,0 -124.15368,40.8069,0 -124.15367,40.80685,0 -124.15364,40.80655,0 -124.15364,40.8064,0 -124.15366,40.80626,0 -124.15369,40.80595,0 -124.15369,40.80554,0 -124.15369,40.80513,0 -124.1544,40.80514,0 -124.15472,40.80515,0 -124.15543,40.80516,0 -124.15551,40.80516,0 -124.1558,40.80516,0 -124.15691,40.80517,0 -124.15692,40.80491,0 -124.15747,40.80486,0 -124.15766,40.80484,0 -124.15836,40.80472,0 -124.15876,40.80466,0 -124.15886,40.80508,0 -124.15889,40.80522,0 -124.15892,40.80531,0 -124.15897,40.80548,0 -124.1592,40.80545,0 -124.15967,40.80538,0 -124.15999,40.80533,0 -124.16003,40.80552,0 -124.16008,40.80573,0 -124.1601,40.80585,0 -124.15971,40.80589,0 -124.15959,40.80588,0 -124.15946,40.80588,0 -124.15903,40.80594,0 -124.15824,40.80611,0 -124.15776,40.80622,0 -124.15768,40.80624,0 -124.15753,40.80627,0 -124.15651,40.80651,0 -124.15617,40.80659,0 -124.15585,40.80665,0 -124.15584,40.80666,0 -124.15548,40.80672,0 -124.1555,40.80678,0 -124.1557935,40.8074404,0</coordinates></LineString></Placemark>
</Document></kml>
