<?xml version="1.0" encoding="UTF-8"?>
<kml xmlns="http://www.opengis.net/kml/2.2">
<Document><name>Day 2 — waypoints + per-segment routes</name>
<Style id="line"><LineStyle><color>ff16a34a</color><width>4</width></LineStyle></Style>
<Placemark><name>Day 2 - Start - Water IN*</name><Point><coordinates>-124.1542707,40.8081277,0</coordinates></Point></Placemark>
<Placemark><name>Day 2 - Water*</name><Point><coordinates>-124.15478,40.8085152,0</coordinates></Point></Placemark>
<Placemark><name>Day 2 - 3</name><description>orig: Point 40*</description><Point><coordinates>-124.156406,40.8079412,0</coordinates></Point></Placemark>
<Placemark><name>Day 2 - 4</name><description>orig: Point 41*</description><Point><coordinates>-124.1593672,40.8070073,0</coordinates></Point></Placemark>
<Placemark><name>Day 2 - 5</name><description>orig: Point 42*</description><Point><coordinates>-124.1621013,40.8065523,0</coordinates></Point></Placemark>
<Placemark><name>Day 2 - 6</name><description>orig: Point 43*</description><Point><coordinates>-124.1652556,40.8064792,0</coordinates></Point></Placemark>
<Placemark><name>Day 2 - 7</name><description>orig: Point 44*</description><Point><coordinates>-124.168206,40.8063087,0</coordinates></Point></Placemark>
<Placemark><name>Day 2 - 8</name><description>orig: Point 45*</description><Point><coordinates>-124.1718456,40.805655,0</coordinates></Point></Placemark>
<Placemark><name>Day 2 - 9</name><description>orig: Point 46*</description><Point><coordinates>-124.1751179,40.8048916,0</coordinates></Point></Placemark>
<Placemark><name>Day 2 - 10</name><description>orig: Point 47*</description><Point><coordinates>-124.1760611,40.8044253,0</coordinates></Point></Placemark>
<Placemark><name>Day 2 - Water OUT*</name><Point><coordinates>-124.1763669,40.8037046,0</coordinates></Point></Placemark>
<Placemark><name>Day 2 - 12</name><description>orig: Point 49*</description><Point><coordinates>-124.1765239,40.803264,0</coordinates></Point></Placemark>
<Placemark><name>Day 2 - 13</name><description>orig: Point 50</description><Point><coordinates>-124.1809442,40.799451,0</coordinates></Point></Placemark>
<Placemark><name>Eureka Natural Foods</name><Point><coordinates>-124.1779644,40.7930573,0</coordinates></Point></Placemark>
<Placemark><name>Day 2 - 15</name><description>orig: Point 67</description><Point><coordinates>-124.180592,40.7928893,0</coordinates></Point></Placemark>
<Placemark><name>Day 2 - 16</name><description>orig: Point 68</description><Point><coordinates>-124.1806671,40.7915328,0</coordinates></Point></Placemark>
<Placemark><name>Day 2 - 17</name><description>orig: Point 69</description><Point><coordinates>-124.1847441,40.7915734,0</coordinates></Point></Placemark>
<Placemark><name>Day 2 - 18</name><description>orig: Point 70</description><Point><coordinates>-124.1851294,40.7906423,0</coordinates></Point></Placemark>
<Placemark><name>Day 2 - 19</name><description>orig: Point 71*</description><Point><coordinates>-124.1856389,40.789472,0</coordinates></Point></Placemark>
<Placemark><name>Day 2 - 20</name><description>orig: Point 72*</description><Point><coordinates>-124.1858427,40.7892182,0</coordinates></Point></Placemark>
<Placemark><name>Day 2 - 21</name><description>orig: Point 73*</description><Point><coordinates>-124.1860761,40.7883754,0</coordinates></Point></Placemark>
<Placemark><name>Day 2 - 22</name><description>orig: Point 74*</description><Point><coordinates>-124.1882067,40.7852881,0</coordinates></Point></Placemark>
<Placemark><name>Day 2 - 23</name><description>orig: Point 75*</description><Point><coordinates>-124.1915592,40.7808408,0</coordinates></Point></Placemark>
<Placemark><name>Day 2 - 24</name><description>orig: Point 76*</description><Point><coordinates>-124.1917191,40.7805754,0</coordinates></Point></Placemark>
<Placemark><name>Day 2 - 25</name><description>orig: Point 77*</description><Point><coordinates>-124.192438,40.7805551,0</coordinates></Point></Placemark>
<Placemark><name>Day 2 - 26</name><description>orig: Point 78*</description><Point><coordinates>-124.1931944,40.7792755,0</coordinates></Point></Placemark>
<Placemark><name>Day 2 - 27</name><description>orig: Point 79*</description><Point><coordinates>-124.1932426,40.7790277,0</coordinates></Point></Placemark>
<Placemark><name>Day 2 - 28</name><description>orig: Point 80*</description><Point><coordinates>-124.1933124,40.7787921,0</coordinates></Point></Placemark>
<Placemark><name>Day 2 - 29</name><description>orig: Point 81*</description><Point><coordinates>-124.1931353,40.7787028,0</coordinates></Point></Placemark>
<Placemark><name>Day 2 - 30</name><description>orig: Point 82*</description><Point><coordinates>-124.1926418,40.7786621,0</coordinates></Point></Placemark>
<Placemark><name>Day 2 - 31</name><description>orig: Point 83*</description><Point><coordinates>-124.1925667,40.7785118,0</coordinates></Point></Placemark>
<Placemark><name>Day 2 - 32</name><description>orig: Point 84*</description><Point><coordinates>-124.1930334,40.7772869,0</coordinates></Point></Placemark>
<Placemark><name>Day 2 - 33</name><description>orig: Point 85*</description><Point><coordinates>-124.1930618,40.7771693,0</coordinates></Point></Placemark>
<Placemark><name>Day 2 - 34</name><description>orig: Point 86*</description><Point><coordinates>-124.192976,40.7771206,0</coordinates></Point></Placemark>
<Placemark><name>Day 2 - 35</name><description>orig: Point 87*</description><Point><coordinates>-124.1933495,40.7761166,0</coordinates></Point></Placemark>
<Placemark><name>Day 2 - 36</name><description>orig: Point 88*</description><Point><coordinates>-124.193886,40.776203,0</coordinates></Point></Placemark>
<Placemark><name>Day 2 - 37</name><description>orig: Point 89*</description><Point><coordinates>-124.1941072,40.7760994,0</coordinates></Point></Placemark>
<Placemark><name>Day 2 - 38</name><description>orig: Point 90*</description><Point><coordinates>-124.1941287,40.7759085,0</coordinates></Point></Placemark>
<Placemark><name>Day 2 - 39</name><description>orig: Point 91*</description><Point><coordinates>-124.194063,40.7756667,0</coordinates></Point></Placemark>
<Placemark><name>Day 2 - 40</name><description>orig: Point 92*</description><Point><coordinates>-124.1942494,40.7751,0</coordinates></Point></Placemark>
<Placemark><name>Day 2 - 41</name><description>orig: Point 93*</description><Point><coordinates>-124.1945883,40.77385,0</coordinates></Point></Placemark>
<Placemark><name>Day 2 - 42</name><description>orig: Point 94*</description><Point><coordinates>-124.1949326,40.7736055,0</coordinates></Point></Placemark>
<Placemark><name>Day 2 - 43</name><description>orig: Point 95*</description><Point><coordinates>-124.1952116,40.772789,0</coordinates></Point></Placemark>
<Placemark><name>Day 2 - 44</name><description>orig: Point 96*</description><Point><coordinates>-124.1957536,40.7701331,0</coordinates></Point></Placemark>
<Placemark><name>Day 2 - 45</name><description>orig: Point 97*</description><Point><coordinates>-124.1961291,40.7687356,0</coordinates></Point></Placemark>
<Placemark><name>Day 2 - 46</name><description>orig: Point 98*</description><Point><coordinates>-124.1964429,40.7685609,0</coordinates></Point></Placemark>
<Placemark><name>Day 2 - 47</name><description>orig: Point 99*</description><Point><coordinates>-124.1966011,40.7677077,0</coordinates></Point></Placemark>
<Placemark><name>Day 2 - 48</name><description>orig: Point 100*</description><Point><coordinates>-124.1966745,40.7666368,0</coordinates></Point></Placemark>
<Placemark><name>Day 2 - 49</name><description>orig: Point 101*</description><Point><coordinates>-124.1965672,40.7664824,0</coordinates></Point></Placemark>
<Placemark><name>Day 2 - 50</name><description>orig: Point 102*</description><Point><coordinates>-124.1962561,40.7661736,0</coordinates></Point></Placemark>
<Placemark><name>Day 2 - 51</name><description>orig: Point 103*</description><Point><coordinates>-124.1962883,40.7660517,0</coordinates></Point></Placemark>
<Placemark><name>Day 2 - 52</name><description>orig: Point 104*</description><Point><coordinates>-124.1965672,40.7657836,0</coordinates></Point></Placemark>
<Placemark><name>Day 2 - 53</name><description>orig: Point 105*</description><Point><coordinates>-124.1965351,40.7648166,0</coordinates></Point></Placemark>
<Placemark><name>Day 2 - 54</name><description>orig: Point 106*</description><Point><coordinates>-124.1963343,40.7629581,0</coordinates></Point></Placemark>
<Placemark><name>Day 2 - 55</name><description>orig: Point 107*</description><Point><coordinates>-124.1959695,40.7621454,0</coordinates></Point></Placemark>
<Placemark><name>Day 2 - 56</name><description>orig: Point 108*</description><Point><coordinates>-124.1958622,40.7614628,0</coordinates></Point></Placemark>
<Placemark><name>Day 2 - 57</name><description>orig: Point 109*</description><Point><coordinates>-124.1950683,40.7599838,0</coordinates></Point></Placemark>
<Placemark><name>Day 2 - 58</name><description>orig: Point 110*</description><Point><coordinates>-124.1946391,40.7595125,0</coordinates></Point></Placemark>
<Placemark><name>Day 2 - 59</name><description>orig: Point 111*</description><Point><coordinates>-124.1942958,40.7593012,0</coordinates></Point></Placemark>
<Placemark><name>Day 2 - 60</name><description>orig: Point 112*</description><Point><coordinates>-124.1943816,40.7576758,0</coordinates></Point></Placemark>
<Placemark><name>Day 2 - 61</name><description>orig: Point 113*</description><Point><coordinates>-124.1947679,40.7559204,0</coordinates></Point></Placemark>
<Placemark><name>Day 2 - 62</name><description>orig: Point 114*</description><Point><coordinates>-124.1959526,40.7539912,0</coordinates></Point></Placemark>
<Placemark><name>Day 2 - 63</name><description>orig: Point 115*</description><Point><coordinates>-124.1986348,40.750789,0</coordinates></Point></Placemark>
<Placemark><name>Day 2 - 64</name><description>orig: Point 116*</description><Point><coordinates>-124.200018,40.7489365,0</coordinates></Point></Placemark>
<Placemark><name>Day 2 - 65</name><description>orig: Point 117*</description><Point><coordinates>-124.202901,40.7458429,0</coordinates></Point></Placemark>
<Placemark><name>Day 2 - 66</name><description>orig: Point 118*</description><Point><coordinates>-124.2012626,40.7444816,0</coordinates></Point></Placemark>
<Placemark><name>Day 2 - 67</name><description>orig: Point 119</description><Point><coordinates>-124.200533,40.7450831,0</coordinates></Point></Placemark>
<Placemark><name>Day 2 - 68</name><description>orig: Point 120</description><Point><coordinates>-124.1989881,40.7476922,0</coordinates></Point></Placemark>
<Placemark><name>Day 2 - 69</name><description>orig: Point 121</description><Point><coordinates>-124.1987306,40.7473671,0</coordinates></Point></Placemark>
<Placemark><name>Day 2 - 70</name><description>orig: Point 122</description><Point><coordinates>-124.1997606,40.7451237,0</coordinates></Point></Placemark>
<Placemark><name>Day 2 - 71</name><description>orig: Point 123</description><Point><coordinates>-124.199027,40.7434097,0</coordinates></Point></Placemark>
<Placemark><name>Day 2 - 72</name><description>orig: Point 124</description><Point><coordinates>-124.2013694,40.7406188,0</coordinates></Point></Placemark>
<Placemark><name>Day 2 - 73</name><description>orig: Point 127</description><Point><coordinates>-124.2106578,40.7363282,0</coordinates></Point></Placemark>
<Placemark><name>Day 2 - 74</name><description>orig: Point 130</description><Point><coordinates>-124.2152745,40.7265699,0</coordinates></Point></Placemark>
<Placemark><name>Day 2 - 75</name><description>orig: Point 136</description><Point><coordinates>-124.2079214,40.7050302,0</coordinates></Point></Placemark>
<Placemark><name>Day 2 - 76</name><description>orig: Point 141</description><Point><coordinates>-124.2027004,40.6702426,0</coordinates></Point></Placemark>
<Placemark><name>Day 2 - 77</name><description>orig: Point 147</description><Point><coordinates>-124.215502,40.6551115,0</coordinates></Point></Placemark>
<Placemark><name>Day 2 - END</name><Point><coordinates>-124.3037015,40.643211,0</coordinates></Point></Placemark>
<Placemark><name>A  straight</name><styleUrl>#line</styleUrl><LineString><tessellate>1</tessellate><coordinates>-124.1542707,40.8081277,0 -124.15478,40.8085152,0 -124.156406,40.8079412,0 -124.1593672,40.8070073,0 -124.1621013,40.8065523,0 -124.1652556,40.8064792,0 -124.168206,40.8063087,0 -124.1718456,40.805655,0 -124.1751179,40.8048916,0 -124.1760611,40.8044253,0 -124.1763669,40.8037046,0 -124.1765239,40.803264,0</coordinates></LineString></Placemark>
<Placemark><name>B1 OSRM cycling</name><styleUrl>#line</styleUrl><LineString><tessellate>1</tessellate><coordinates>-124.180917,40.799436,0 -124.18119,40.799156,0 -124.181439,40.798879,0 -124.181545,40.798746,0 -124.181747,40.798507,0 -124.181797,40.798448,0 -124.181843,40.798388,0 -124.182317,40.797773,0 -124.18277,40.797148,0 -124.182972,40.796771,0 -124.183011,40.796671,0 -124.183019,40.796641,0 -124.183034,40.796586,0 -124.183088,40.796203,0 -124.183094,40.796002,0 -124.183105,40.795833,0 -124.183126,40.795699,0 -124.183162,40.795566,0 -124.183182,40.795525,0 -124.183248,40.795397,0 -124.183363,40.795173,0 -124.18347,40.794945,0 -124.18356,40.794733,0 -124.183673,40.79443,0 -124.183776,40.794167,0 -124.183662,40.794163,0 -124.182084,40.794154,0 -124.180636,40.794145,0 -124.179075,40.794142,0 -124.179083,40.793177,0 -124.179097,40.792913,0 -124.178888,40.792912,0 -124.17851,40.792909,0 -124.178327,40.792908,0 -124.178212,40.792908,0 -124.177983,40.792906,0 -124.177974,40.793039,0 -124.177974,40.793057,0</coordinates></LineString></Placemark>
<Placemark><name>B2 OSRM driving</name><styleUrl>#line</styleUrl><LineString><tessellate>1</tessellate><coordinates>-124.177974,40.793057,0 -124.177974,40.793039,0 -124.177983,40.792906,0 -124.178212,40.792908,0 -124.178327,40.792908,0 -124.17851,40.792909,0 -124.178888,40.792912,0 -124.179097,40.792913,0 -124.1792,40.792914,0 -124.180524,40.792922,0 -124.180632,40.792923,0 -124.180633,40.79289,0 -124.180638,40.792785,0 -124.180639,40.792264,0 -124.18064,40.791631,0 -124.180641,40.791533,0 -124.180667,40.791535,0 -124.180832,40.791545,0 -124.181107,40.791545,0 -124.181526,40.791545,0 -124.182198,40.791546,0 -124.183878,40.791548,0 -124.184223,40.791548,0 -124.184647,40.791552,0 -124.184754,40.791557,0 -124.184748,40.791574,0</coordinates></LineString></Placemark>
<Placemark><name>B3 straight bridge</name><styleUrl>#line</styleUrl><LineString><tessellate>1</tessellate><coordinates>-124.1847441,40.7915734,0 -124.1851294,40.7906423,0</coordinates></LineString></Placemark>
<Placemark><name>C  straight</name><styleUrl>#line</styleUrl><LineString><tessellate>1</tessellate><coordinates>-124.1851294,40.7906423,0 -124.1856389,40.789472,0 -124.1858427,40.7892182,0 -124.1860761,40.7883754,0 -124.1882067,40.7852881,0 -124.1915592,40.7808408,0 -124.1917191,40.7805754,0 -124.192438,40.7805551,0 -124.1931944,40.7792755,0 -124.1932426,40.7790277,0 -124.1933124,40.7787921,0 -124.1931353,40.7787028,0 -124.1926418,40.7786621,0 -124.1925667,40.7785118,0 -124.1930334,40.7772869,0 -124.1930618,40.7771693,0 -124.192976,40.7771206,0 -124.1933495,40.7761166,0 -124.193886,40.776203,0 -124.1941072,40.7760994,0 -124.1941287,40.7759085,0 -124.194063,40.7756667,0 -124.1942494,40.7751,0 -124.1945883,40.77385,0 -124.1949326,40.7736055,0 -124.1952116,40.772789,0 -124.1957536,40.7701331,0 -124.1961291,40.7687356,0 -124.1964429,40.7685609,0 -124.1966011,40.7677077,0 -124.1966745,40.7666368,0 -124.1965672,40.7664824,0 -124.1962561,40.7661736,0 -124.1962883,40.7660517,0 -124.1965672,40.7657836,0 -124.1965351,40.7648166,0 -124.1963343,40.7629581,0 -124.1959695,40.7621454,0 -124.1958622,40.7614628,0 -124.1950683,40.7599838,0 -124.1946391,40.7595125,0 -124.1942958,40.7593012,0 -124.1943816,40.7576758,0 -124.1947679,40.7559204,0 -124.1959526,40.7539912,0 -124.1986348,40.750789,0 -124.200018,40.7489365,0 -124.202901,40.7458429,0 -124.2012626,40.7444816,0 -124.200533,40.7450831,0</coordinates></LineString></Placemark>
<Placemark><name>D  OSRM cycling</name><styleUrl>#line</styleUrl><LineString><tessellate>1</tessellate><coordinates>-124.20053,40.745082,0 -124.200477,40.745153,0 -124.200417,40.745256,0 -124.20039,40.745344,0 -124.200368,40.74542,0 -124.200357,40.745642,0 -124.200362,40.745919,0 -124.200353,40.746066,0 -124.200333,40.746186,0 -124.200287,40.746367,0 -124.200244,40.746476,0 -124.200189,40.746583,0 -124.200006,40.746854,0 -124.199742,40.747146,0 -124.199584,40.747297,0 -124.199326,40.747566,0 -124.199199,40.747673,0 -124.199143,40.747699,0 -124.199083,40.747709,0 -124.199035,40.747705,0 -124.199027,40.747704,0 -124.198992,40.747701,0 -124.198984,40.747699,0 -124.198956,40.74769,0 -124.198876,40.747635,0 -124.198726,40.747428,0 -124.198717,40.747368,0 -124.198712,40.74733,0 -124.198817,40.747285,0 -124.199112,40.747147,0 -124.199399,40.746977,0 -124.199592,40.74681,0 -124.199659,40.746735,0 -124.199766,40.746633,0 -124.19986,40.746475,0 -124.19993,40.746308,0 -124.199978,40.746143,0 -124.2,40.746001,0 -124.200002,40.745794,0 -124.199959,40.745566,0 -124.199874,40.745367,0 -124.199751,40.745127,0 -124.199547,40.744729,0 -124.199365,40.744336,0 -124.199032,40.743617,0 -124.198963,40.743428,0 -124.198961,40.743415,0 -124.198929,40.743168,0 -124.199066,40.742934,0 -124.199222,40.742686,0 -124.199286,40.742584,0 -124.199519,40.742271,0 -124.199875,40.741812,0 -124.200101,40.741566,0 -124.200249,40.741436,0 -124.200397,40.741288,0 -124.200576,40.741148,0 -124.201046,40.740804,0 -124.201344,40.740622,0 -124.201362,40.740612,0 -124.201534,40.740517,0 -124.202235,40.740138,0 -124.203563,40.739429,0 -124.203891,40.739253,0 -124.207149,40.73751,0 -124.208936,40.736543,0 -124.209053,40.73649,0 -124.209165,40.73645,0 -124.209275,40.736426,0 -124.209338,40.736437,0 -124.209415,40.736464,0 -124.210038,40.735835,0 -124.210166,40.73595,0 -124.210646,40.736411,0 -124.210706,40.73636,0 -124.210904,40.736188,0 -124.211362,40.735665,0 -124.211764,40.735184,0 -124.212145,40.734687,0 -124.212355,40.734417,0 -124.212544,40.734196,0 -124.212748,40.733954,0 -124.213051,40.733584,0 -124.213454,40.733116,0 -124.213643,40.732849,0 -124.213814,40.732583,0 -124.213943,40.73231,0 -124.21408,40.732004,0 -124.214244,40.731523,0 -124.214329,40.731158,0 -124.214381,40.730833,0 -124.21445,40.730222,0 -124.214514,40.729761,0 -124.214733,40.729025,0 -124.21493,40.728199,0 -124.21499,40.727926,0 -124.215068,40.727535,0 -124.215119,40.727145,0 -124.215171,40.726703,0 -124.215215,40.726559,0 -124.215266,40.726391,0 -124.215238,40.726322,0 -124.215236,40.726261,0 -124.215364,40.725539,0 -124.21549,40.724717,0 -124.215612,40.723828,0 -124.215667,40.723389,0 -124.215662,40.723115,0 -124.215647,40.722765,0 -124.215675,40.722655,0 -124.215655,40.722538,0 -124.215638,40.722239,0 -124.215618,40.721812,0 -124.215606,40.721393,0 -124.215544,40.720354,0 -124.215562,40.720192,0 -124.215622,40.719477,0 -124.215683,40.717017,0 -124.215683,40.716321,0 -124.215597,40.715886,0 -124.215459,40.71543,0 -124.215305,40.715053,0 -124.215047,40.714578,0 -124.214756,40.714149,0 -124.211998,40.710463,0 -124.211397,40.709424,0 -124.211313,40.709251,0 -124.211237,40.709061,0 -124.211266,40.708495,0 -124.211264,40.708346,0 -124.211229,40.708191,0 -124.211183,40.708018,0 -124.211138,40.707852,0 -124.211039,40.707701,0 -124.210928,40.707506,0 -124.210367,40.706682,0 -124.210189,40.706458,0 -124.20998,40.706199,0 -124.209454,40.705634,0 -124.20922,40.705423,0 -124.209039,40.705274,0 -124.208885,40.70517,0 -124.208739,40.705105,0 -124.208627,40.705066,0 -124.208464,40.705027,0 -124.208293,40.705001,0 -124.208087,40.705001,0 -124.207928,40.705044,0 -124.207872,40.705059,0 -124.207584,40.704715,0 -124.207207,40.704214,0 -124.206967,40.703909,0 -124.206519,40.703391,0 -124.20596,40.702825,0 -124.205633,40.702486,0 -124.20542,40.702258,0 -124.20533,40.702183,0 -124.204963,40.70179,0 -124.204694,40.701493,0 -124.204518,40.70125,0 -124.204241,40.700807,0 -124.204146,40.700639,0 -124.203943,40.70034,0 -124.20384,40.700148,0 -124.203662,40.699909,0 -124.203469,40.699717,0 -124.203232,40.699514,0 -124.203044,40.699329,0 -124.202324,40.698714,0 -124.202147,40.69857,0 -124.201566,40.698097,0 -124.201051,40.697686,0 -124.200754,40.697461,0 -124.200364,40.697132,0 -124.2002,40.696991,0 -124.200152,40.696945,0 -124.200056,40.696862,0 -124.199743,40.696575,0 -124.199066,40.695936,0 -124.198968,40.695835,0 -124.197983,40.694757,0 -124.197698,40.694431,0 -124.196867,40.693496,0 -124.19659,40.693162,0 -124.196414,40.692907,0 -124.196234,40.692583,0 -124.196178,40.692481,0 -124.196144,40.692375,0 -124.196139,40.692268,0 -124.196148,40.692164,0 -124.196228,40.691957,0 -124.196471,40.691495,0 -124.196582,40.691303,0 -124.19686,40.690734,0 -124.197196,40.690107,0 -124.19724,40.69001,0 -124.19729,40.689865,0 -124.197313,40.689745,0 -124.197324,40.689614,0 -124.197316,40.689328,0 -124.197284,40.689143,0 -124.197216,40.688834,0 -124.197008,40.688234,0 -124.196926,40.687949,0 -124.196897,40.68772,0 -124.196909,40.68762,0 -124.197003,40.687349,0 -124.197268,40.686895,0 -124.197392,40.686648,0 -124.197966,40.685549,0 -124.198248,40.685082,0 -124.198783,40.68417,0 -124.198854,40.683996,0 -124.198963,40.683812,0 -124.199038,40.683652,0 -124.199234,40.683104,0 -124.199347,40.682692,0 -124.199435,40.682315,0 -124.199564,40.681842,0 -124.199679,40.68137,0 -124.19971,40.681105,0 -124.1997,40.680836,0 -124.199654,40.680603,0 -124.199585,40.680453,0 -124.199428,40.68021,0 -124.199259,40.680025,0 -124.198894,40.679732,0 -124.198666,40.679511,0 -124.198562,40.679376,0 -124.198446,40.679151,0 -124.197974,40.678123,0 -124.197451,40.67705,0 -124.19737,40.676841,0 -124.197306,40.676552,0 -124.197282,40.676329,0 -124.19725,40.675841,0 -124.197254,40.675635,0 -124.197279,40.675253,0 -124.197452,40.674125,0 -124.197479,40.673888,0 -124.197524,40.673663,0 -124.197721,40.67315,0 -124.197932,40.672712,0 -124.198021,40.672489,0 -124.198092,40.672278,0 -124.198117,40.672127,0 -124.198115,40.671944,0 -124.198089,40.671701,0 -124.197924,40.671192,0 -124.199594,40.670816,0 -124.200327,40.670645,0 -124.200448,40.670867,0 -124.200542,40.671095,0 -124.200602,40.67131,0 -124.200679,40.671457,0 -124.200774,40.671616,0 -124.200911,40.671746,0 -124.200997,40.671811,0 -124.201134,40.671883,0 -124.201263,40.671941,0 -124.201426,40.671974,0 -124.201632,40.672006,0 -124.201804,40.672006,0 -124.201958,40.671987,0 -124.202113,40.671935,0 -124.20225,40.671876,0 -124.202388,40.671804,0 -124.202508,40.671707,0 -124.202594,40.671609,0 -124.202662,40.671492,0 -124.202722,40.671362,0 -124.202748,40.671219,0 -124.202731,40.670769,0 -124.202673,40.670379,0 -124.202667,40.670244,0 -124.202665,40.670184,0 -124.202656,40.670054,0 -124.202675,40.669935,0 -124.202699,40.669813,0 -124.203067,40.668721,0 -124.203486,40.667316,0 -124.203915,40.665814,0 -124.203973,40.66561,0 -124.20426,40.664499,0 -124.204538,40.663548,0 -124.204615,40.663342,0 -124.204725,40.663137,0 -124.204873,40.662935,0 -124.205115,40.662711,0 -124.205219,40.66264,0 -124.205963,40.662188,0 -124.206139,40.66209,0 -124.206367,40.661946,0 -124.2066,40.661757,0 -124.206785,40.661577,0 -124.208523,40.65951,0 -124.209002,40.658921,0 -124.210463,40.657197,0 -124.210646,40.657022,0 -124.210874,40.656842,0 -124.210895,40.656825,0 -124.211139,40.656666,0 -124.211575,40.656435,0 -124.21261,40.655939,0 -124.213068,40.655734,0 -124.213495,40.655568,0 -124.213794,40.655466,0 -124.214068,40.655384,0 -124.214358,40.655312,0 -124.214818,40.655209,0 -124.2155,40.655105,0 -124.215937,40.655038,0 -124.217483,40.654822,0 -124.217925,40.654737,0 -124.218285,40.654647,0 -124.218679,40.65451,0 -124.219098,40.654334,0 -124.219209,40.654274,0 -124.219636,40.653989,0 -124.219947,40.653758,0 -124.22024,40.65349,0 -124.220435,40.653287,0 -124.220585,40.653079,0 -124.220882,40.652603,0 -124.221007,40.652418,0 -124.221105,40.652302,0 -124.221329,40.652073,0 -124.221469,40.651959,0 -124.221686,40.651804,0 -124.221892,40.65168,0 -124.222532,40.651329,0 -124.222973,40.651102,0 -124.223281,40.650906,0 -124.223569,40.650677,0 -124.223912,40.650349,0 -124.224123,40.650108,0 -124.224225,40.649963,0 -124.22482,40.649004,0 -124.225926,40.64717,0 -124.226037,40.646942,0 -124.22617,40.646588,0 -124.226288,40.646226,0 -124.226334,40.646029,0 -124.22636,40.645675,0 -124.226372,40.643149,0 -124.22638,40.642925,0 -124.227503,40.642923,0 -124.228152,40.642931,0 -124.230761,40.642977,0 -124.234692,40.643038,0 -124.235991,40.643059,0 -124.241321,40.643103,0 -124.245024,40.643114,0 -124.246642,40.643094,0 -124.249938,40.643042,0 -124.250145,40.643036,0 -124.254873,40.642993,0 -124.255048,40.642992,0 -124.255149,40.642966,0 -124.259616,40.642959,0 -124.263422,40.642976,0 -124.266129,40.642981,0 -124.270364,40.642987,0 -124.271375,40.642978,0 -124.271848,40.642991,0 -124.272512,40.643009,0 -124.274769,40.643028,0 -124.27963,40.643029,0 -124.282536,40.643019,0 -124.283331,40.64304,0 -124.283674,40.64304,0 -124.284363,40.643047,0 -124.285111,40.643044,0 -124.287219,40.643062,0 -124.29107,40.643137,0 -124.293275,40.643154,0 -124.295463,40.643158,0 -124.296611,40.64318,0 -124.296805,40.643183,0 -124.299676,40.643209,0 -124.30263,40.643239,0 -124.303349,40.643227,0 -124.303455,40.643225,0</coordinates></LineString></Placemark>
</Document></kml>
