<?xml version="1.0" encoding="UTF-8"?>
<kml xmlns="http://www.opengis.net/kml/2.2">
<Document><name>Day 3 — waypoints + per-segment routes</name>
<Style id="line"><LineStyle><color>ffea580c</color><width>4</width></LineStyle></Style>
<Placemark><name>Day 3 - Start</name><Point><coordinates>-124.3034174,40.6432296,0</coordinates></Point></Placemark>
<Placemark><name>Day 3 - 2</name><description>orig: Point 123</description><Point><coordinates>-124.2043832,40.6176741,0</coordinates></Point></Placemark>
<Placemark><name>Day 3 - 3</name><description>orig: Point 124</description><Point><coordinates>-124.191441,40.6117908,0</coordinates></Point></Placemark>
<Placemark><name>Day 3 - 4</name><description>orig: Point 125</description><Point><coordinates>-124.1913712,40.6116916,0</coordinates></Point></Placemark>
<Placemark><name>Day 3 - 5</name><description>orig: Point 126</description><Point><coordinates>-124.1915965,40.6114554,0</coordinates></Point></Placemark>
<Placemark><name>Day 3 - 6</name><description>orig: Point 127</description><Point><coordinates>-124.1884207,40.6091097,0</coordinates></Point></Placemark>
<Placemark><name>Day 3 - 7</name><description>orig: Point 128</description><Point><coordinates>-124.1905665,40.6075459,0</coordinates></Point></Placemark>
<Placemark><name>Day 3 - 8</name><description>orig: Point 129</description><Point><coordinates>-124.1933667,40.6081567,0</coordinates></Point></Placemark>
<Placemark><name>Day 3 - 9</name><description>orig: Point 130</description><Point><coordinates>-124.1965651,40.6083441,0</coordinates></Point></Placemark>
<Placemark><name>Day 3 - 10</name><description>orig: Point 131</description><Point><coordinates>-124.2003218,40.6090658,0</coordinates></Point></Placemark>
<Placemark><name>Day 3 - 11</name><description>orig: Point 132</description><Point><coordinates>-124.2024261,40.6095955,0</coordinates></Point></Placemark>
<Placemark><name>Day 3 - 12</name><description>orig: Point 133</description><Point><coordinates>-124.2056937,40.6127284,0</coordinates></Point></Placemark>
<Placemark><name>Point 134 - Deflate</name><Point><coordinates>-124.208172,40.6131601,0</coordinates></Point></Placemark>
<Placemark><name>Day 3 - 14</name><description>orig: Point 135</description><Point><coordinates>-124.2143089,40.6132497,0</coordinates></Point></Placemark>
<Placemark><name>Day 3 - 15</name><description>orig: Point 136</description><Point><coordinates>-124.218815,40.6141944,0</coordinates></Point></Placemark>
<Placemark><name>Day 3 - 16</name><description>orig: Point 137</description><Point><coordinates>-124.2223019,40.6143166,0</coordinates></Point></Placemark>
<Placemark><name>Day 3 - 17</name><description>orig: Point 138</description><Point><coordinates>-124.2221303,40.6125492,0</coordinates></Point></Placemark>
<Placemark><name>Day 3 - 18</name><description>orig: Point 139</description><Point><coordinates>-124.2223663,40.6121094,0</coordinates></Point></Placemark>
<Placemark><name>Day 3 - 19</name><description>orig: Point 140</description><Point><coordinates>-124.2235572,40.6114334,0</coordinates></Point></Placemark>
<Placemark><name>Day 3 - 20</name><description>orig: Point 141</description><Point><coordinates>-124.2244799,40.6109529,0</coordinates></Point></Placemark>
<Placemark><name>Day 3 - 21</name><description>orig: Point 142</description><Point><coordinates>-124.2260034,40.6103746,0</coordinates></Point></Placemark>
<Placemark><name>Day 3 - 22</name><description>orig: Point 143</description><Point><coordinates>-124.2267115,40.6097149,0</coordinates></Point></Placemark>
<Placemark><name>Day 3 - 23</name><description>orig: Point 144</description><Point><coordinates>-124.2329098,40.6063665,0</coordinates></Point></Placemark>
<Placemark><name>Day 3 - 24</name><description>orig: Point 145</description><Point><coordinates>-124.250217,40.6057413,0</coordinates></Point></Placemark>
<Placemark><name>Day 3 - 25</name><description>orig: Point 146</description><Point><coordinates>-124.251275,40.5944636,0</coordinates></Point></Placemark>
<Placemark><name>Day 3 - 26</name><description>orig: Point 147</description><Point><coordinates>-124.2553412,40.5934371,0</coordinates></Point></Placemark>
<Placemark><name>Day 3 - 27</name><description>orig: Point 148</description><Point><coordinates>-124.2558205,40.5886704,0</coordinates></Point></Placemark>
<Placemark><name>Day 3 - Finish Line</name><Point><coordinates>-124.2647293,40.5757709,0</coordinates></Point></Placemark>
<Placemark><name>A</name><styleUrl>#line</styleUrl><LineString><tessellate>1</tessellate><coordinates>-124.30342,40.64323,0 -124.30263,40.64324,0 -124.30252,40.64324,0 -124.30205,40.64323,0 -124.30134,40.64323,0 -124.29968,40.64322,0 -124.29802,40.64321,0 -124.29731,40.64321,0 -124.29684,40.6432,0 -124.29679,40.6432,0 -124.2966,40.6432,0 -124.29655,40.64319,0 -124.29636,40.64319,0 -124.29613,40.64318,0 -124.29589,40.64318,0 -124.29565,40.64317,0 -124.29563,40.64317,0 -124.29541,40.64317,0 -124.29518,40.64317,0 -124.29328,40.64316,0 -124.29107,40.64314,0 -124.28806,40.64308,0 -124.28782,40.64308,0 -124.28759,40.64307,0 -124.28722,40.64306,0 -124.28511,40.64304,0 -124.28436,40.64305,0 -124.28367,40.64304,0 -124.28333,40.64304,0 -124.28254,40.64304,0 -124.28135,40.64304,0 -124.28112,40.64304,0 -124.27965,40.64303,0 -124.27875,40.64304,0 -124.27482,40.64304,0 -124.2728,40.64303,0 -124.27256,40.64303,0 -124.27253,40.64303,0 -124.27185,40.64301,0 -124.2714,40.643,0 -124.27131,40.64298,0 -124.27108,40.64298,0 -124.27037,40.64298,0 -124.26968,40.64298,0 -124.26921,40.64298,0 -124.26897,40.64298,0 -124.26873,40.64298,0 -124.26613,40.64297,0 -124.26451,40.64297,0 -124.26341,40.64297,0 -124.26247,40.64297,0 -124.26152,40.64296,0 -124.26128,40.64296,0 -124.25962,40.64296,0 -124.2548,40.64297,0 -124.25148,40.64303,0 -124.25015,40.64305,0 -124.24995,40.64305,0 -124.24663,40.64311,0 -124.24502,40.64313,0 -124.24344,40.64312,0 -124.24297,40.64312,0 -124.24131,40.64311,0 -124.23941,40.6431,0 -124.23775,40.64309,0 -124.23752,40.64309,0 -124.2361,40.64308,0 -124.23597,40.64308,0 -124.23467,40.64306,0 -124.23373,40.64304,0 -124.23207,40.64301,0 -124.23075,40.64299,0 -124.23041,40.64298,0 -124.23017,40.64298,0 -124.22922,40.64296,0 -124.22899,40.64295,0 -124.22875,40.64295,0 -124.22851,40.64294,0 -124.22828,40.64294,0 -124.22789,40.64293,0 -124.22756,40.64293,0 -124.22722,40.64293,0 -124.22649,40.64291,0 -124.22637,40.64291,0 -124.22637,40.64175,0 -124.22637,40.64075,0 -124.22637,40.6406,0 -124.22637,40.64037,0 -124.22637,40.64016,0 -124.22637,40.63997,0 -124.22636,40.63986,0 -124.22635,40.63968,0 -124.2263,40.63946,0 -124.22622,40.6392,0 -124.22616,40.63909,0 -124.22614,40.63904,0 -124.2261,40.63897,0 -124.22598,40.63878,0 -124.22586,40.63862,0 -124.22576,40.6385,0 -124.22566,40.63839,0 -124.22555,40.63827,0 -124.22545,40.63817,0 -124.22527,40.63803,0 -124.22505,40.63787,0 -124.22487,40.63776,0 -124.22471,40.63767,0 -124.2246,40.63761,0 -124.22451,40.63756,0 -124.22445,40.63752,0 -124.22437,40.63746,0 -124.22427,40.63737,0 -124.22416,40.63725,0 -124.2241,40.63714,0 -124.22407,40.63709,0 -124.22405,40.63705,0 -124.22401,40.63698,0 -124.22399,40.63692,0 -124.22395,40.63684,0 -124.22393,40.63678,0 -124.22392,40.63675,0 -124.22377,40.63638,0 -124.22364,40.63606,0 -124.22356,40.63586,0 -124.22347,40.63562,0 -124.22343,40.63552,0 -124.22336,40.63534,0 -124.22329,40.63517,0 -124.22326,40.63511,0 -124.22322,40.635,0 -124.22316,40.63483,0 -124.22313,40.63477,0 -124.22279,40.63392,0 -124.22261,40.63345,0 -124.22256,40.63334,0 -124.22252,40.63321,0 -124.22246,40.63302,0 -124.22234,40.63261,0 -124.22231,40.63251,0 -124.22226,40.63233,0 -124.22221,40.63216,0 -124.22215,40.63194,0 -124.22206,40.63163,0 -124.22197,40.6313,0 -124.22188,40.63098,0 -124.22176,40.6306,0 -124.22164,40.63025,0 -124.22159,40.6301,0 -124.22146,40.62973,0 -124.22143,40.62967,0 -124.22132,40.62939,0 -124.22129,40.6293,0 -124.22125,40.62922,0 -124.22111,40.62886,0 -124.22105,40.6287,0 -124.22101,40.62862,0 -124.2209,40.62836,0 -124.22088,40.62831,0 -124.22082,40.62819,0 -124.22075,40.62802,0 -124.22074,40.628,0 -124.22066,40.62783,0 -124.22063,40.62776,0 -124.22052,40.62754,0 -124.22038,40.62721,0 -124.22029,40.62703,0 -124.2202,40.62684,0 -124.21989,40.62618,0 -124.21987,40.62615,0 -124.2198,40.62601,0 -124.21975,40.62593,0 -124.2197,40.62585,0 -124.2196,40.62569,0 -124.2194,40.62544,0 -124.21935,40.62538,0 -124.21929,40.62531,0 -124.21909,40.62508,0 -124.21907,40.62506,0 -124.21896,40.62493,0 -124.21878,40.62473,0 -124.21869,40.62463,0 -124.21853,40.62445,0 -124.21837,40.62427,0 -124.21828,40.62419,0 -124.21812,40.62404,0 -124.2179,40.62384,0 -124.21782,40.62378,0 -124.21773,40.6237,0 -124.21766,40.62365,0 -124.2175,40.62352,0 -124.21732,40.62339,0 -124.21719,40.6233,0 -124.21715,40.62327,0 -124.21697,40.62315,0 -124.21696,40.62314,0 -124.21686,40.62308,0 -124.21662,40.62293,0 -124.21655,40.62288,0 -124.21634,40.62275,0 -124.21615,40.62264,0 -124.21587,40.62248,0 -124.21558,40.62232,0 -124.21548,40.62227,0 -124.21546,40.62226,0 -124.21502,40.62204,0 -124.21488,40.62197,0 -124.21432,40.62168,0 -124.21333,40.62119,0 -124.2133,40.62118,0 -124.21271,40.62088,0 -124.21244,40.62075,0 -124.21229,40.62069,0 -124.2121,40.62061,0 -124.21177,40.62048,0 -124.21137,40.62035,0 -124.21134,40.62034,0 -124.21107,40.62025,0 -124.21091,40.6202,0 -124.21069,40.62013,0 -124.21057,40.62009,0 -124.21047,40.62006,0 -124.21035,40.62004,0 -124.21028,40.62003,0 -124.21024,40.62003,0 -124.21023,40.62003,0 -124.21015,40.62004,0 -124.21007,40.62007,0 -124.21002,40.6201,0 -124.21001,40.6201,0 -124.20995,40.62014,0 -124.20991,40.62017,0 -124.20986,40.62025,0 -124.20974,40.62011,0 -124.20972,40.6201,0 -124.2096,40.61999,0 -124.20953,40.61994,0 -124.20945,40.61988,0 -124.20941,40.61985,0 -124.20937,40.61982,0 -124.20937,40.61981,0 -124.20933,40.61979,0 -124.20929,40.61977,0 -124.20917,40.6197,0 -124.20912,40.61967,0 -124.20901,40.61963,0 -124.20892,40.61959,0 -124.20891,40.61959,0 -124.20888,40.61958,0 -124.20882,40.61956,0 -124.2088,40.61955,0 -124.20871,40.61952,0 -124.20859,40.61948,0 -124.20852,40.61946,0 -124.20848,40.61945,0 -124.20845,40.61944,0 -124.20838,40.61942,0 -124.20837,40.61941,0 -124.20827,40.61938,0 -124.20796,40.61929,0 -124.20793,40.61928,0 -124.20789,40.61926,0 -124.20782,40.61924,0 -124.20773,40.61921,0 -124.20771,40.61921,0 -124.20767,40.61919,0 -124.20741,40.61911,0 -124.20716,40.61901,0 -124.20692,40.61892,0 -124.20682,40.61888,0 -124.20673,40.61885,0 -124.20654,40.61876,0 -124.20643,40.61872,0 -124.20624,40.61863,0 -124.20612,40.61857,0 -124.20604,40.61853,0 -124.20596,40.61849,0 -124.20594,40.61848,0 -124.20591,40.61846,0 -124.20584,40.61843,0 -124.20581,40.61841,0 -124.20547,40.61823,0 -124.20545,40.61822,0 -124.20537,40.61818,0 -124.20536,40.61817,0 -124.20526,40.61812,0 -124.20522,40.6181,0 -124.20518,40.61808,0 -124.20516,40.61807,0 -124.20467,40.61781,0 -124.20459,40.61777,0 -124.20439,40.61767,0 -124.2043,40.61762,0 -124.20428,40.61761,0 -124.2042,40.61757,0 -124.20419,40.61756,0 -124.2038,40.61735,0 -124.20374,40.61732,0 -124.2037,40.6173,0 -124.2036,40.61725,0 -124.2035,40.6172,0 -124.20321,40.61705,0 -124.20291,40.6169,0 -124.20256,40.61671,0 -124.20205,40.61647,0 -124.20172,40.61631,0 -124.20149,40.61622,0 -124.20119,40.61609,0 -124.20067,40.61589,0 -124.20061,40.61587,0 -124.20057,40.61585,0 -124.20043,40.6158,0 -124.20016,40.6157,0 -124.20001,40.61565,0 -124.19988,40.6156,0 -124.19943,40.61544,0 -124.19917,40.61535,0 -124.19913,40.61533,0 -124.19896,40.61527,0 -124.19891,40.61525,0 -124.19874,40.61519,0 -124.19865,40.61515,0 -124.19789,40.61487,0 -124.19785,40.61485,0 -124.19781,40.61484,0 -124.19758,40.61475,0 -124.19709,40.61457,0 -124.19594,40.61414,0 -124.1953,40.6139,0 -124.19465,40.61366,0 -124.19422,40.6135,0 -124.19401,40.61342,0 -124.19394,40.6134,0 -124.19363,40.61327,0 -124.19343,40.61317,0 -124.1932,40.61305,0 -124.19313,40.61301,0 -124.19291,40.61287,0 -124.19261,40.61267,0 -124.19248,40.61257,0 -124.19233,40.61246,0 -124.19217,40.61234,0 -124.19184,40.6121,0 -124.19173,40.61201,0 -124.19154,40.61187,0 -124.19147,40.61182,0 -124.19143,40.6118,0</coordinates></LineString></Placemark>
<Placemark><name>B</name><styleUrl>#line</styleUrl><LineString><tessellate>1</tessellate><coordinates>-124.1913712,40.6116916,0 -124.1915965,40.6114554,0 -124.1884207,40.6091097,0 -124.1905665,40.6075459,0 -124.1933667,40.6081567,0 -124.1965651,40.6083441,0 -124.2003218,40.6090658,0 -124.2024261,40.6095955,0 -124.2056937,40.6127284,0 -124.208172,40.6131601,0 -124.2143089,40.6132497,0 -124.218815,40.6141944,0 -124.2223019,40.6143166,0 -124.2221303,40.6125492,0 -124.2223663,40.6121094,0 -124.2235572,40.6114334,0 -124.2244799,40.6109529,0 -124.2260034,40.6103746,0</coordinates></LineString></Placemark>
<Placemark><name>C</name><styleUrl>#line</styleUrl><LineString><tessellate>1</tessellate><coordinates>-124.22668,40.60971,0 -124.22671,40.60964,0 -124.22686,40.6093,0 -124.22699,40.60896,0 -124.22712,40.60861,0 -124.22719,40.60844,0 -124.22739,40.60791,0 -124.22752,40.60758,0 -124.22759,40.6074,0 -124.22799,40.60637,0 -124.22805,40.60636,0 -124.22894,40.60636,0 -124.22918,40.60636,0 -124.22941,40.60636,0 -124.23105,40.60635,0 -124.23131,40.60635,0 -124.23155,40.60635,0 -124.23239,40.60635,0 -124.23249,40.60635,0 -124.23263,40.60634,0 -124.23273,40.60634,0 -124.23291,40.60634,0 -124.23358,40.60634,0 -124.23433,40.60633,0 -124.23525,40.60633,0 -124.23715,40.60633,0 -124.23952,40.60633,0 -124.23976,40.60633,0 -124.24023,40.60633,0 -124.24047,40.60633,0 -124.24118,40.60632,0 -124.24175,40.60632,0 -124.24212,40.60633,0 -124.24236,40.60633,0 -124.24308,40.60633,0 -124.24426,40.60633,0 -124.2452,40.60633,0 -124.24592,40.60633,0 -124.24615,40.60633,0 -124.24686,40.60632,0 -124.24757,40.60632,0 -124.24781,40.60632,0 -124.24834,40.60632,0 -124.24852,40.60632,0 -124.25018,40.60634,0 -124.25019,40.60587,0 -124.25019,40.60574,0 -124.25018,40.60544,0 -124.25017,40.60383,0 -124.25017,40.60342,0 -124.25017,40.60329,0 -124.25018,40.60275,0 -124.25018,40.60257,0 -124.25019,40.60174,0 -124.2502,40.60011,0 -124.2502,40.59903,0 -124.25022,40.59795,0 -124.25022,40.59777,0 -124.25023,40.59754,0 -124.25023,40.59741,0 -124.25022,40.59723,0 -124.25022,40.59705,0 -124.25022,40.59687,0 -124.25021,40.59615,0 -124.25021,40.59573,0 -124.25021,40.59543,0 -124.25022,40.59495,0 -124.25023,40.59457,0 -124.25049,40.59451,0 -124.2508,40.59448,0 -124.25112,40.59446,0 -124.25127,40.59447,0 -124.25183,40.59448,0 -124.25187,40.59448,0 -124.25211,40.59449,0 -124.25223,40.59449,0 -124.2527,40.59451,0 -124.25291,40.59454,0 -124.25353,40.59465,0 -124.25417,40.59479,0 -124.2543,40.5948,0 -124.25444,40.59481,0 -124.25459,40.5948,0 -124.25465,40.5948,0 -124.25477,40.59479,0 -124.25513,40.59474,0 -124.25532,40.59472,0 -124.25531,40.59437,0 -124.25529,40.59344,0 -124.25528,40.59311,0 -124.25527,40.59293,0 -124.25523,40.5915,0 -124.25521,40.59016,0 -124.2552,40.58984,0 -124.25519,40.58952,0 -124.25518,40.58933,0 -124.25515,40.58913,0 -124.25547,40.58888,0 -124.25577,40.58864,0 -124.25632,40.58821,0 -124.25654,40.58802,0 -124.25691,40.58777,0 -124.25739,40.58739,0 -124.25755,40.58726,0 -124.25757,40.58725,0 -124.25769,40.58716,0 -124.25777,40.58709,0 -124.25785,40.58702,0 -124.25789,40.58698,0 -124.25793,40.58694,0 -124.25799,40.58688,0 -124.2581,40.58674,0 -124.2582,40.58661,0 -124.25826,40.58654,0 -124.25841,40.58635,0 -124.25847,40.58628,0 -124.25863,40.58608,0 -124.25867,40.58603,0 -124.25886,40.58579,0 -124.25889,40.58575,0 -124.2591,40.58548,0 -124.2592,40.58536,0 -124.25925,40.5853,0 -124.2594,40.58511,0 -124.25948,40.58499,0 -124.25951,40.58495,0 -124.25954,40.58488,0 -124.25957,40.58483,0 -124.25961,40.58477,0 -124.25964,40.58471,0 -124.25967,40.58465,0 -124.25968,40.58461,0 -124.2597,40.58456,0 -124.25971,40.58452,0 -124.25972,40.58448,0 -124.25973,40.58443,0 -124.25973,40.58438,0 -124.25976,40.58393,0 -124.25977,40.58366,0 -124.25977,40.5834,0 -124.25979,40.5831,0 -124.25979,40.58295,0 -124.25982,40.58252,0 -124.25986,40.5821,0 -124.25986,40.58199,0 -124.25987,40.5818,0 -124.25987,40.58173,0 -124.25989,40.58146,0 -124.25989,40.58138,0 -124.2599,40.58131,0 -124.25991,40.58127,0 -124.25992,40.58124,0 -124.25993,40.58121,0 -124.25999,40.58113,0 -124.26004,40.58105,0 -124.26009,40.58098,0 -124.26023,40.58078,0 -124.26027,40.58072,0 -124.26055,40.58032,0 -124.26071,40.58009,0 -124.26079,40.57996,0 -124.26104,40.57961,0 -124.26119,40.57939,0 -124.26133,40.57918,0 -124.26162,40.57875,0 -124.26179,40.57852,0 -124.26181,40.57848,0 -124.26195,40.57828,0 -124.26203,40.57816,0 -124.26214,40.57801,0 -124.26224,40.57785,0 -124.2623,40.57779,0 -124.26238,40.57771,0 -124.26258,40.57756,0 -124.26277,40.57741,0 -124.26291,40.5773,0 -124.26305,40.57719,0 -124.26342,40.57689,0 -124.26368,40.57669,0 -124.26395,40.57648,0 -124.26421,40.57628,0 -124.26456,40.57599,0 -124.26479,40.57582,0</coordinates></LineString></Placemark>
</Document></kml>
