{"type": "FeatureCollection", "features": [{"type": "Feature", "properties": {"day": 1, "name": "Day 1: Arcata \u2192 Eureka", "color": "#2563eb"}, "geometry": {"type": "LineString", "coordinates": [[-124.08605, 40.86802], [-124.08577, 40.8688], [-124.08679, 40.86903], [-124.08688, 40.86878], [-124.08707, 40.86826], [-124.08719, 40.86798], [-124.08719, 40.86796], [-124.08733, 40.86764], [-124.08741, 40.86745], [-124.08784, 40.86754], [-124.08847, 40.86769], [-124.08949, 40.8679], [-124.09054, 40.86813], [-124.09148, 40.86833], [-124.09152, 40.86836], [-124.09152, 40.86841], [-124.09136, 40.86883], [-124.09124, 40.86915], [-124.09106, 40.86962], [-124.09095, 40.86993], [-124.09066, 40.87074], [-124.09052, 40.87114], [-124.09046, 40.8713], [-124.09038, 40.87151], [-124.09037, 40.87152], [-124.0904, 40.87153], [-124.09046, 40.87155], [-124.09075, 40.87161], [-124.09094, 40.87166], [-124.09142, 40.87176], [-124.09243, 40.87197], [-124.09256, 40.872], [-124.09263, 40.87202], [-124.09351, 40.87221], [-124.09456, 40.87243], [-124.09538, 40.87261], [-124.09563, 40.87267], [-124.09595, 40.87273], [-124.09629, 40.87281], [-124.09683, 40.87293], [-124.09695, 40.87295], [-124.09701, 40.87297], [-124.09718, 40.873], [-124.09764, 40.8731], [-124.09806, 40.87319], [-124.09853, 40.87329], [-124.09855, 40.8733], [-124.09896, 40.87339], [-124.0994, 40.87348], [-124.10018, 40.87365], [-124.10079, 40.87378], [-124.1011, 40.87385], [-124.10113, 40.87385], [-124.10116, 40.87386], [-124.10112, 40.8748], [-124.10114, 40.87549], [-124.10113, 40.87589], [-124.10113, 40.87599], [-124.10113, 40.87619], [-124.10113, 40.87673], [-124.10113, 40.87686], [-124.10112, 40.87727], [-124.10112, 40.87731], [-124.10112, 40.87745], [-124.10109, 40.87817], [-124.10109, 40.87825], [-124.10107, 40.87894], [-124.10105, 40.87941], [-124.10105, 40.87972], [-124.10103, 40.87985], [-124.10089, 40.88026], [-124.10076, 40.88064], [-124.10071, 40.88076], [-124.10057, 40.88111], [-124.10075, 40.88115], [-124.10324, 40.88182], [-124.10449, 40.88217], [-124.10528, 40.88238], [-124.10551, 40.88243], [-124.10585, 40.88252], [-124.10632, 40.88264], [-124.10664, 40.88272], [-124.10728, 40.8829], [-124.10744, 40.88294], [-124.10753, 40.88296], [-124.10773, 40.88302], [-124.10779, 40.88304], [-124.10794, 40.88306], [-124.10813, 40.88307], [-124.10823, 40.88307], [-124.10826, 40.88307], [-124.10846, 40.88307], [-124.10922, 40.88307], [-124.1097, 40.88307], [-124.11208, 40.88309], [-124.11231, 40.88309], [-124.11564, 40.88311], [-124.1185, 40.88313], [-124.12043, 40.88315], [-124.12118, 40.88315], [-124.12169, 40.88314], [-124.12294, 40.88316], [-124.12304, 40.88316], [-124.12382, 40.88317], [-124.12467, 40.88318], [-124.12533, 40.88318], [-124.12618, 40.88319], [-124.1283, 40.88321], [-124.12937, 40.88321], [-124.12948, 40.8832], [-124.12971, 40.8832], [-124.12991, 40.88317], [-124.12996, 40.88317], [-124.13012, 40.88312], [-124.13027, 40.88307], [-124.13034, 40.88303], [-124.13041, 40.88296], [-124.13044, 40.88287], [-124.13044, 40.88265], [-124.13046, 40.8815], [-124.13046, 40.88126], [-124.13047, 40.8809], [-124.13047, 40.88072], [-124.13047, 40.88053], [-124.13048, 40.88028], [-124.13048, 40.88018], [-124.13048, 40.87991], [-124.13048, 40.87982], [-124.13048, 40.87974], [-124.13049, 40.87964], [-124.1305, 40.87962], [-124.13054, 40.8795], [-124.13057, 40.87947], [-124.13069, 40.87932], [-124.13073, 40.87927], [-124.1308, 40.87916], [-124.13085, 40.87909], [-124.1309, 40.87898], [-124.13093, 40.87886], [-124.13093, 40.87864], [-124.13092, 40.87846], [-124.13092, 40.87844], [-124.13093, 40.87798], [-124.13099, 40.8772], [-124.131, 40.87717], [-124.13102, 40.87707], [-124.13105, 40.87703], [-124.13108, 40.87696], [-124.13117, 40.87684], [-124.13123, 40.87679], [-124.13131, 40.87673], [-124.13158, 40.87655], [-124.13167, 40.8765], [-124.1318, 40.87644], [-124.13188, 40.87642], [-124.13195, 40.8764], [-124.13212, 40.87638], [-124.13224, 40.87639], [-124.13239, 40.87642], [-124.13253, 40.87646], [-124.13265, 40.87652], [-124.13281, 40.87658], [-124.133, 40.87663], [-124.13321, 40.87669], [-124.13322, 40.87669], [-124.1333, 40.8767], [-124.13352, 40.8767], [-124.13416, 40.8766], [-124.13424, 40.87658], [-124.13437, 40.87657], [-124.1344, 40.87657], [-124.13459, 40.87653], [-124.13471, 40.87647], [-124.13477, 40.87643], [-124.13488, 40.87633], [-124.13492, 40.87627], [-124.13495, 40.87617], [-124.13495, 40.87499], [-124.13495, 40.87488], [-124.13497, 40.87373], [-124.13496, 40.87321], [-124.13497, 40.87266], [-124.13498, 40.87234], [-124.13498, 40.87212], [-124.13498, 40.87167], [-124.13498, 40.87122], [-124.13497, 40.8705], [-124.13497, 40.86998], [-124.13497, 40.86924], [-124.13497, 40.86888], [-124.13498, 40.86874], [-124.13498, 40.8687], [-124.13498, 40.86849], [-124.13499, 40.86833], [-124.13537, 40.86833], [-124.13582, 40.86832], [-124.13625, 40.8683], [-124.13656, 40.86828], [-124.13657, 40.86828], [-124.13697, 40.86824], [-124.1373, 40.8682], [-124.13742, 40.86819], [-124.13797, 40.86811], [-124.13828, 40.86806], [-124.1383, 40.86805], [-124.13864, 40.86799], [-124.13907, 40.86789], [-124.13976, 40.86774], [-124.14124, 40.86737], [-124.14262, 40.86704], [-124.14305, 40.86694], [-124.14307, 40.86693], [-124.144, 40.8667], [-124.14462, 40.86655], [-124.14592, 40.86623], [-124.14638, 40.86612], [-124.14678, 40.86602], [-124.14705, 40.86593], [-124.14758, 40.86578], [-124.14774, 40.86574], [-124.14786, 40.8657], [-124.14797, 40.86567], [-124.14854, 40.86553], [-124.14893, 40.86542], [-124.14899, 40.86541], [-124.14909, 40.86538], [-124.14956, 40.86526], [-124.14966, 40.86524], [-124.14976, 40.86521], [-124.14999, 40.86515], [-124.15004, 40.86514], [-124.15034, 40.86506], [-124.15094, 40.86491], [-124.1513, 40.86482], [-124.15134, 40.86481], [-124.15147, 40.86478], [-124.15157, 40.86476], [-124.15201, 40.86465], [-124.15219, 40.8646], [-124.15242, 40.86453], [-124.15258, 40.86448], [-124.1528, 40.8644], [-124.15299, 40.86433], [-124.15328, 40.86419], [-124.15345, 40.8641], [-124.15349, 40.86407], [-124.15372, 40.86394], [-124.15412, 40.86364], [-124.15432, 40.8635], [-124.15454, 40.86335], [-124.15499, 40.86306], [-124.15511, 40.86299], [-124.15541, 40.86284], [-124.15563, 40.86275], [-124.15579, 40.86268], [-124.15595, 40.86262], [-124.15651, 40.86239], [-124.15676, 40.86229], [-124.15707, 40.86214], [-124.15725, 40.86206], [-124.15739, 40.86199], [-124.15755, 40.86189], [-124.15778, 40.86175], [-124.15794, 40.86164], [-124.15809, 40.86152], [-124.15822, 40.86142], [-124.15839, 40.86128], [-124.15869, 40.86099], [-124.15879, 40.86089], [-124.15891, 40.86075], [-124.15911, 40.8605], [-124.15928, 40.86027], [-124.15942, 40.86004], [-124.15955, 40.85981], [-124.15999, 40.85898], [-124.1613, 40.85657], [-124.16139, 40.8564], [-124.1622, 40.85491], [-124.1626, 40.85416], [-124.16299, 40.85345], [-124.16326, 40.85294], [-124.16352, 40.85248], [-124.16386, 40.85186], [-124.16398, 40.85165], [-124.16408, 40.85148], [-124.16434, 40.85096], [-124.16474, 40.85022], [-124.16533, 40.84913], [-124.16535, 40.84908], [-124.16553, 40.84875], [-124.16599, 40.84792], [-124.16603, 40.84784], [-124.16628, 40.84789], [-124.1663, 40.8479], [-124.16635, 40.84791], [-124.1664, 40.84791], [-124.16652, 40.84793], [-124.1666, 40.84794], [-124.16677, 40.84796], [-124.16677, 40.84783], [-124.16681, 40.84772], [-124.16685, 40.84766], [-124.16709, 40.84735], [-124.16711, 40.84732], [-124.16712, 40.84731], [-124.16722, 40.84716], [-124.16728, 40.84703], [-124.16733, 40.84658], [-124.16737, 40.84644], [-124.16745, 40.84636], [-124.16761, 40.84627], [-124.16781, 40.84614], [-124.16793, 40.84601], [-124.16802, 40.84589], [-124.16805, 40.84583], [-124.16814, 40.84567], [-124.16815, 40.84566], [-124.16843, 40.84513], [-124.16847, 40.84506], [-124.1686706, 40.8451305], [-124.168629, 40.8453343], [-124.1691708, 40.8453181], [-124.1691682, 40.84531], [-124.1696587, 40.8455204], [-124.1696443, 40.8455058], [-124.1700214, 40.8460258], [-124.1707992, 40.8461061], [-124.1715395, 40.8465179], [-124.1744905, 40.8476843], [-124.1903607, 40.8218842], [-124.1896169, 40.8215926], [-124.1893581, 40.8216058], [-124.1894806, 40.821153], [-124.1895624, 40.8207726], [-124.18955, 40.82076], [-124.1895, 40.8208], [-124.18949, 40.82081], [-124.18929, 40.82095], [-124.18909, 40.82108], [-124.18889, 40.82121], [-124.18868, 40.82133], [-124.1885, 40.82143], [-124.18846, 40.82145], [-124.18825, 40.82157], [-124.1882, 40.82159], [-124.18803, 40.82167], [-124.1879, 40.82173], [-124.18787, 40.82174], [-124.18764, 40.82185], [-124.18749, 40.82191], [-124.18725, 40.82202], [-124.18705, 40.8221], [-124.18678, 40.8222], [-124.18656, 40.82228], [-124.18637, 40.82234], [-124.18617, 40.8224], [-124.18597, 40.82246], [-124.18577, 40.82251], [-124.18557, 40.82256], [-124.18534, 40.82261], [-124.1851, 40.82266], [-124.18485, 40.82272], [-124.18451, 40.82279], [-124.18434, 40.8228], [-124.18414, 40.82282], [-124.184, 40.82283], [-124.1838, 40.82285], [-124.18357, 40.82287], [-124.18274, 40.82294], [-124.18223, 40.82298], [-124.18212, 40.82299], [-124.18174, 40.82302], [-124.18162, 40.82303], [-124.18134, 40.82306], [-124.18112, 40.82309], [-124.18093, 40.82312], [-124.18074, 40.82315], [-124.18048, 40.8232], [-124.18026, 40.82325], [-124.18009, 40.82329], [-124.17984, 40.82336], [-124.17972, 40.8234], [-124.17967, 40.82342], [-124.17952, 40.82347], [-124.17931, 40.82355], [-124.17914, 40.82362], [-124.17895, 40.82371], [-124.17881, 40.82378], [-124.17872, 40.82383], [-124.1785, 40.82395], [-124.17837, 40.82403], [-124.17825, 40.82411], [-124.17808, 40.82423], [-124.17797, 40.82431], [-124.17791, 40.82436], [-124.1778, 40.82445], [-124.17764, 40.82459], [-124.17748, 40.82475], [-124.17725, 40.825], [-124.17703, 40.82526], [-124.17687, 40.82545], [-124.17687, 40.82553], [-124.17654, 40.82592], [-124.17612, 40.82564], [-124.17576, 40.82541], [-124.17527, 40.82509], [-124.17489, 40.82484], [-124.17445, 40.82456], [-124.17423, 40.82442], [-124.17394, 40.82423], [-124.17388, 40.82419], [-124.17387, 40.82418], [-124.17367, 40.82405], [-124.17342, 40.82388], [-124.17308, 40.82366], [-124.17232, 40.82315], [-124.17229, 40.82313], [-124.17211, 40.82302], [-124.17167, 40.82272], [-124.17139, 40.82255], [-124.17121, 40.82243], [-124.1712, 40.82243], [-124.17115, 40.8224], [-124.17102, 40.82232], [-124.17084, 40.8222], [-124.17061, 40.82204], [-124.17049, 40.82196], [-124.17031, 40.82184], [-124.17013, 40.82172], [-124.16995, 40.82161], [-124.16992, 40.82159], [-124.16977, 40.82149], [-124.16959, 40.82137], [-124.16941, 40.82125], [-124.16937, 40.82123], [-124.16923, 40.82114], [-124.16905, 40.82102], [-124.16887, 40.8209], [-124.16869, 40.82078], [-124.16848, 40.82064], [-124.16833, 40.82055], [-124.16815, 40.82043], [-124.16775, 40.82017], [-124.16727, 40.81985], [-124.16726, 40.81984], [-124.16725, 40.81984], [-124.16707, 40.81972], [-124.16689, 40.81961], [-124.16671, 40.81949], [-124.16653, 40.81937], [-124.16644, 40.81931], [-124.16638, 40.81927], [-124.16635, 40.81925], [-124.16618, 40.81913], [-124.166, 40.81902], [-124.16566, 40.81879], [-124.16564, 40.81878], [-124.16554, 40.81872], [-124.16546, 40.81866], [-124.16528, 40.81854], [-124.16487, 40.81827], [-124.16476, 40.81821], [-124.16474, 40.81819], [-124.16438, 40.81795], [-124.1642, 40.81784], [-124.16402, 40.81772], [-124.16396, 40.81767], [-124.16385, 40.8176], [-124.16367, 40.81748], [-124.16357, 40.81741], [-124.1635, 40.81735], [-124.16334, 40.81725], [-124.16332, 40.81723], [-124.16299, 40.81698], [-124.16297, 40.81696], [-124.16283, 40.81684], [-124.16272, 40.81676], [-124.16268, 40.81673], [-124.16266, 40.81671], [-124.16251, 40.81658], [-124.16249, 40.81656], [-124.16238, 40.81648], [-124.16235, 40.81645], [-124.16227, 40.81638], [-124.16219, 40.81631], [-124.16205, 40.81619], [-124.16204, 40.81617], [-124.16189, 40.81603], [-124.16172, 40.81587], [-124.16159, 40.81575], [-124.16147, 40.81563], [-124.16145, 40.81561], [-124.1613, 40.81547], [-124.16119, 40.81536], [-124.16075, 40.81491], [-124.1602, 40.81439], [-124.1601, 40.81429], [-124.16005, 40.81424], [-124.15998, 40.81417], [-124.15959, 40.81379], [-124.15952, 40.81372], [-124.15897, 40.81318], [-124.15894, 40.81315], [-124.15835, 40.81258], [-124.1583, 40.81254], [-124.15824, 40.81249], [-124.15824, 40.81248], [-124.15822, 40.81247], [-124.15816, 40.81241], [-124.15804, 40.8123], [-124.15772, 40.81198], [-124.15723, 40.81151], [-124.15717, 40.81145], [-124.15707, 40.81136], [-124.15686, 40.81115], [-124.15685, 40.81114], [-124.15683, 40.81112], [-124.15674, 40.81103], [-124.15659, 40.81089], [-124.15654, 40.81084], [-124.15641, 40.81072], [-124.15629, 40.8106], [-124.15626, 40.81058], [-124.15615, 40.81046], [-124.1561, 40.81041], [-124.15579, 40.81012], [-124.15566, 40.80999], [-124.15546, 40.8098], [-124.15536, 40.80971], [-124.15531, 40.80965], [-124.15527, 40.80962], [-124.15515, 40.8095], [-124.15512, 40.80947], [-124.15509, 40.80945], [-124.15507, 40.80942], [-124.15493, 40.80928], [-124.15483, 40.80919], [-124.15483, 40.80918], [-124.15471, 40.80906], [-124.15454, 40.80885], [-124.15453, 40.80884], [-124.15452, 40.80883], [-124.15441, 40.80868], [-124.1544, 40.80866], [-124.15431, 40.80852], [-124.15415, 40.80828], [-124.15411, 40.80819], [-124.15406, 40.80811], [-124.15402, 40.80804], [-124.15397, 40.80794], [-124.15396, 40.8079], [-124.15389, 40.80773], [-124.15385, 40.80761], [-124.15382, 40.80752], [-124.15377, 40.80737], [-124.15375, 40.80728], [-124.15373, 40.80721], [-124.15373, 40.8072], [-124.15372, 40.80716], [-124.1537, 40.80707], [-124.1537, 40.80706], [-124.15369, 40.80703], [-124.15368, 40.80694], [-124.15368, 40.80693], [-124.15368, 40.8069], [-124.15367, 40.80685], [-124.15364, 40.80655], [-124.15364, 40.8064], [-124.15366, 40.80626], [-124.15369, 40.80595], [-124.15369, 40.80554], [-124.15369, 40.80513], [-124.1544, 40.80514], [-124.15472, 40.80515], [-124.15543, 40.80516], [-124.15551, 40.80516], [-124.1558, 40.80516], [-124.15691, 40.80517], [-124.15692, 40.80491], [-124.15747, 40.80486], [-124.15766, 40.80484], [-124.15836, 40.80472], [-124.15876, 40.80466], [-124.15886, 40.80508], [-124.15889, 40.80522], [-124.15892, 40.80531], [-124.15897, 40.80548], [-124.1592, 40.80545], [-124.15967, 40.80538], [-124.15999, 40.80533], [-124.16003, 40.80552], [-124.16008, 40.80573], [-124.1601, 40.80585], [-124.15971, 40.80589], [-124.15959, 40.80588], [-124.15946, 40.80588], [-124.15903, 40.80594], [-124.15824, 40.80611], [-124.15776, 40.80622], [-124.15768, 40.80624], [-124.15753, 40.80627], [-124.15651, 40.80651], [-124.15617, 40.80659], [-124.15585, 40.80665], [-124.15584, 40.80666], [-124.15548, 40.80672], [-124.1555, 40.80678], [-124.1557935, 40.8074404]]}}, {"type": "Feature", "properties": {"day": 2, "name": "Day 2: Eureka \u2192 Crab Park", "color": "#16a34a"}, "geometry": {"type": "LineString", "coordinates": [[-124.1542707, 40.8081277], [-124.15478, 40.8085152], [-124.156406, 40.8079412], [-124.1593672, 40.8070073], [-124.1621013, 40.8065523], [-124.1652556, 40.8064792], [-124.168206, 40.8063087], [-124.1718456, 40.805655], [-124.1751179, 40.8048916], [-124.1760611, 40.8044253], [-124.1763669, 40.8037046], [-124.1765239, 40.803264], [-124.180917, 40.799436], [-124.18119, 40.799156], [-124.181439, 40.798879], [-124.181545, 40.798746], [-124.181747, 40.798507], [-124.181797, 40.798448], [-124.181843, 40.798388], [-124.182317, 40.797773], [-124.18277, 40.797148], [-124.182972, 40.796771], [-124.183011, 40.796671], [-124.183019, 40.796641], [-124.183034, 40.796586], [-124.183088, 40.796203], [-124.183094, 40.796002], [-124.183105, 40.795833], [-124.183126, 40.795699], [-124.183162, 40.795566], [-124.183182, 40.795525], [-124.183248, 40.795397], [-124.183363, 40.795173], [-124.18347, 40.794945], [-124.18356, 40.794733], [-124.183673, 40.79443], [-124.183776, 40.794167], [-124.183662, 40.794163], [-124.182084, 40.794154], [-124.180636, 40.794145], [-124.179075, 40.794142], [-124.179083, 40.793177], [-124.179097, 40.792913], [-124.178888, 40.792912], [-124.17851, 40.792909], [-124.178327, 40.792908], [-124.178212, 40.792908], [-124.177983, 40.792906], [-124.177974, 40.793039], [-124.177974, 40.793057], [-124.177974, 40.793057], [-124.177974, 40.793039], [-124.177983, 40.792906], [-124.178212, 40.792908], [-124.178327, 40.792908], [-124.17851, 40.792909], [-124.178888, 40.792912], [-124.179097, 40.792913], [-124.1792, 40.792914], [-124.180524, 40.792922], [-124.180632, 40.792923], [-124.180633, 40.79289], [-124.180638, 40.792785], [-124.180639, 40.792264], [-124.18064, 40.791631], [-124.180641, 40.791533], [-124.180667, 40.791535], [-124.180832, 40.791545], [-124.181107, 40.791545], [-124.181526, 40.791545], [-124.182198, 40.791546], [-124.183878, 40.791548], [-124.184223, 40.791548], [-124.184647, 40.791552], [-124.184754, 40.791557], [-124.184748, 40.791574], [-124.1847441, 40.7915734], [-124.1851294, 40.7906423], [-124.1851294, 40.7906423], [-124.1856389, 40.789472], [-124.1858427, 40.7892182], [-124.1860761, 40.7883754], [-124.1882067, 40.7852881], [-124.1915592, 40.7808408], [-124.1917191, 40.7805754], [-124.192438, 40.7805551], [-124.1931944, 40.7792755], [-124.1932426, 40.7790277], [-124.1933124, 40.7787921], [-124.1931353, 40.7787028], [-124.1926418, 40.7786621], [-124.1925667, 40.7785118], [-124.1930334, 40.7772869], [-124.1930618, 40.7771693], [-124.192976, 40.7771206], [-124.1933495, 40.7761166], [-124.193886, 40.776203], [-124.1941072, 40.7760994], [-124.1941287, 40.7759085], [-124.194063, 40.7756667], [-124.1942494, 40.7751], [-124.1945883, 40.77385], [-124.1949326, 40.7736055], [-124.1952116, 40.772789], [-124.1957536, 40.7701331], [-124.1961291, 40.7687356], [-124.1964429, 40.7685609], [-124.1966011, 40.7677077], [-124.1966745, 40.7666368], [-124.1965672, 40.7664824], [-124.1962561, 40.7661736], [-124.1962883, 40.7660517], [-124.1965672, 40.7657836], [-124.1965351, 40.7648166], [-124.1963343, 40.7629581], [-124.1959695, 40.7621454], [-124.1958622, 40.7614628], [-124.1950683, 40.7599838], [-124.1946391, 40.7595125], [-124.1942958, 40.7593012], [-124.1943816, 40.7576758], [-124.1947679, 40.7559204], [-124.1959526, 40.7539912], [-124.1986348, 40.750789], [-124.200018, 40.7489365], [-124.202901, 40.7458429], [-124.2012626, 40.7444816], [-124.200533, 40.7450831], [-124.20053, 40.745082], [-124.200477, 40.745153], [-124.200417, 40.745256], [-124.20039, 40.745344], [-124.200368, 40.74542], [-124.200357, 40.745642], [-124.200362, 40.745919], [-124.200353, 40.746066], [-124.200333, 40.746186], [-124.200287, 40.746367], [-124.200244, 40.746476], [-124.200189, 40.746583], [-124.200006, 40.746854], [-124.199742, 40.747146], [-124.199584, 40.747297], [-124.199326, 40.747566], [-124.199199, 40.747673], [-124.199143, 40.747699], [-124.199083, 40.747709], [-124.199035, 40.747705], [-124.199027, 40.747704], [-124.198992, 40.747701], [-124.198984, 40.747699], [-124.198956, 40.74769], [-124.198876, 40.747635], [-124.198726, 40.747428], [-124.198717, 40.747368], [-124.198712, 40.74733], [-124.198817, 40.747285], [-124.199112, 40.747147], [-124.199399, 40.746977], [-124.199592, 40.74681], [-124.199659, 40.746735], [-124.199766, 40.746633], [-124.19986, 40.746475], [-124.19993, 40.746308], [-124.199978, 40.746143], [-124.2, 40.746001], [-124.200002, 40.745794], [-124.199959, 40.745566], [-124.199874, 40.745367], [-124.199751, 40.745127], [-124.199547, 40.744729], [-124.199365, 40.744336], [-124.199032, 40.743617], [-124.198963, 40.743428], [-124.198961, 40.743415], [-124.198929, 40.743168], [-124.199066, 40.742934], [-124.199222, 40.742686], [-124.199286, 40.742584], [-124.199519, 40.742271], [-124.199875, 40.741812], [-124.200101, 40.741566], [-124.200249, 40.741436], [-124.200397, 40.741288], [-124.200576, 40.741148], [-124.201046, 40.740804], [-124.201344, 40.740622], [-124.201362, 40.740612], [-124.201534, 40.740517], [-124.202235, 40.740138], [-124.203563, 40.739429], [-124.203891, 40.739253], [-124.207149, 40.73751], [-124.208936, 40.736543], [-124.209053, 40.73649], [-124.209165, 40.73645], [-124.209275, 40.736426], [-124.209338, 40.736437], [-124.209415, 40.736464], [-124.210038, 40.735835], [-124.210166, 40.73595], [-124.210646, 40.736411], [-124.210706, 40.73636], [-124.210904, 40.736188], [-124.211362, 40.735665], [-124.211764, 40.735184], [-124.212145, 40.734687], [-124.212355, 40.734417], [-124.212544, 40.734196], [-124.212748, 40.733954], [-124.213051, 40.733584], [-124.213454, 40.733116], [-124.213643, 40.732849], [-124.213814, 40.732583], [-124.213943, 40.73231], [-124.21408, 40.732004], [-124.214244, 40.731523], [-124.214329, 40.731158], [-124.214381, 40.730833], [-124.21445, 40.730222], [-124.214514, 40.729761], [-124.214733, 40.729025], [-124.21493, 40.728199], [-124.21499, 40.727926], [-124.215068, 40.727535], [-124.215119, 40.727145], [-124.215171, 40.726703], [-124.215215, 40.726559], [-124.215266, 40.726391], [-124.215238, 40.726322], [-124.215236, 40.726261], [-124.215364, 40.725539], [-124.21549, 40.724717], [-124.215612, 40.723828], [-124.215667, 40.723389], [-124.215662, 40.723115], [-124.215647, 40.722765], [-124.215675, 40.722655], [-124.215655, 40.722538], [-124.215638, 40.722239], [-124.215618, 40.721812], [-124.215606, 40.721393], [-124.215544, 40.720354], [-124.215562, 40.720192], [-124.215622, 40.719477], [-124.215683, 40.717017], [-124.215683, 40.716321], [-124.215597, 40.715886], [-124.215459, 40.71543], [-124.215305, 40.715053], [-124.215047, 40.714578], [-124.214756, 40.714149], [-124.211998, 40.710463], [-124.211397, 40.709424], [-124.211313, 40.709251], [-124.211237, 40.709061], [-124.211266, 40.708495], [-124.211264, 40.708346], [-124.211229, 40.708191], [-124.211183, 40.708018], [-124.211138, 40.707852], [-124.211039, 40.707701], [-124.210928, 40.707506], [-124.210367, 40.706682], [-124.210189, 40.706458], [-124.20998, 40.706199], [-124.209454, 40.705634], [-124.20922, 40.705423], [-124.209039, 40.705274], [-124.208885, 40.70517], [-124.208739, 40.705105], [-124.208627, 40.705066], [-124.208464, 40.705027], [-124.208293, 40.705001], [-124.208087, 40.705001], [-124.207928, 40.705044], [-124.207872, 40.705059], [-124.207584, 40.704715], [-124.207207, 40.704214], [-124.206967, 40.703909], [-124.206519, 40.703391], [-124.20596, 40.702825], [-124.205633, 40.702486], [-124.20542, 40.702258], [-124.20533, 40.702183], [-124.204963, 40.70179], [-124.204694, 40.701493], [-124.204518, 40.70125], [-124.204241, 40.700807], [-124.204146, 40.700639], [-124.203943, 40.70034], [-124.20384, 40.700148], [-124.203662, 40.699909], [-124.203469, 40.699717], [-124.203232, 40.699514], [-124.203044, 40.699329], [-124.202324, 40.698714], [-124.202147, 40.69857], [-124.201566, 40.698097], [-124.201051, 40.697686], [-124.200754, 40.697461], [-124.200364, 40.697132], [-124.2002, 40.696991], [-124.200152, 40.696945], [-124.200056, 40.696862], [-124.199743, 40.696575], [-124.199066, 40.695936], [-124.198968, 40.695835], [-124.197983, 40.694757], [-124.197698, 40.694431], [-124.196867, 40.693496], [-124.19659, 40.693162], [-124.196414, 40.692907], [-124.196234, 40.692583], [-124.196178, 40.692481], [-124.196144, 40.692375], [-124.196139, 40.692268], [-124.196148, 40.692164], [-124.196228, 40.691957], [-124.196471, 40.691495], [-124.196582, 40.691303], [-124.19686, 40.690734], [-124.197196, 40.690107], [-124.19724, 40.69001], [-124.19729, 40.689865], [-124.197313, 40.689745], [-124.197324, 40.689614], [-124.197316, 40.689328], [-124.197284, 40.689143], [-124.197216, 40.688834], [-124.197008, 40.688234], [-124.196926, 40.687949], [-124.196897, 40.68772], [-124.196909, 40.68762], [-124.197003, 40.687349], [-124.197268, 40.686895], [-124.197392, 40.686648], [-124.197966, 40.685549], [-124.198248, 40.685082], [-124.198783, 40.68417], [-124.198854, 40.683996], [-124.198963, 40.683812], [-124.199038, 40.683652], [-124.199234, 40.683104], [-124.199347, 40.682692], [-124.199435, 40.682315], [-124.199564, 40.681842], [-124.199679, 40.68137], [-124.19971, 40.681105], [-124.1997, 40.680836], [-124.199654, 40.680603], [-124.199585, 40.680453], [-124.199428, 40.68021], [-124.199259, 40.680025], [-124.198894, 40.679732], [-124.198666, 40.679511], [-124.198562, 40.679376], [-124.198446, 40.679151], [-124.197974, 40.678123], [-124.197451, 40.67705], [-124.19737, 40.676841], [-124.197306, 40.676552], [-124.197282, 40.676329], [-124.19725, 40.675841], [-124.197254, 40.675635], [-124.197279, 40.675253], [-124.197452, 40.674125], [-124.197479, 40.673888], [-124.197524, 40.673663], [-124.197721, 40.67315], [-124.197932, 40.672712], [-124.198021, 40.672489], [-124.198092, 40.672278], [-124.198117, 40.672127], [-124.198115, 40.671944], [-124.198089, 40.671701], [-124.197924, 40.671192], [-124.199594, 40.670816], [-124.200327, 40.670645], [-124.200448, 40.670867], [-124.200542, 40.671095], [-124.200602, 40.67131], [-124.200679, 40.671457], [-124.200774, 40.671616], [-124.200911, 40.671746], [-124.200997, 40.671811], [-124.201134, 40.671883], [-124.201263, 40.671941], [-124.201426, 40.671974], [-124.201632, 40.672006], [-124.201804, 40.672006], [-124.201958, 40.671987], [-124.202113, 40.671935], [-124.20225, 40.671876], [-124.202388, 40.671804], [-124.202508, 40.671707], [-124.202594, 40.671609], [-124.202662, 40.671492], [-124.202722, 40.671362], [-124.202748, 40.671219], [-124.202731, 40.670769], [-124.202673, 40.670379], [-124.202667, 40.670244], [-124.202665, 40.670184], [-124.202656, 40.670054], [-124.202675, 40.669935], [-124.202699, 40.669813], [-124.203067, 40.668721], [-124.203486, 40.667316], [-124.203915, 40.665814], [-124.203973, 40.66561], [-124.20426, 40.664499], [-124.204538, 40.663548], [-124.204615, 40.663342], [-124.204725, 40.663137], [-124.204873, 40.662935], [-124.205115, 40.662711], [-124.205219, 40.66264], [-124.205963, 40.662188], [-124.206139, 40.66209], [-124.206367, 40.661946], [-124.2066, 40.661757], [-124.206785, 40.661577], [-124.208523, 40.65951], [-124.209002, 40.658921], [-124.210463, 40.657197], [-124.210646, 40.657022], [-124.210874, 40.656842], [-124.210895, 40.656825], [-124.211139, 40.656666], [-124.211575, 40.656435], [-124.21261, 40.655939], [-124.213068, 40.655734], [-124.213495, 40.655568], [-124.213794, 40.655466], [-124.214068, 40.655384], [-124.214358, 40.655312], [-124.214818, 40.655209], [-124.2155, 40.655105], [-124.215937, 40.655038], [-124.217483, 40.654822], [-124.217925, 40.654737], [-124.218285, 40.654647], [-124.218679, 40.65451], [-124.219098, 40.654334], [-124.219209, 40.654274], [-124.219636, 40.653989], [-124.219947, 40.653758], [-124.22024, 40.65349], [-124.220435, 40.653287], [-124.220585, 40.653079], [-124.220882, 40.652603], [-124.221007, 40.652418], [-124.221105, 40.652302], [-124.221329, 40.652073], [-124.221469, 40.651959], [-124.221686, 40.651804], [-124.221892, 40.65168], [-124.222532, 40.651329], [-124.222973, 40.651102], [-124.223281, 40.650906], [-124.223569, 40.650677], [-124.223912, 40.650349], [-124.224123, 40.650108], [-124.224225, 40.649963], [-124.22482, 40.649004], [-124.225926, 40.64717], [-124.226037, 40.646942], [-124.22617, 40.646588], [-124.226288, 40.646226], [-124.226334, 40.646029], [-124.22636, 40.645675], [-124.226372, 40.643149], [-124.22638, 40.642925], [-124.227503, 40.642923], [-124.228152, 40.642931], [-124.230761, 40.642977], [-124.234692, 40.643038], [-124.235991, 40.643059], [-124.241321, 40.643103], [-124.245024, 40.643114], [-124.246642, 40.643094], [-124.249938, 40.643042], [-124.250145, 40.643036], [-124.254873, 40.642993], [-124.255048, 40.642992], [-124.255149, 40.642966], [-124.259616, 40.642959], [-124.263422, 40.642976], [-124.266129, 40.642981], [-124.270364, 40.642987], [-124.271375, 40.642978], [-124.271848, 40.642991], [-124.272512, 40.643009], [-124.274769, 40.643028], [-124.27963, 40.643029], [-124.282536, 40.643019], [-124.283331, 40.64304], [-124.283674, 40.64304], [-124.284363, 40.643047], [-124.285111, 40.643044], [-124.287219, 40.643062], [-124.29107, 40.643137], [-124.293275, 40.643154], [-124.295463, 40.643158], [-124.296611, 40.64318], [-124.296805, 40.643183], [-124.299676, 40.643209], [-124.30263, 40.643239], [-124.303349, 40.643227], [-124.303455, 40.643225]]}}, {"type": "Feature", "properties": {"day": 3, "name": "Day 3: Crab Park \u2192 Ferndale", "color": "#ea580c"}, "geometry": {"type": "LineString", "coordinates": [[-124.30342, 40.64323], [-124.30263, 40.64324], [-124.30252, 40.64324], [-124.30205, 40.64323], [-124.30134, 40.64323], [-124.29968, 40.64322], [-124.29802, 40.64321], [-124.29731, 40.64321], [-124.29684, 40.6432], [-124.29679, 40.6432], [-124.2966, 40.6432], [-124.29655, 40.64319], [-124.29636, 40.64319], [-124.29613, 40.64318], [-124.29589, 40.64318], [-124.29565, 40.64317], [-124.29563, 40.64317], [-124.29541, 40.64317], [-124.29518, 40.64317], [-124.29328, 40.64316], [-124.29107, 40.64314], [-124.28806, 40.64308], [-124.28782, 40.64308], [-124.28759, 40.64307], [-124.28722, 40.64306], [-124.28511, 40.64304], [-124.28436, 40.64305], [-124.28367, 40.64304], [-124.28333, 40.64304], [-124.28254, 40.64304], [-124.28135, 40.64304], [-124.28112, 40.64304], [-124.27965, 40.64303], [-124.27875, 40.64304], [-124.27482, 40.64304], [-124.2728, 40.64303], [-124.27256, 40.64303], [-124.27253, 40.64303], [-124.27185, 40.64301], [-124.2714, 40.643], [-124.27131, 40.64298], [-124.27108, 40.64298], [-124.27037, 40.64298], [-124.26968, 40.64298], [-124.26921, 40.64298], [-124.26897, 40.64298], [-124.26873, 40.64298], [-124.26613, 40.64297], [-124.26451, 40.64297], [-124.26341, 40.64297], [-124.26247, 40.64297], [-124.26152, 40.64296], [-124.26128, 40.64296], [-124.25962, 40.64296], [-124.2548, 40.64297], [-124.25148, 40.64303], [-124.25015, 40.64305], [-124.24995, 40.64305], [-124.24663, 40.64311], [-124.24502, 40.64313], [-124.24344, 40.64312], [-124.24297, 40.64312], [-124.24131, 40.64311], [-124.23941, 40.6431], [-124.23775, 40.64309], [-124.23752, 40.64309], [-124.2361, 40.64308], [-124.23597, 40.64308], [-124.23467, 40.64306], [-124.23373, 40.64304], [-124.23207, 40.64301], [-124.23075, 40.64299], [-124.23041, 40.64298], [-124.23017, 40.64298], [-124.22922, 40.64296], [-124.22899, 40.64295], [-124.22875, 40.64295], [-124.22851, 40.64294], [-124.22828, 40.64294], [-124.22789, 40.64293], [-124.22756, 40.64293], [-124.22722, 40.64293], [-124.22649, 40.64291], [-124.22637, 40.64291], [-124.22637, 40.64175], [-124.22637, 40.64075], [-124.22637, 40.6406], [-124.22637, 40.64037], [-124.22637, 40.64016], [-124.22637, 40.63997], [-124.22636, 40.63986], [-124.22635, 40.63968], [-124.2263, 40.63946], [-124.22622, 40.6392], [-124.22616, 40.63909], [-124.22614, 40.63904], [-124.2261, 40.63897], [-124.22598, 40.63878], [-124.22586, 40.63862], [-124.22576, 40.6385], [-124.22566, 40.63839], [-124.22555, 40.63827], [-124.22545, 40.63817], [-124.22527, 40.63803], [-124.22505, 40.63787], [-124.22487, 40.63776], [-124.22471, 40.63767], [-124.2246, 40.63761], [-124.22451, 40.63756], [-124.22445, 40.63752], [-124.22437, 40.63746], [-124.22427, 40.63737], [-124.22416, 40.63725], [-124.2241, 40.63714], [-124.22407, 40.63709], [-124.22405, 40.63705], [-124.22401, 40.63698], [-124.22399, 40.63692], [-124.22395, 40.63684], [-124.22393, 40.63678], [-124.22392, 40.63675], [-124.22377, 40.63638], [-124.22364, 40.63606], [-124.22356, 40.63586], [-124.22347, 40.63562], [-124.22343, 40.63552], [-124.22336, 40.63534], [-124.22329, 40.63517], [-124.22326, 40.63511], [-124.22322, 40.635], [-124.22316, 40.63483], [-124.22313, 40.63477], [-124.22279, 40.63392], [-124.22261, 40.63345], [-124.22256, 40.63334], [-124.22252, 40.63321], [-124.22246, 40.63302], [-124.22234, 40.63261], [-124.22231, 40.63251], [-124.22226, 40.63233], [-124.22221, 40.63216], [-124.22215, 40.63194], [-124.22206, 40.63163], [-124.22197, 40.6313], [-124.22188, 40.63098], [-124.22176, 40.6306], [-124.22164, 40.63025], [-124.22159, 40.6301], [-124.22146, 40.62973], [-124.22143, 40.62967], [-124.22132, 40.62939], [-124.22129, 40.6293], [-124.22125, 40.62922], [-124.22111, 40.62886], [-124.22105, 40.6287], [-124.22101, 40.62862], [-124.2209, 40.62836], [-124.22088, 40.62831], [-124.22082, 40.62819], [-124.22075, 40.62802], [-124.22074, 40.628], [-124.22066, 40.62783], [-124.22063, 40.62776], [-124.22052, 40.62754], [-124.22038, 40.62721], [-124.22029, 40.62703], [-124.2202, 40.62684], [-124.21989, 40.62618], [-124.21987, 40.62615], [-124.2198, 40.62601], [-124.21975, 40.62593], [-124.2197, 40.62585], [-124.2196, 40.62569], [-124.2194, 40.62544], [-124.21935, 40.62538], [-124.21929, 40.62531], [-124.21909, 40.62508], [-124.21907, 40.62506], [-124.21896, 40.62493], [-124.21878, 40.62473], [-124.21869, 40.62463], [-124.21853, 40.62445], [-124.21837, 40.62427], [-124.21828, 40.62419], [-124.21812, 40.62404], [-124.2179, 40.62384], [-124.21782, 40.62378], [-124.21773, 40.6237], [-124.21766, 40.62365], [-124.2175, 40.62352], [-124.21732, 40.62339], [-124.21719, 40.6233], [-124.21715, 40.62327], [-124.21697, 40.62315], [-124.21696, 40.62314], [-124.21686, 40.62308], [-124.21662, 40.62293], [-124.21655, 40.62288], [-124.21634, 40.62275], [-124.21615, 40.62264], [-124.21587, 40.62248], [-124.21558, 40.62232], [-124.21548, 40.62227], [-124.21546, 40.62226], [-124.21502, 40.62204], [-124.21488, 40.62197], [-124.21432, 40.62168], [-124.21333, 40.62119], [-124.2133, 40.62118], [-124.21271, 40.62088], [-124.21244, 40.62075], [-124.21229, 40.62069], [-124.2121, 40.62061], [-124.21177, 40.62048], [-124.21137, 40.62035], [-124.21134, 40.62034], [-124.21107, 40.62025], [-124.21091, 40.6202], [-124.21069, 40.62013], [-124.21057, 40.62009], [-124.21047, 40.62006], [-124.21035, 40.62004], [-124.21028, 40.62003], [-124.21024, 40.62003], [-124.21023, 40.62003], [-124.21015, 40.62004], [-124.21007, 40.62007], [-124.21002, 40.6201], [-124.21001, 40.6201], [-124.20995, 40.62014], [-124.20991, 40.62017], [-124.20986, 40.62025], [-124.20974, 40.62011], [-124.20972, 40.6201], [-124.2096, 40.61999], [-124.20953, 40.61994], [-124.20945, 40.61988], [-124.20941, 40.61985], [-124.20937, 40.61982], [-124.20937, 40.61981], [-124.20933, 40.61979], [-124.20929, 40.61977], [-124.20917, 40.6197], [-124.20912, 40.61967], [-124.20901, 40.61963], [-124.20892, 40.61959], [-124.20891, 40.61959], [-124.20888, 40.61958], [-124.20882, 40.61956], [-124.2088, 40.61955], [-124.20871, 40.61952], [-124.20859, 40.61948], [-124.20852, 40.61946], [-124.20848, 40.61945], [-124.20845, 40.61944], [-124.20838, 40.61942], [-124.20837, 40.61941], [-124.20827, 40.61938], [-124.20796, 40.61929], [-124.20793, 40.61928], [-124.20789, 40.61926], [-124.20782, 40.61924], [-124.20773, 40.61921], [-124.20771, 40.61921], [-124.20767, 40.61919], [-124.20741, 40.61911], [-124.20716, 40.61901], [-124.20692, 40.61892], [-124.20682, 40.61888], [-124.20673, 40.61885], [-124.20654, 40.61876], [-124.20643, 40.61872], [-124.20624, 40.61863], [-124.20612, 40.61857], [-124.20604, 40.61853], [-124.20596, 40.61849], [-124.20594, 40.61848], [-124.20591, 40.61846], [-124.20584, 40.61843], [-124.20581, 40.61841], [-124.20547, 40.61823], [-124.20545, 40.61822], [-124.20537, 40.61818], [-124.20536, 40.61817], [-124.20526, 40.61812], [-124.20522, 40.6181], [-124.20518, 40.61808], [-124.20516, 40.61807], [-124.20467, 40.61781], [-124.20459, 40.61777], [-124.20439, 40.61767], [-124.2043, 40.61762], [-124.20428, 40.61761], [-124.2042, 40.61757], [-124.20419, 40.61756], [-124.2038, 40.61735], [-124.20374, 40.61732], [-124.2037, 40.6173], [-124.2036, 40.61725], [-124.2035, 40.6172], [-124.20321, 40.61705], [-124.20291, 40.6169], [-124.20256, 40.61671], [-124.20205, 40.61647], [-124.20172, 40.61631], [-124.20149, 40.61622], [-124.20119, 40.61609], [-124.20067, 40.61589], [-124.20061, 40.61587], [-124.20057, 40.61585], [-124.20043, 40.6158], [-124.20016, 40.6157], [-124.20001, 40.61565], [-124.19988, 40.6156], [-124.19943, 40.61544], [-124.19917, 40.61535], [-124.19913, 40.61533], [-124.19896, 40.61527], [-124.19891, 40.61525], [-124.19874, 40.61519], [-124.19865, 40.61515], [-124.19789, 40.61487], [-124.19785, 40.61485], [-124.19781, 40.61484], [-124.19758, 40.61475], [-124.19709, 40.61457], [-124.19594, 40.61414], [-124.1953, 40.6139], [-124.19465, 40.61366], [-124.19422, 40.6135], [-124.19401, 40.61342], [-124.19394, 40.6134], [-124.19363, 40.61327], [-124.19343, 40.61317], [-124.1932, 40.61305], [-124.19313, 40.61301], [-124.19291, 40.61287], [-124.19261, 40.61267], [-124.19248, 40.61257], [-124.19233, 40.61246], [-124.19217, 40.61234], [-124.19184, 40.6121], [-124.19173, 40.61201], [-124.19154, 40.61187], [-124.19147, 40.61182], [-124.19143, 40.6118], [-124.1913712, 40.6116916], [-124.1915965, 40.6114554], [-124.1884207, 40.6091097], [-124.1905665, 40.6075459], [-124.1933667, 40.6081567], [-124.1965651, 40.6083441], [-124.2003218, 40.6090658], [-124.2024261, 40.6095955], [-124.2056937, 40.6127284], [-124.208172, 40.6131601], [-124.2143089, 40.6132497], [-124.218815, 40.6141944], [-124.2223019, 40.6143166], [-124.2221303, 40.6125492], [-124.2223663, 40.6121094], [-124.2235572, 40.6114334], [-124.2244799, 40.6109529], [-124.2260034, 40.6103746], [-124.22668, 40.60971], [-124.22671, 40.60964], [-124.22686, 40.6093], [-124.22699, 40.60896], [-124.22712, 40.60861], [-124.22719, 40.60844], [-124.22739, 40.60791], [-124.22752, 40.60758], [-124.22759, 40.6074], [-124.22799, 40.60637], [-124.22805, 40.60636], [-124.22894, 40.60636], [-124.22918, 40.60636], [-124.22941, 40.60636], [-124.23105, 40.60635], [-124.23131, 40.60635], [-124.23155, 40.60635], [-124.23239, 40.60635], [-124.23249, 40.60635], [-124.23263, 40.60634], [-124.23273, 40.60634], [-124.23291, 40.60634], [-124.23358, 40.60634], [-124.23433, 40.60633], [-124.23525, 40.60633], [-124.23715, 40.60633], [-124.23952, 40.60633], [-124.23976, 40.60633], [-124.24023, 40.60633], [-124.24047, 40.60633], [-124.24118, 40.60632], [-124.24175, 40.60632], [-124.24212, 40.60633], [-124.24236, 40.60633], [-124.24308, 40.60633], [-124.24426, 40.60633], [-124.2452, 40.60633], [-124.24592, 40.60633], [-124.24615, 40.60633], [-124.24686, 40.60632], [-124.24757, 40.60632], [-124.24781, 40.60632], [-124.24834, 40.60632], [-124.24852, 40.60632], [-124.25018, 40.60634], [-124.25019, 40.60587], [-124.25019, 40.60574], [-124.25018, 40.60544], [-124.25017, 40.60383], [-124.25017, 40.60342], [-124.25017, 40.60329], [-124.25018, 40.60275], [-124.25018, 40.60257], [-124.25019, 40.60174], [-124.2502, 40.60011], [-124.2502, 40.59903], [-124.25022, 40.59795], [-124.25022, 40.59777], [-124.25023, 40.59754], [-124.25023, 40.59741], [-124.25022, 40.59723], [-124.25022, 40.59705], [-124.25022, 40.59687], [-124.25021, 40.59615], [-124.25021, 40.59573], [-124.25021, 40.59543], [-124.25022, 40.59495], [-124.25023, 40.59457], [-124.25049, 40.59451], [-124.2508, 40.59448], [-124.25112, 40.59446], [-124.25127, 40.59447], [-124.25183, 40.59448], [-124.25187, 40.59448], [-124.25211, 40.59449], [-124.25223, 40.59449], [-124.2527, 40.59451], [-124.25291, 40.59454], [-124.25353, 40.59465], [-124.25417, 40.59479], [-124.2543, 40.5948], [-124.25444, 40.59481], [-124.25459, 40.5948], [-124.25465, 40.5948], [-124.25477, 40.59479], [-124.25513, 40.59474], [-124.25532, 40.59472], [-124.25531, 40.59437], [-124.25529, 40.59344], [-124.25528, 40.59311], [-124.25527, 40.59293], [-124.25523, 40.5915], [-124.25521, 40.59016], [-124.2552, 40.58984], [-124.25519, 40.58952], [-124.25518, 40.58933], [-124.25515, 40.58913], [-124.25547, 40.58888], [-124.25577, 40.58864], [-124.25632, 40.58821], [-124.25654, 40.58802], [-124.25691, 40.58777], [-124.25739, 40.58739], [-124.25755, 40.58726], [-124.25757, 40.58725], [-124.25769, 40.58716], [-124.25777, 40.58709], [-124.25785, 40.58702], [-124.25789, 40.58698], [-124.25793, 40.58694], [-124.25799, 40.58688], [-124.2581, 40.58674], [-124.2582, 40.58661], [-124.25826, 40.58654], [-124.25841, 40.58635], [-124.25847, 40.58628], [-124.25863, 40.58608], [-124.25867, 40.58603], [-124.25886, 40.58579], [-124.25889, 40.58575], [-124.2591, 40.58548], [-124.2592, 40.58536], [-124.25925, 40.5853], [-124.2594, 40.58511], [-124.25948, 40.58499], [-124.25951, 40.58495], [-124.25954, 40.58488], [-124.25957, 40.58483], [-124.25961, 40.58477], [-124.25964, 40.58471], [-124.25967, 40.58465], [-124.25968, 40.58461], [-124.2597, 40.58456], [-124.25971, 40.58452], [-124.25972, 40.58448], [-124.25973, 40.58443], [-124.25973, 40.58438], [-124.25976, 40.58393], [-124.25977, 40.58366], [-124.25977, 40.5834], [-124.25979, 40.5831], [-124.25979, 40.58295], [-124.25982, 40.58252], [-124.25986, 40.5821], [-124.25986, 40.58199], [-124.25987, 40.5818], [-124.25987, 40.58173], [-124.25989, 40.58146], [-124.25989, 40.58138], [-124.2599, 40.58131], [-124.25991, 40.58127], [-124.25992, 40.58124], [-124.25993, 40.58121], [-124.25999, 40.58113], [-124.26004, 40.58105], [-124.26009, 40.58098], [-124.26023, 40.58078], [-124.26027, 40.58072], [-124.26055, 40.58032], [-124.26071, 40.58009], [-124.26079, 40.57996], [-124.26104, 40.57961], [-124.26119, 40.57939], [-124.26133, 40.57918], [-124.26162, 40.57875], [-124.26179, 40.57852], [-124.26181, 40.57848], [-124.26195, 40.57828], [-124.26203, 40.57816], [-124.26214, 40.57801], [-124.26224, 40.57785], [-124.2623, 40.57779], [-124.26238, 40.57771], [-124.26258, 40.57756], [-124.26277, 40.57741], [-124.26291, 40.5773], [-124.26305, 40.57719], [-124.26342, 40.57689], [-124.26368, 40.57669], [-124.26395, 40.57648], [-124.26421, 40.57628], [-124.26456, 40.57599], [-124.26479, 40.57582]]}}]}